HIERARCHY
ROOT Hips
{
	OFFSET -8.230994 107.569221 -0.381315
	CHANNELS 6 Xposition Yposition Zposition Xrotation Yrotation Zrotation
	JOINT Chest
	{
		OFFSET -0.084330 13.643433 0.061230
		CHANNELS 3 Xrotation Yrotation Zrotation
		JOINT Chest2
		{
			OFFSET -1.465308 20.980064 4.093420
			CHANNELS 3 Xrotation Yrotation Zrotation
			JOINT Chest3
			{
				OFFSET -0.897286 14.837189 1.368502
				CHANNELS 3 Xrotation Yrotation Zrotation
				JOINT Neck
				{
					OFFSET -0.446065 17.147263 2.094845
					CHANNELS 3 Xrotation Yrotation Zrotation
					JOINT Head
					{
						OFFSET -0.999531 10.181046 2.274821
						CHANNELS 3 Xrotation Yrotation Zrotation
						End Site
						{
							OFFSET -0.992831 10.197296 2.203879
						}
					}
				}
				JOINT LeftCollar
				{
					OFFSET 4.098634 12.965591 4.110819
					CHANNELS 3 Xrotation Yrotation Zrotation
					JOINT LeftUpArm
					{
						OFFSET 15.941536 -1.404205 -7.238447
						CHANNELS 3 Xrotation Yrotation Zrotation
						JOINT LeftLowArm
						{
							OFFSET 28.532085 -14.197495 11.139097
							CHANNELS 3 Xrotation Yrotation Zrotation
							JOINT LeftHand
							{
								OFFSET 9.959320 5.088684 27.854336
								CHANNELS 3 Xrotation Yrotation Zrotation
								End Site
								{
									OFFSET 2.176662 1.112198 6.087723
								}
							}
						}
					}
				}
				JOINT RightCollar
				{
					OFFSET -4.283508 12.662460 4.808584
					CHANNELS 3 Xrotation Yrotation Zrotation
					JOINT RightUpArm
					{
						OFFSET -15.896010 -4.907272 -5.633087
						CHANNELS 3 Xrotation Yrotation Zrotation
						JOINT RightLowArm
						{
							OFFSET -19.998260 -26.801865 4.632881
							CHANNELS 3 Xrotation Yrotation Zrotation
							JOINT RightHand
							{
								OFFSET -19.055496 -19.265617 12.910404
								CHANNELS 3 Xrotation Yrotation Zrotation
								End Site
								{
									OFFSET -4.164787 -4.210678 2.821693
								}
							}
						}
					}
				}
			}
		}
	}
	JOINT LeftUpLeg
	{
		OFFSET 10.020582 0.061470 0.057257
		CHANNELS 3 Xrotation Yrotation Zrotation
		JOINT LeftLowLeg
		{
			OFFSET 14.011996 -44.814365 6.271056
			CHANNELS 3 Xrotation Yrotation Zrotation
			JOINT LeftFoot
			{
				OFFSET 8.087433 -41.528252 -14.510897
				CHANNELS 3 Xrotation Yrotation Zrotation
				JOINT LeftToe
				{
					OFFSET 0.857546 -21.049156 10.759054
					CHANNELS 3 Xrotation Yrotation Zrotation
					End Site
					{
						OFFSET -1.089020 -9.537832 21.619499
					}
				}
			}
		}
	}
	JOINT RightUpLeg
	{
		OFFSET -10.020585 -0.061668 -0.057258
		CHANNELS 3 Xrotation Yrotation Zrotation
		JOINT RightLowLeg
		{
			OFFSET -9.548100 -45.915085 6.682090
			CHANNELS 3 Xrotation Yrotation Zrotation
			JOINT RightFoot
			{
				OFFSET -1.274153 -41.416191 -16.842058
				CHANNELS 3 Xrotation Yrotation Zrotation
				JOINT RightToe
				{
					OFFSET -4.828726 -21.659544 8.191710
					CHANNELS 3 Xrotation Yrotation Zrotation
					End Site
					{
						OFFSET -7.616405 -10.859426 19.586205
					}
				}
			}
		}
	}
}
MOTION
Frames: 122
Frame Time: 0.033333
-0.028982 105.783409 -1.111728 6.622652 -1.648296 -0.624976 -9.007285 -0.182332 -0.885791 -5.067950 0.932021 0.615270 6.753655 -1.610376 -1.695035 -4.319254 5.206444 -0.376694 0.000001 0.000000 -0.000001 3.707274 8.141779 -14.180986 18.205944 0.676134 -37.456307 38.722767 14.727124 -18.581130 0.000002 -0.000002 -0.000001 6.266725 -4.867096 7.503653 7.159867 12.346291 20.135637 0.636922 18.233207 9.978984 -0.000001 0.000004 -0.000000 7.062359 -1.804184 -13.037162 -18.060116 0.794169 3.733915 -15.371530 4.894001 1.176722 -0.000002 -0.000001 0.000000 0.889484 1.936915 9.250855 -12.325924 -1.709647 -7.437155 -13.296669 7.330645 4.020839 0.000002 0.000001 -0.000001 
-0.027590 105.786385 -1.111314 6.639386 -1.899750 -0.586213 -9.123416 -0.183948 -0.882240 -4.889850 1.060826 0.498275 6.764154 -1.370863 -1.586903 -4.595298 5.128533 -0.229692 0.000002 -0.000000 -0.000001 3.858800 7.567152 -14.521655 18.222199 0.749395 -37.300298 38.253086 14.823290 -18.193145 -0.000000 -0.000004 -0.000001 6.340441 -4.490777 7.561657 7.365353 12.176219 20.162609 0.659677 18.138155 9.764244 -0.000002 0.000002 0.000003 6.972625 -1.796131 -13.062090 -18.089073 0.797823 3.663815 -15.205275 5.279442 1.523928 0.000002 -0.000001 -0.000000 0.906363 1.916292 9.213083 -12.140846 -1.686388 -7.472580 -13.557782 7.556259 4.253261 0.000000 -0.000001 -0.000001 
-0.022066 105.790657 -1.122117 6.527327 -1.830170 -0.707230 -8.519107 -0.194602 -0.796042 -4.802141 0.982562 0.589381 6.372227 -1.627266 -1.730443 -4.747854 5.201578 -0.260501 0.000002 0.000000 -0.000000 3.795735 7.309402 -14.563630 18.242211 1.142322 -37.303317 37.842281 14.580388 -18.298254 -0.000003 0.000001 -0.000002 6.204680 -4.359920 7.595894 7.400194 11.872948 20.190659 0.325603 17.887786 10.277063 0.000002 0.000002 0.000004 6.676521 -1.857384 -12.934591 -17.683664 0.771445 3.619755 -15.483209 5.569349 1.667312 0.000000 -0.000000 -0.000001 0.652366 1.978864 9.310388 -11.546609 -1.648346 -7.375260 -13.220622 7.113683 3.958685 -0.000002 -0.000001 -0.000001 
-0.013560 105.792618 -1.125750 6.610973 -2.172680 -0.658384 -8.606155 -0.170384 -0.938173 -4.639899 1.042439 0.527298 6.280251 -1.445416 -1.554706 -4.528882 5.183040 -0.259340 0.000001 -0.000000 -0.000001 3.810856 7.376253 -14.370896 18.212334 0.913239 -37.386079 37.774655 14.468984 -17.961038 -0.000002 -0.000000 -0.000002 6.224138 -4.627320 7.579572 7.324206 12.038558 20.171748 0.077835 18.317673 10.308659 0.000000 -0.000003 -0.000002 6.856257 -1.852124 -13.016893 -17.786018 0.741216 3.635588 -15.279734 5.462737 1.614496 0.000002 -0.000001 0.000001 0.874536 1.972574 9.255067 -11.901308 -1.590191 -7.509498 -13.210506 7.766061 4.330391 -0.000000 0.000000 0.000000 
-0.000971 105.788773 -1.126435 7.046552 -2.073041 -0.763729 -9.077065 -0.187277 -0.815785 -4.980562 0.965760 0.609705 6.651509 -1.530553 -1.670177 -4.423140 5.163913 -0.220191 0.000000 -0.000001 -0.000001 3.857886 7.109625 -14.266638 18.093630 0.752849 -37.480154 37.973157 15.018993 -18.246557 -0.000002 -0.000000 0.000001 6.185193 -4.726364 7.498114 7.450735 11.939197 20.267745 0.122864 18.139210 10.483867 -0.000000 0.000002 0.000004 6.902305 -1.845935 -12.890036 -18.084884 0.663959 3.598764 -15.054961 5.247732 1.518866 -0.000002 -0.000000 0.000000 0.709866 2.008676 9.349560 -12.079167 -1.548390 -7.464942 -13.058093 7.568040 4.213055 0.000002 0.000002 -0.000000 
0.015072 105.787140 -1.122548 6.788407 -2.095659 -0.740193 -9.041576 -0.156306 -0.858371 -5.503815 0.948692 0.608708 7.144252 -1.534850 -1.620687 -4.057727 5.182443 -0.324517 0.000001 0.000000 -0.000001 3.782917 7.169574 -14.469624 18.062818 0.894560 -37.357180 38.054761 15.011617 -18.363423 -0.000000 0.000005 -0.000001 6.222512 -4.307631 7.667632 7.601562 11.609206 20.107945 0.216832 18.112854 10.500318 -0.000003 -0.000001 0.000003 7.264517 -1.799233 -13.007014 -18.301828 0.697056 3.675785 -15.011974 5.426416 1.639924 -0.000002 -0.000001 0.000000 1.038218 1.950747 9.250830 -12.125502 -1.553612 -7.415880 -13.408278 7.750872 4.431816 -0.000001 0.000002 0.000000 
0.036242 105.788879 -1.122020 6.312820 -2.037209 -0.792413 -8.537935 -0.191072 -0.736127 -5.287219 0.888483 0.686757 6.765915 -1.704520 -1.813238 -3.968213 5.167695 -0.294251 0.000002 -0.000000 -0.000001 3.783533 7.212512 -14.650191 18.227326 1.098555 -37.227372 37.695333 14.969932 -18.155840 0.000003 0.000005 0.000000 6.254178 -3.811613 7.664162 7.346523 11.881965 20.160702 0.458324 17.726494 10.294155 -0.000002 0.000001 -0.000003 7.442595 -1.845697 -13.040239 -17.750173 0.738393 3.734800 -15.683511 5.425686 1.462627 -0.000003 0.000000 -0.000001 1.391427 1.949656 9.230745 -11.809147 -1.582366 -7.366241 -14.162842 7.581033 4.477993 -0.000000 0.000000 0.000000 
0.056999 105.794350 -1.127312 6.120599 -1.833042 -0.795183 -8.334893 -0.189316 -0.692187 -4.916546 0.865986 0.689998 6.344230 -1.770574 -1.899058 -4.063099 5.059364 -0.283182 0.000001 0.000000 -0.000001 3.706698 7.045773 -14.808106 18.004047 1.163667 -37.099286 37.982730 15.376938 -18.691335 -0.000001 -0.000002 -0.000003 6.100778 -3.976169 7.683455 7.395888 11.553506 20.184150 0.502668 17.494560 10.592974 -0.000003 0.000000 0.000001 7.657915 -1.833886 -13.065942 -17.959221 0.737537 3.718157 -15.498241 5.299212 1.416144 -0.000002 -0.000001 -0.000000 1.428862 1.934039 9.163630 -11.778484 -1.628279 -7.327894 -14.161221 7.516108 4.398869 -0.000002 -0.000001 -0.000000 
0.077673 105.794411 -1.132552 6.076462 -1.941250 -0.828164 -8.446118 -0.212187 -0.612328 -5.288782 0.773801 0.784461 6.666923 -1.625616 -2.033472 -3.913207 4.949032 -0.221328 0.000001 0.000001 -0.000000 3.698401 7.069686 -14.816823 17.759673 1.057703 -37.015104 38.232991 15.636048 -19.131722 0.000002 -0.000000 -0.000002 6.006143 -4.422469 7.763003 6.811184 11.935564 20.238515 1.060148 16.812169 10.828508 -0.000001 0.000003 -0.000001 7.715873 -1.822334 -13.064879 -18.142789 0.634106 3.717412 -15.178668 5.349106 1.576369 0.000002 -0.000000 -0.000001 1.436889 1.921365 9.167675 -11.877357 -1.655684 -7.315599 -14.035293 7.593940 4.370406 -0.000000 -0.000001 0.000000 
0.102590 105.793945 -1.136492 5.918053 -2.233242 -0.835734 -8.311742 -0.216162 -0.574940 -4.829322 0.827149 0.739655 6.190626 -1.490443 -1.944824 -3.553421 5.050375 -0.299576 0.000001 -0.000000 -0.000001 3.691084 6.890969 -14.568898 17.729964 0.961134 -37.266035 38.009743 15.506456 -18.944698 -0.000002 -0.000002 -0.000001 6.006782 -4.188568 7.703784 6.837026 11.873691 20.245302 1.245599 16.594614 10.769523 -0.000002 -0.000003 -0.000002 7.991925 -1.819068 -13.110599 -18.394360 0.594324 3.684143 -15.002919 5.726923 1.926843 0.000000 -0.000001 0.000001 1.689339 1.911275 9.142277 -11.906804 -1.616270 -7.358150 -13.750886 7.730482 4.416861 -0.000002 0.000000 0.000001 
0.124922 105.791924 -1.137066 6.248743 -2.334035 -0.802078 -8.768771 -0.213792 -0.600466 -4.770808 0.924993 0.653637 6.249577 -1.523210 -1.812742 -3.301345 5.097377 -0.288124 0.000002 0.000000 -0.000001 3.702995 7.411050 -14.355536 18.143096 1.229832 -37.313515 38.163416 14.777575 -18.874970 -0.000001 0.000004 -0.000006 6.083668 -4.416091 7.491905 7.144875 11.909489 20.258304 1.296040 16.844980 10.865940 -0.000002 -0.000002 -0.000001 7.489433 -1.841473 -13.126340 -18.201520 0.564361 3.633843 -15.245947 5.708762 1.831656 -0.000002 -0.000000 -0.000000 1.241727 1.944302 9.151868 -11.710988 -1.553295 -7.461910 -13.606591 7.760647 4.435158 -0.000000 0.000000 -0.000000 
0.152245 105.789734 -1.137218 6.233434 -2.085709 -0.884476 -8.478495 -0.238465 -0.476541 -5.966586 0.803878 0.764167 7.117754 -1.592929 -1.925440 -2.713199 5.108004 -0.277604 0.000002 -0.000000 -0.000000 3.642007 7.553394 -14.209329 18.075175 1.150853 -37.419649 38.459091 14.799051 -19.169095 -0.000001 0.000005 -0.000001 6.041555 -4.452411 7.429637 7.401161 11.590333 20.225496 1.036983 16.958111 10.847365 -0.000004 0.000002 0.000004 7.468240 -1.824433 -13.080520 -18.129118 0.569870 3.709920 -15.027031 5.476113 1.739740 0.000002 0.000000 -0.000002 1.139909 1.921954 9.156741 -11.796480 -1.591310 -7.362877 -13.699397 7.622129 4.378441 -0.000004 0.000001 -0.000001 
0.176349 105.790993 -1.137785 5.812145 -2.105706 -0.932044 -8.053987 -0.233827 -0.497123 -6.176144 0.738594 0.830082 7.221474 -1.578535 -1.944075 -3.118013 5.036596 -0.197043 0.000002 0.000000 -0.000001 3.640446 7.545965 -14.161181 18.279690 1.317678 -37.474711 38.333627 14.681999 -19.012187 -0.000001 0.000003 -0.000000 6.062945 -4.536853 7.458748 7.382585 11.688000 20.265858 1.105791 16.923303 10.437922 -0.000002 -0.000003 -0.000000 7.766217 -1.827421 -13.047715 -17.777635 0.581114 3.653709 -15.200777 5.594808 1.728791 -0.000001 -0.000001 -0.000000 1.249425 1.950392 9.173018 -11.139791 -1.526904 -7.358759 -13.954058 7.708324 4.549053 0.000002 -0.000001 0.000002 
0.197496 105.790817 -1.140423 6.072306 -2.204566 -0.961449 -8.639305 -0.232045 -0.497063 -5.224247 0.770088 0.802827 6.559580 -1.539637 -1.874215 -3.342096 4.985627 -0.160506 0.000001 0.000000 -0.000001 3.692542 7.387716 -14.189205 18.114466 1.157568 -37.432917 38.266101 14.815759 -18.994097 -0.000002 -0.000000 -0.000001 6.072003 -4.547075 7.542088 7.419875 11.640849 20.221335 1.226211 16.776656 10.259594 -0.000002 0.000004 0.000004 7.492752 -1.826885 -13.017418 -17.411091 0.667037 3.633677 -15.582597 5.732494 1.750274 -0.000002 0.000000 0.000000 1.015463 1.953395 9.227167 -10.992190 -1.553659 -7.428860 -14.162682 7.797734 4.589510 0.000002 0.000000 -0.000000 
0.221123 105.794426 -1.142616 5.874468 -2.085209 -1.050398 -8.880369 -0.232100 -0.476873 -4.993000 0.675396 0.903837 6.801414 -1.774672 -1.983251 -3.469108 4.807759 -0.037660 0.000001 -0.000000 -0.000001 3.754805 6.916985 -14.399415 17.819765 0.711595 -37.196920 38.006051 15.436456 -18.524033 -0.000002 0.000002 0.000001 6.120930 -4.485690 7.875533 7.490211 11.544649 19.988796 1.046176 16.977620 9.770368 -0.000001 0.000000 0.000003 7.269441 -1.835307 -12.947982 -16.824487 0.743983 3.609081 -15.680313 5.888463 1.810090 0.000000 -0.000002 0.000001 0.172149 2.017171 9.301132 -9.970096 -1.559647 -7.278513 -14.033220 7.169923 4.221097 -0.000000 0.000000 0.000000 
0.246445 105.797943 -1.137318 5.134992 -1.993809 -1.187346 -8.314505 -0.275494 -0.381768 -4.390278 0.571374 1.040380 6.166061 -1.903397 -2.192684 -3.016537 4.685148 0.092460 0.000001 -0.000000 -0.000001 3.843484 7.131647 -14.372926 17.922575 0.732890 -37.167219 37.762453 15.870192 -18.294812 0.000002 0.000000 0.000002 6.184820 -4.711237 7.816182 7.662775 11.530906 20.184944 0.970074 16.975108 9.356236 -0.000001 0.000000 0.000001 7.657810 -1.818154 -13.012349 -16.103534 0.758365 3.802571 -15.845284 5.899383 1.783721 0.000000 -0.000001 -0.000000 -0.899225 2.088079 9.417243 -7.947839 -1.669557 -7.129323 -14.217500 6.936995 4.075267 -0.000002 0.000000 0.000000 
0.271102 105.799820 -1.129583 4.584375 -1.936843 -1.322730 -7.551192 -0.306192 -0.326083 -5.124907 0.375074 1.237016 6.641924 -2.015315 -2.429255 -3.027249 4.422831 0.193387 0.000002 0.000000 -0.000001 4.112713 7.076127 -14.386159 17.761639 0.240366 -37.043101 37.584731 16.688763 -17.641737 -0.000001 -0.000001 -0.000004 6.409345 -4.594841 7.688811 7.750788 11.777541 20.436686 1.121898 17.256340 8.517020 -0.000001 0.000001 -0.000003 8.029363 -1.691601 -12.988065 -15.666347 0.826910 3.917789 -16.147464 5.960955 1.764704 0.000002 0.000000 -0.000001 -1.389942 2.087920 9.555810 -6.354211 -1.838209 -7.081713 -14.947594 6.913355 4.039401 0.000002 -0.000003 -0.000001 
0.286778 105.805214 -1.127323 4.193424 -2.085753 -1.393639 -7.153962 -0.291619 -0.476532 -5.423288 0.297631 1.345089 6.892890 -1.910633 -2.445107 -2.734260 4.164136 0.395282 0.000001 0.000001 -0.000001 4.172353 6.912904 -14.620892 17.675894 0.050439 -36.361417 37.199652 17.436462 -17.082938 -0.000002 0.000004 -0.000005 6.475335 -4.962202 8.070984 7.815522 11.886248 20.187688 0.977467 17.546997 7.943974 -0.000001 -0.000001 -0.000003 8.273183 -1.682957 -12.924758 -15.185210 0.885378 3.884577 -16.456197 6.368764 2.003248 -0.000003 0.000000 -0.000000 -2.857653 2.184652 9.694337 -4.148718 -1.887215 -6.968805 -14.792381 6.882451 4.079269 0.000000 -0.000000 0.000001 
0.296845 105.808418 -1.123839 3.512657 -1.804810 -1.613770 -6.813203 -0.320276 -0.441902 -4.726000 0.193502 1.495104 6.463471 -2.201948 -2.545909 -2.577365 3.872581 0.468944 0.000001 0.000001 -0.000001 4.435889 7.096536 -14.493527 17.564492 -0.378115 -35.714438 37.442534 18.883783 -16.750518 -0.000001 0.000002 0.000000 6.796998 -4.970504 8.301344 8.227876 11.918579 20.098144 1.342556 17.621273 6.885428 0.000000 -0.000002 -0.000004 8.755030 -1.552178 -12.567694 -14.184632 1.081258 3.670778 -17.040349 6.195302 1.735853 0.000000 -0.000001 -0.000000 -4.113607 2.246435 9.716848 -1.643086 -2.106172 -6.389235 -14.611199 6.588375 3.703317 -0.000002 -0.000000 0.000002 
0.299997 105.809616 -1.118726 3.354801 -1.891647 -1.724458 -6.698488 -0.317642 -0.455785 -5.132222 0.087572 1.603777 6.774080 -1.992997 -2.607506 -2.193043 3.625960 0.537735 0.000002 0.000001 -0.000001 4.490898 6.801825 -14.168671 17.779401 -0.149573 -35.326619 37.491462 19.789467 -16.561887 0.000001 -0.000000 -0.000000 6.749467 -5.241984 8.444003 8.715289 11.448114 20.216407 1.475060 17.370061 6.424808 -0.000003 0.000001 -0.000003 9.104291 -1.505729 -12.284221 -14.094507 1.166851 3.359708 -17.494526 6.474084 1.832829 -0.000003 0.000000 -0.000000 -5.350212 2.325149 9.636994 0.684766 -2.266713 -5.763062 -14.818751 6.449598 3.612879 -0.000002 -0.000002 0.000000 
0.289786 105.788551 -1.113663 3.039441 -1.913479 -1.809713 -6.118471 -0.324186 -0.458568 -4.839516 0.090271 1.573616 6.386337 -2.032108 -2.535908 -1.885265 3.298848 0.603154 0.000002 -0.000001 -0.000001 4.620621 7.078067 -13.999441 17.569965 -0.272796 -34.313716 36.709750 20.582546 -15.770348 0.000000 0.000000 0.000003 6.789523 -5.696051 8.506129 8.750994 11.297825 20.318551 1.894929 16.931846 6.100638 -0.000002 -0.000001 0.000001 9.130525 -1.438121 -12.057360 -13.011702 1.150881 3.080258 -18.259775 6.949064 1.985324 0.000002 -0.000001 0.000001 -6.210285 2.325142 8.848493 3.349361 -2.418661 -4.065291 -14.395356 6.568738 3.495357 0.000001 -0.000002 0.000000 
0.282892 105.729088 -1.080600 3.931744 -1.868049 -1.904662 -8.050414 -0.332180 -0.171523 -1.034149 0.339304 1.383476 3.956860 -2.336839 -2.353150 -3.289291 3.012996 1.052596 0.000000 -0.000000 -0.000001 4.221735 7.281491 -13.413698 16.858930 0.885564 -33.680168 35.118422 20.151889 -16.190969 -0.000001 0.000002 0.000000 6.230460 -5.867442 8.364323 9.298641 9.090787 20.376409 0.198317 16.555392 7.509303 0.000002 0.000002 0.000003 8.003275 -1.479527 -11.926426 -11.687146 0.946780 2.869063 -18.721169 7.770957 2.723269 -0.000002 -0.000000 0.000002 -8.435509 2.252475 7.672990 7.017271 -2.476347 -1.609785 -13.206774 6.576378 3.314125 0.000002 -0.000001 0.000002 
0.277969 105.662529 -1.049416 3.941218 -1.733894 -1.898653 -8.026668 -0.373979 0.035756 0.305924 0.471624 1.216119 2.923183 -2.641590 -2.303940 -3.466340 2.959718 1.285137 0.000001 -0.000000 -0.000001 4.096467 7.147791 -12.735316 16.232546 1.112433 -33.117644 33.463713 19.936877 -15.441965 -0.000004 -0.000002 0.000002 5.901549 -7.369678 8.163177 9.779149 7.736638 20.362708 -0.543625 16.564206 8.725797 -0.000002 0.000001 0.000001 8.001773 -1.436925 -11.884300 -10.833984 0.866718 2.810206 -19.252377 7.984270 2.763720 0.000002 0.000001 -0.000001 -10.534881 2.338688 6.425094 10.571418 -2.340921 0.769795 -12.215985 5.658561 2.761979 0.000002 -0.000001 -0.000001 
0.257668 105.590103 -1.040412 3.622972 -3.025035 -1.759457 -7.399470 -0.277137 -0.126799 0.504191 0.452201 1.091970 2.339585 -1.793066 -2.020986 -1.983440 2.840652 0.873934 0.000001 -0.000000 -0.000001 4.428902 5.470828 -12.542870 15.450972 0.924237 -30.972135 30.988698 20.939369 -13.151154 -0.000001 0.000003 0.000001 5.987331 -6.833873 8.244997 10.295890 6.810024 20.438219 0.163292 16.374624 7.451453 -0.000000 0.000002 0.000003 8.237544 -1.148667 -12.041974 -10.225504 0.491786 2.565632 -19.816815 8.533049 2.572151 -0.000003 -0.000001 0.000000 -12.467248 2.440924 5.011123 14.235724 -1.767489 2.948500 -12.174854 5.383302 2.683895 -0.000003 0.000000 0.000000 
0.217049 105.508194 -1.029404 1.716424 -3.844005 -1.763765 -4.059998 -0.198630 -0.296854 -0.008557 0.326782 0.999327 1.406321 -1.255720 -1.785157 -2.327147 2.423164 0.681247 0.000000 -0.000000 -0.000001 4.085125 4.177486 -12.109139 13.451690 0.312653 -28.130349 27.540660 21.259254 -11.229372 0.000001 0.000001 -0.000000 5.628139 -6.384486 8.512147 10.757266 4.974075 20.228560 -0.726502 16.636917 7.405224 -0.000001 0.000003 0.000004 8.908723 -0.823737 -11.913770 -8.888024 0.436015 2.164680 -20.513315 8.877902 2.176766 -0.000002 -0.000000 0.000000 -12.714586 2.421110 3.223701 17.567197 -1.115798 5.151040 -12.827820 3.480194 1.876792 -0.000000 -0.000003 -0.000001 
0.161709 105.420647 -1.015144 0.734086 -4.421267 -1.914929 -1.757301 -0.178416 -0.283666 -1.067431 0.259513 0.939459 1.370656 -0.595869 -1.623585 -2.236005 2.243233 0.725273 -0.000001 -0.000000 -0.000000 3.962597 2.934266 -11.433346 11.557245 -1.459325 -25.676940 25.276387 22.613797 -9.699165 -0.000001 0.000003 -0.000003 5.377390 -7.131188 8.721929 10.904511 4.233702 20.053466 -1.948257 17.402151 7.299929 -0.000003 0.000003 0.000001 8.610317 -0.814726 -11.662047 -7.339813 0.371850 1.962990 -21.439545 9.585142 2.238994 -0.000003 0.000000 -0.000000 -12.252219 2.457973 1.869643 18.601313 -0.508244 6.979210 -12.577363 0.573644 0.435428 -0.000003 0.000001 -0.000001 
0.070177 105.321564 -0.994276 0.584272 -4.832217 -2.089128 -0.937290 -0.183714 -0.109465 -3.515509 -0.072243 1.132333 3.240920 -1.255286 -1.906195 -0.946590 2.791800 -0.066074 0.000000 0.000000 -0.000001 3.690885 2.937624 -10.316135 9.445341 -3.465007 -22.213655 22.325984 23.386455 -7.615841 0.000001 -0.000002 0.000002 5.168279 -5.496337 8.642310 11.829529 2.787194 20.320327 -2.083023 16.261094 6.880705 -0.000000 0.000000 0.000003 7.824885 -0.937950 -11.189490 -5.774273 0.099663 1.573808 -22.024039 10.149486 2.321160 0.000002 0.000000 -0.000001 -11.913830 2.510915 0.177397 18.862285 -0.063265 8.563811 -12.050943 -3.398904 -1.788695 -0.000002 -0.000002 0.000000 
-0.058518 105.239403 -0.966399 1.702127 -5.797177 -2.250091 -2.309869 -0.195943 0.183971 -1.770901 0.149794 0.855287 2.242213 -1.341852 -1.599584 -0.739220 3.146584 -0.543469 0.000000 0.000000 -0.000001 3.672629 1.844257 -8.855118 6.860105 -6.695868 -17.735368 20.408105 26.131474 -6.398567 0.000003 -0.000002 -0.000001 5.059381 -4.210264 8.363507 12.209786 1.896716 21.093484 -1.288462 14.508782 5.420272 -0.000002 0.000000 0.000001 5.407852 -1.167130 -10.483687 -4.158198 0.183315 1.054023 -22.030485 10.974068 2.792189 -0.000002 -0.000000 0.000000 -13.371316 2.739080 -1.288736 18.984912 0.191754 9.661256 -11.124024 -6.073002 -3.085897 -0.000000 -0.000002 0.000001 
-0.209315 105.165756 -0.940878 2.311597 -6.448396 -2.222683 -3.372717 -0.215083 0.253806 -0.642327 0.451122 0.476695 1.466852 -1.144473 -1.101952 -0.492124 3.386864 -0.460056 0.000001 -0.000000 -0.000001 3.490842 1.170949 -7.583222 4.933452 -8.867530 -14.492500 19.386638 27.648975 -6.339953 0.000002 -0.000000 0.000001 4.623942 -5.485967 8.470445 12.798794 0.260150 20.953270 -1.468517 13.483896 5.720107 0.000002 -0.000001 0.000001 3.917047 -1.345428 -9.973420 -2.981630 0.162533 0.481087 -22.178034 11.747314 3.209798 -0.000000 -0.000001 0.000002 -13.952243 2.841033 -2.384219 19.167167 0.517786 10.008187 -10.237626 -7.079058 -3.165600 0.000003 -0.000003 -0.000001 
-0.420383 105.101883 -0.910906 2.991330 -6.831008 -2.273153 -3.991763 -0.237052 0.302146 0.379182 0.468442 0.364412 0.613662 -1.289473 -0.870880 -1.558625 3.535105 -0.562003 0.000002 -0.000001 -0.000000 3.256312 2.152679 -5.752672 2.861531 -11.852031 -10.550125 19.441368 29.622353 -6.732659 -0.000001 0.000003 0.000000 4.488087 -5.760654 8.383548 13.065453 -0.683211 21.448710 -1.988425 13.180850 4.518261 -0.000000 0.000003 -0.000005 2.734871 -1.170089 -9.295181 -2.037353 0.133920 0.232780 -22.711641 12.053806 3.253781 -0.000003 -0.000000 0.000000 -14.581781 2.766160 -3.855998 18.808314 0.456846 10.545489 -9.280566 -8.378694 -3.910341 0.000001 -0.000000 0.000001 
-0.717234 105.049370 -0.869216 2.321847 -7.105631 -2.363382 -3.003097 -0.162046 -0.053954 0.254157 0.313389 0.351502 0.382075 -1.024030 -0.393923 -1.448838 3.583678 -1.245506 0.000001 -0.000000 -0.000001 2.639684 2.303424 -3.485091 1.798621 -12.201317 -6.908429 18.719933 30.200327 -7.213454 -0.000002 0.000002 0.000000 3.981364 -5.413634 8.233639 14.036685 -2.454073 21.997599 -0.965133 10.899577 2.763228 0.000001 -0.000001 0.000001 3.236510 -0.918480 -8.450101 -1.087869 0.329832 -0.079084 -22.908296 11.677087 2.729112 -0.000003 -0.000000 -0.000000 -13.945861 2.645364 -5.226063 19.216505 0.397889 10.442713 -8.117134 -9.217865 -4.388846 0.000000 -0.000001 -0.000000 
-1.038950 105.010933 -0.829124 1.482334 -7.284127 -2.390730 -1.993306 -0.070160 -0.291624 -0.416805 0.055750 0.545578 0.599783 -0.970988 -0.369356 -1.406279 3.644246 -1.797023 -0.000001 0.000001 -0.000000 1.912267 2.232637 -2.100314 0.796783 -12.633636 -4.286637 18.339548 31.153500 -7.814025 0.000002 0.000001 -0.000000 3.420730 -5.509234 8.262793 14.204659 -3.649283 22.040592 -0.666428 9.615861 2.123814 -0.000003 0.000000 -0.000001 4.294086 -0.714386 -7.890992 -1.151347 0.543980 -0.306874 -22.799006 11.413684 2.440384 -0.000003 0.000000 0.000001 -13.159203 2.463443 -6.178260 19.277149 0.296961 10.239144 -6.973892 -9.376508 -4.425600 -0.000001 -0.000001 -0.000001 
-1.452189 104.996597 -0.777699 2.402262 -7.315550 -2.488401 -3.593766 -0.013212 -0.215274 0.120299 -0.209683 0.683092 0.671159 -0.913327 -0.397008 -0.319859 3.631046 -2.445896 0.000001 0.000001 -0.000000 1.338983 1.724425 -0.261612 -0.565144 -12.845416 -1.994763 17.163140 32.044973 -8.080234 0.000001 -0.000000 0.000000 2.687162 -5.659033 8.325369 14.274511 -5.377336 21.623829 -2.575249 9.647755 2.556925 -0.000002 0.000004 -0.000000 3.109159 -0.584753 -6.893260 -0.107620 0.552277 -0.262081 -23.044488 11.047218 1.910781 -0.000003 -0.000001 0.000001 -13.821308 2.467457 -6.918145 19.470325 0.217646 10.188829 -6.613145 -8.713203 -4.310762 -0.000000 -0.000005 -0.000001 
-1.975066 105.044617 -0.715758 2.223006 -7.520422 -2.463979 -3.607873 0.099573 -0.669571 -0.271269 -0.241063 0.676524 0.626790 -0.297488 0.058622 0.507726 3.474100 -2.520524 0.000001 0.000000 -0.000001 1.096393 0.580954 0.908523 -1.536179 -12.768347 -0.121831 14.886116 32.624200 -7.222689 -0.000001 0.000003 0.000000 2.078886 -5.900699 8.384685 13.567066 -6.245050 20.724414 -0.735629 6.028453 1.384057 0.000001 0.000003 -0.000001 3.356072 -0.525405 -5.930610 0.389461 0.589915 -0.361662 -22.533783 10.618379 1.641837 -0.000003 -0.000001 0.000000 -13.163682 2.397806 -7.118453 18.953213 0.266818 9.401360 -6.578608 -6.845975 -3.144339 -0.000002 -0.000002 0.000001 
-2.531913 105.133110 -0.668188 1.463059 -7.311829 -2.725726 -3.788036 0.121735 -0.481438 0.818349 -0.352899 0.723220 -0.003631 -0.365749 0.045773 1.319996 3.402543 -2.902817 0.000001 -0.000001 -0.000000 0.461197 0.224355 1.561748 -2.560735 -12.412331 0.536105 12.859584 32.757184 -6.609023 0.000000 -0.000000 -0.000001 1.628576 -4.611635 8.468172 13.066976 -7.275226 19.938576 -0.179983 3.972403 0.830998 -0.000001 0.000001 -0.000004 3.804361 -0.324992 -4.973503 1.240015 0.739500 -0.299648 -21.641458 9.970011 1.182053 0.000000 0.000000 -0.000000 -12.123992 2.159654 -6.863295 18.059486 0.195434 8.847887 -5.828865 -5.146819 -2.253253 -0.000004 0.000000 -0.000000 
-3.213193 105.293854 -0.617563 1.148699 -6.241845 -3.025076 -2.381026 0.077004 -0.223178 -0.051925 -0.579193 0.979357 0.161079 0.223956 0.023215 1.315621 3.183365 -2.465430 0.000000 -0.000000 -0.000001 0.865563 -1.168967 2.199343 -2.687950 -11.983833 1.883926 9.615403 32.321862 -3.938120 0.000001 0.000005 -0.000001 1.375586 -4.052515 7.846733 12.655688 -7.611154 18.654269 -0.268970 2.692637 0.097006 -0.000003 0.000004 0.000002 3.806318 -0.135109 -3.709440 2.183788 0.614778 0.113577 -20.507576 8.803042 0.459386 0.000000 0.000000 -0.000001 -10.797996 1.908265 -6.290704 16.033802 0.100337 8.765224 -4.967657 -3.190562 -1.383057 -0.000002 0.000001 0.000001 
-4.029099 105.545799 -0.588766 0.280477 -5.414336 -3.108459 -0.943639 0.096914 -0.130551 -0.727687 -0.777483 1.131988 0.205333 0.162249 -0.031708 1.363426 3.456040 -2.319124 0.000000 0.000001 -0.000000 0.522507 -1.732420 1.922570 -3.005210 -10.195948 2.447692 6.283849 29.457786 -2.120176 0.000000 0.000001 -0.000001 0.893393 -4.061455 7.426564 11.136153 -8.030538 15.997346 -0.369210 1.589158 0.389733 -0.000001 0.000003 0.000004 4.984845 0.380827 -2.652234 1.112129 0.493692 0.846458 -18.568419 7.300784 -0.298531 -0.000002 0.000000 -0.000000 -8.963123 1.436559 -4.751740 14.621751 0.197060 7.134935 -5.516265 -1.590230 -0.303977 0.000003 -0.000001 -0.000001 
-4.879839 105.841331 -0.557730 1.213168 -5.013642 -2.800061 -2.962385 0.089897 -0.210611 0.671525 -0.517029 0.893180 -0.124532 1.069257 0.407260 1.810230 2.967399 -2.080187 0.000001 0.000000 -0.000000 0.894755 -2.256186 1.801014 -2.235731 -9.618625 2.647540 3.287015 27.522304 1.132997 0.000000 0.000002 0.000001 1.008353 -4.888421 6.688420 10.335466 -7.072263 13.799049 0.384570 1.796164 -0.410456 -0.000002 0.000000 0.000003 3.895096 0.310843 -1.876062 0.963661 0.560034 0.956794 -17.059384 6.131853 -0.760105 0.000000 0.000001 -0.000001 -8.503439 1.416669 -3.487622 12.586261 -0.009570 5.911663 -5.837133 -0.354035 0.256860 0.000000 -0.000004 0.000001 
-5.838628 106.265228 -0.505310 1.390638 -3.874444 -2.276740 -3.211947 0.089398 -0.008351 1.343235 -0.358371 0.671297 0.205949 1.444866 0.336480 0.980296 2.119975 -1.532116 0.000002 -0.000000 -0.000001 0.891842 -3.615384 1.225315 -2.020524 -6.433782 2.147341 0.659657 21.494190 1.843069 0.000000 0.000003 -0.000000 0.152416 -5.031456 5.306287 7.002296 -5.608659 10.370263 -1.176601 1.188144 1.012829 -0.000003 0.000003 0.000006 2.896653 0.065585 -1.270864 0.822102 0.383244 1.531430 -12.844891 3.757819 -1.386294 0.000000 0.000001 -0.000000 -6.719187 1.214746 -1.948289 9.429281 -0.048101 4.462043 -3.894698 -1.008858 -0.157158 -0.000000 -0.000004 0.000000 
-6.899008 106.819603 -0.455531 0.284026 -2.232945 -1.223572 -1.008343 -0.011939 0.014481 0.282666 -0.014932 0.117107 0.184967 0.999570 0.487428 0.662969 1.293482 -1.055158 0.000001 -0.000000 0.000000 0.902724 -1.908546 0.806187 -0.798009 -3.452490 0.418376 -0.361412 12.271597 2.314169 0.000000 -0.000002 -0.000001 0.335560 -2.035206 2.834869 3.392910 -2.503589 5.885182 -0.537994 0.920913 -0.123947 -0.000001 0.000000 0.000001 2.396998 0.335021 -1.052605 -0.219848 0.017388 2.076449 -7.174476 0.084442 -2.189388 0.000002 -0.000001 -0.000000 -2.609902 0.369971 -0.760935 4.469713 -0.395525 1.904432 -2.163190 0.232290 0.116541 -0.000003 -0.000001 0.000000 
-7.948796 107.410561 -0.404034 -0.353576 -0.955948 -0.225128 -0.053560 0.046628 -0.152350 0.159778 0.089190 -0.084446 0.091789 0.351678 0.328801 0.300411 0.506758 -0.538871 -0.000002 0.000000 -0.000000 -0.172704 0.424411 0.126479 -0.373752 -1.096608 -0.338971 0.184919 3.094670 0.205452 0.000001 0.000001 -0.000000 0.036959 -0.260184 0.870467 0.473798 -0.437395 1.598189 0.009101 -0.135130 0.012500 0.000001 0.000002 0.000003 1.409996 0.202595 -0.571265 -1.331428 -0.352154 1.234483 -0.851170 -1.737357 -1.275838 -0.000003 -0.000000 -0.000000 0.034731 -0.019805 -0.116018 0.728886 -0.020714 0.168258 -0.189212 0.423851 0.161818 0.000002 -0.000001 0.000000 
-9.059815 108.035202 -0.314591 1.017714 2.815327 0.627663 0.157995 -0.136122 0.447711 -0.468526 -0.263308 0.246577 -0.281271 -1.029753 -0.969073 -0.854825 -1.504294 1.567647 0.000002 -0.000001 -0.000001 0.501931 -1.248661 -0.364154 1.061516 3.232993 0.955361 -0.613523 -9.084731 -0.667996 0.000000 0.000001 -0.000001 -0.085659 0.766992 -2.555812 -1.318935 1.358566 -4.673317 -0.026547 0.396883 -0.036602 -0.000000 0.000000 0.000003 -4.128785 -0.675308 1.646801 3.950582 0.866225 -3.668916 2.281257 5.204294 3.608237 0.000000 0.000001 0.000000 -0.102219 0.057764 0.340816 -2.140324 0.073185 -0.492474 0.548892 -1.247892 -0.467233 0.000002 -0.000002 0.000001 
-10.210534 108.615974 -0.208046 1.435411 6.529857 1.721302 -0.502078 -0.133356 0.258474 -2.236206 -0.246328 0.367135 -0.038818 -2.677003 -1.723316 -0.037514 -3.613303 3.863119 0.000001 0.000000 0.000000 0.592028 -1.546054 -0.634720 1.937104 3.971624 -1.921404 3.446739 -18.105570 -6.016771 0.000000 0.000001 -0.000001 -0.272341 1.645139 -6.173399 -3.323987 3.899562 -11.829474 1.928493 -0.646687 0.478830 -0.000000 0.000003 -0.000003 -7.398068 -1.352180 5.804278 11.913370 1.700315 -11.875987 -0.502286 15.160057 9.202380 -0.000002 -0.000001 0.000000 0.149026 -0.061103 0.234082 -2.178845 -0.019403 -0.499209 -1.860907 -2.927102 -0.916753 -0.000000 0.000000 -0.000000 
-11.305595 109.155937 -0.092791 1.634156 9.734877 2.639138 -0.560307 -0.152767 0.448200 -1.977108 0.085016 0.071420 -1.113499 -3.991054 -2.005118 -0.766327 -5.208904 5.473444 0.000002 -0.000001 0.000001 1.020783 -1.131270 -0.422693 2.801156 4.578186 -2.623969 8.856541 -26.321034 -11.679699 0.000001 -0.000000 0.000001 0.150487 2.997255 -9.060044 -4.568580 6.705711 -18.163430 5.172183 -2.395485 0.445294 -0.000000 0.000003 -0.000000 -10.735927 -2.161448 8.880258 19.439577 1.291605 -19.243686 -4.714381 23.022915 14.327871 0.000002 0.000006 0.000001 0.053078 -0.186757 -0.416740 -2.176049 -0.241768 0.263370 -2.627459 -4.396009 -1.688405 0.000002 0.000002 0.000001 
-12.428447 109.704674 0.039922 1.273648 12.503648 4.110601 -0.865314 0.025510 -0.601358 -2.414455 0.103972 0.098240 -0.925984 -4.820967 -1.879397 -1.505778 -6.789109 6.917530 -0.000001 -0.000000 -0.000000 0.859182 -0.242916 0.007196 3.504388 7.869726 -2.218862 16.881419 -32.407161 -19.961158 0.000003 -0.000000 -0.000000 -0.159101 2.906317 -12.768926 -5.685780 8.434381 -24.879376 6.128219 -3.485991 1.123353 0.000000 0.000004 -0.000001 -14.662043 -3.352036 12.637922 27.392132 -0.423147 -28.009585 -12.351825 29.533830 19.711292 0.000000 0.000002 0.000001 0.542126 -0.437260 -1.672453 -2.892993 -0.277065 1.322664 -2.126335 -5.617128 -2.256039 -0.000000 0.000000 0.000000 
-13.579530 110.251015 0.153698 1.857911 15.373571 5.423084 -1.465744 0.195863 -1.383945 -2.436433 -0.521731 0.843967 -0.894420 -5.852353 -2.750812 -2.525853 -7.912884 7.844453 -0.000000 -0.000000 0.000001 0.780068 -0.457872 -0.421994 4.763642 12.348944 -1.900995 24.898789 -36.995720 -27.609320 -0.000000 0.000001 -0.000001 -0.668903 2.524637 -16.103988 -6.347832 10.087794 -32.555591 7.278065 -4.340256 2.251705 -0.000001 0.000003 -0.000007 -19.249372 -5.050381 16.390914 34.706715 -3.441302 -36.944780 -20.674107 34.383753 25.196424 -0.000002 0.000001 0.000001 0.618066 -0.543396 -2.776162 -3.918198 -0.055978 2.082837 -2.369746 -6.648881 -2.660442 0.000002 -0.000001 -0.000000 
-14.674886 110.794250 0.254616 0.581160 16.562427 6.759171 -0.021761 0.269618 -1.935377 -2.673227 -0.668000 1.045783 -0.921930 -5.958289 -2.886532 -1.234185 -8.578119 8.557940 0.000001 -0.000001 0.000001 0.599984 0.183185 -1.419445 5.788193 14.787117 -1.402841 32.119600 -40.308228 -33.785859 0.000002 0.000001 -0.000000 -0.880261 2.065580 -18.362467 -6.154913 11.190602 -38.993769 8.726791 -5.049277 2.933562 -0.000006 0.000004 -0.000003 -20.028056 -5.768998 20.294982 39.943366 -6.826849 -44.625697 -27.501325 37.614125 30.145125 0.000002 0.000000 0.000001 2.179807 -0.733157 -3.249781 -4.623380 0.330300 2.020079 -1.407043 -6.887874 -2.681227 0.000002 0.000000 -0.000000 
-15.772881 111.339066 0.341169 1.199266 18.526444 8.091014 -0.927714 0.487847 -3.215385 -4.774061 -0.466031 0.787020 1.476219 -7.143037 -2.549411 -2.914565 -9.580046 9.221634 0.000000 -0.000000 0.000001 0.679118 0.838933 -2.098394 7.761235 16.432762 -1.974841 38.919903 -42.256768 -37.178417 -0.000003 0.000004 0.000007 -0.586677 2.313584 -20.588063 -5.613551 13.294874 -44.986034 11.871819 -6.778417 1.963136 0.000003 -0.000002 0.000005 -22.359174 -7.240121 23.757580 43.568585 -10.509202 -53.181390 -34.767609 40.543501 36.131824 -0.000003 -0.000001 -0.000001 2.873329 -0.765668 -4.117096 -6.465519 0.379042 1.718333 -0.307323 -7.176811 -2.841490 0.000002 0.000000 -0.000000 
-16.835258 111.856773 0.428519 1.478101 20.081455 9.227202 -1.939025 0.704357 -4.179870 -4.265483 -0.628383 1.020235 0.950208 -7.295295 -2.828481 -3.659656 -10.574831 10.104711 0.000002 0.000000 -0.000002 0.544813 1.269602 -2.263798 9.328923 18.265748 -2.912859 44.841599 -43.365568 -39.378144 -0.000000 -0.000002 -0.000001 -1.152736 1.358884 -22.477809 -5.456388 15.320015 -50.240426 13.525991 -7.784906 0.635304 0.000000 0.000000 0.000003 -24.806293 -8.683038 26.846567 46.899200 -14.524713 -60.907652 -39.948974 41.854341 40.123779 0.000000 -0.000000 0.000001 4.021370 -1.068011 -4.484013 -8.408572 0.265624 0.950974 0.441634 -6.757443 -2.609778 0.000004 0.000000 0.000000 
-17.818487 112.331810 0.507948 1.658171 20.046407 10.195810 -2.797314 0.909250 -5.081023 -3.516287 -0.546166 0.980144 -0.131461 -6.985604 -2.714861 -2.309948 -10.740852 10.550702 0.000001 -0.000000 -0.000001 0.514854 2.201715 -2.119132 10.108207 19.053257 -3.675555 49.640982 -43.533324 -41.178415 -0.000001 0.000005 -0.000002 -1.110357 1.409442 -23.856811 -5.120485 15.762618 -54.240185 14.509741 -8.538873 -0.461974 0.000001 0.000000 0.000001 -26.514166 -9.708332 28.975227 48.327943 -17.942328 -67.923240 -43.849507 42.862336 43.560600 0.000003 -0.000001 0.000000 5.237255 -1.387642 -4.805659 -10.233672 0.340394 0.088243 1.097387 -5.423780 -2.047197 0.000004 0.000000 -0.000001 
-18.752968 112.796638 0.584532 0.911283 19.890583 11.387706 -3.031849 1.046390 -5.937317 -2.949537 -0.184530 0.660070 0.017644 -7.380001 -1.962463 -3.490988 -10.911857 10.945814 0.000000 0.000000 -0.000001 0.020534 3.233266 -2.259038 10.641165 20.425319 -4.315687 53.071041 -43.333479 -43.734217 0.000003 0.000003 -0.000001 -1.120082 2.237600 -25.130969 -5.475432 17.764130 -56.932321 14.495012 -9.425749 -1.149852 -0.000002 0.000000 0.000001 -27.339946 -10.538587 30.847030 48.952748 -21.205389 -74.724011 -43.777165 43.103459 44.180129 0.000003 -0.000001 -0.000000 6.496780 -1.729041 -5.459429 -11.037838 0.501580 -0.029457 1.060029 -4.004790 -1.248427 -0.000000 0.000001 0.000002 
-19.628231 113.220520 0.659211 0.396300 20.859526 12.161372 -2.531555 1.005847 -6.050629 -4.294024 0.125449 0.416552 0.698930 -7.966473 -1.806019 -4.732325 -11.465535 11.478367 -0.000000 -0.000001 0.000002 -0.311233 3.703590 -2.038870 11.452372 21.971240 -5.125856 55.931227 -43.053073 -46.217674 -0.000000 0.000003 0.000001 -1.174332 2.975222 -25.586534 -5.721638 19.865750 -59.033366 13.806278 -10.899665 -1.763881 -0.000000 0.000001 -0.000003 -27.988599 -11.554584 32.376405 48.889196 -23.969243 -80.981154 -42.906255 43.217424 44.117237 -0.000003 0.000000 0.000001 8.065914 -1.818878 -5.750662 -13.188034 0.625893 -0.136235 3.271678 -4.569586 -1.285251 -0.000002 0.000000 0.000000 
-20.436172 113.599777 0.731560 0.798648 22.817147 12.470161 -3.288536 1.079457 -6.212265 -4.437404 -0.039428 0.637854 0.775201 -8.689243 -2.019875 -4.545256 -12.186461 12.118436 0.000001 -0.000001 0.000001 -0.351410 3.734648 -2.036749 11.932394 22.966192 -5.655197 57.822961 -42.834418 -47.440165 0.000001 0.000001 -0.000001 -1.675029 2.260111 -26.066116 -6.008078 21.615870 -60.278605 13.693653 -11.873517 -2.500509 -0.000006 0.000004 0.000001 -29.848097 -12.611011 32.463729 51.063560 -26.600817 -83.062935 -41.342199 43.222626 43.503162 -0.000005 0.000002 0.000001 8.310866 -1.862033 -5.912342 -14.454991 0.568115 -0.052339 3.662603 -4.967128 -1.319484 0.000000 -0.000002 0.000001 
-21.207439 113.954720 0.794803 1.219309 23.207279 12.971875 -4.450249 1.335269 -7.049540 -5.434482 0.197691 0.550611 1.824907 -8.808703 -1.777151 -4.421187 -12.546059 12.421916 -0.000001 -0.000000 -0.000001 -1.068765 4.618944 -2.015047 11.860073 23.850438 -5.625507 59.443259 -42.282307 -49.783856 0.000001 0.000005 -0.000001 -2.512088 1.091398 -26.839179 -6.434770 22.328332 -61.277274 12.610849 -12.718815 -2.913719 -0.000001 0.000006 0.000002 -28.820215 -12.660238 33.782584 51.365307 -28.167830 -85.920378 -37.858284 42.684021 41.133120 0.000000 0.000001 -0.000000 7.735175 -1.533754 -6.491975 -14.391528 0.829679 0.232662 -0.386029 -3.379260 0.012495 0.000002 -0.000001 -0.000000 
-21.931541 114.279465 0.849039 1.614567 23.590114 13.116490 -5.308744 1.409307 -7.245254 -5.653841 0.205053 0.608269 2.686555 -9.093574 -1.680137 -5.697049 -12.817393 12.275235 0.000001 -0.000000 0.000001 -1.540097 5.320811 -2.260298 12.362291 25.165820 -5.824433 60.181029 -42.108147 -50.857169 -0.000001 -0.000000 0.000001 -2.951034 0.736596 -27.780215 -6.405221 22.559857 -62.279680 12.102148 -13.284288 -3.500946 -0.000004 -0.000002 0.000005 -29.067192 -13.042613 33.756455 52.223538 -29.081952 -86.674131 -35.414606 42.348303 39.742128 -0.000003 0.000000 -0.000001 7.364487 -1.219904 -6.625418 -15.004025 0.841841 0.202180 -1.851225 -2.684899 0.589994 -0.000000 -0.000002 0.000000 
-22.597267 114.566002 0.899342 1.651613 23.222754 13.310084 -5.071843 1.382603 -7.194860 -5.919962 0.407309 0.405890 3.064685 -9.010394 -1.541833 -6.258286 -13.000008 12.140082 -0.000000 0.000000 -0.000000 -1.682329 4.742384 -2.384749 12.947347 26.830665 -6.390583 60.712479 -41.656429 -51.922524 0.000000 0.000002 0.000000 -3.531168 0.402555 -28.748355 -6.482677 21.998139 -63.184680 11.597122 -13.665895 -3.350287 -0.000002 0.000003 -0.000003 -28.419773 -12.930015 33.902952 51.964103 -29.174105 -87.600953 -34.897612 41.950312 39.094828 -0.000003 0.000002 -0.000000 7.180400 -1.057392 -6.648005 -14.770796 0.727904 0.148781 -2.510521 -1.987865 1.053066 0.000003 -0.000001 0.000000 
-23.221329 114.805939 0.952048 1.405179 23.056371 13.305707 -4.914745 1.342762 -7.046678 -6.185428 0.491148 0.264934 3.150987 -8.878474 -1.510379 -6.307971 -13.359161 12.057984 0.000000 0.000000 0.000000 -1.452620 4.748734 -2.431427 13.886925 27.699096 -7.320869 60.618994 -42.000578 -51.221774 0.000001 -0.000000 0.000001 -3.352868 0.393644 -29.367942 -6.024235 21.929798 -63.768176 11.992140 -13.145004 -3.824013 -0.000003 0.000000 0.000003 -28.741750 -12.757190 33.060882 52.820749 -29.231379 -86.616238 -34.604733 41.523674 38.328863 -0.000002 -0.000001 0.000000 7.331308 -1.097967 -6.047644 -15.023578 0.535272 -0.099008 -3.348065 -1.901994 0.920633 0.000004 -0.000002 0.000000 
-23.809090 115.001678 0.994674 1.148484 22.982352 13.055900 -5.117780 1.293377 -6.771659 -5.557030 0.304898 0.427282 2.584553 -8.967518 -1.838535 -6.054025 -13.669237 12.141254 0.000001 -0.000000 0.000000 -1.600226 5.515519 -2.306914 14.551170 29.230512 -7.658353 62.321248 -41.580009 -52.237662 0.000001 -0.000000 0.000001 -2.870594 1.342267 -29.625085 -5.788650 20.990665 -64.380482 11.591124 -12.277410 -4.364991 -0.000001 0.000002 0.000000 -29.293134 -12.621773 31.982890 54.492342 -29.367768 -84.747744 -33.883032 40.598402 36.675199 -0.000002 -0.000001 0.000002 7.321414 -1.128019 -5.214192 -15.087884 0.109456 0.126046 -3.569480 -2.919258 0.264512 0.000002 0.000002 0.000001 
-24.356876 115.172226 1.029589 1.314765 23.239461 12.809507 -5.498491 1.298964 -6.774506 -4.894756 0.202760 0.546295 2.199599 -8.850597 -1.834162 -6.524709 -13.982762 12.326904 0.000001 0.000000 -0.000001 -1.615034 6.136262 -2.368650 14.907407 29.233787 -7.903526 63.508000 -40.893552 -52.817706 -0.000000 0.000003 -0.000001 -2.540029 1.779709 -29.493385 -5.436748 21.295473 -64.471624 11.149064 -11.786627 -5.002083 -0.000003 0.000000 0.000001 -29.227677 -12.474191 31.459612 55.422525 -29.385694 -83.534081 -33.228146 40.043046 35.828912 0.000000 0.000003 -0.000002 7.057891 -0.963301 -4.555507 -14.752869 -0.038081 0.358549 -4.150207 -3.826651 -0.235590 0.000002 -0.000002 0.000001 
-24.866726 115.290062 1.065749 1.358041 23.317103 12.442801 -5.494355 1.242706 -6.584602 -4.041463 -0.029262 0.789886 1.179305 -8.550184 -2.152654 -7.095700 -14.432150 12.532082 0.000000 0.000000 -0.000000 -1.588710 6.372767 -2.268258 15.536966 29.562315 -8.383440 63.766537 -41.397029 -52.233527 0.000001 0.000003 -0.000000 -2.305427 2.149693 -29.417915 -5.101680 20.747116 -65.009488 11.001616 -11.965313 -6.565474 -0.000001 0.000000 0.000001 -29.577458 -12.447867 30.622385 57.306776 -29.812779 -81.710420 -31.980564 39.682388 34.838538 0.000003 -0.000003 0.000001 6.184080 -0.687730 -3.835770 -14.183637 -0.074301 0.601007 -4.485619 -4.956302 -0.819017 0.000002 -0.000000 0.000001 
-25.344643 115.371140 1.099640 0.763921 22.913239 12.061452 -4.459480 1.097670 -6.122308 -3.029260 -0.406818 1.212247 -0.136004 -7.917546 -2.584020 -7.218870 -14.685187 12.409436 0.000000 -0.000001 0.000001 -2.019736 6.991215 -2.190954 15.637914 29.730625 -8.552716 64.787630 -41.062059 -53.093045 0.000001 0.000003 -0.000001 -2.727932 1.669142 -29.342581 -5.308998 21.727779 -64.986641 9.454947 -10.788032 -7.119008 0.000001 0.000002 0.000004 -28.520059 -12.056191 30.744348 58.018168 -30.006821 -81.204973 -30.727717 39.602540 34.323244 0.000002 -0.000001 -0.000001 6.410234 -0.519541 -2.913404 -14.188614 -0.124860 0.623302 -4.185692 -5.781393 -1.286212 0.000003 0.000002 0.000001 
-25.770031 115.436554 1.139648 0.049542 22.676703 11.858528 -3.491387 0.991204 -5.738349 -3.832313 -0.402329 1.148525 0.308917 -7.888130 -2.590951 -7.172211 -14.941491 12.483724 0.000001 0.000000 -0.000000 -2.297976 7.544861 -2.057978 15.543672 29.516615 -8.771270 65.047245 -41.227777 -53.245187 -0.000000 0.000005 -0.000000 -2.800744 1.765946 -29.379830 -5.372983 21.696921 -64.888908 8.072782 -9.205457 -7.320174 0.000003 0.000001 -0.000003 -28.141119 -11.810774 30.516302 59.116810 -30.169868 -80.179167 -30.300072 39.367585 33.805987 0.000000 -0.000001 0.000000 6.742369 -0.506423 -2.393590 -13.672605 -0.296725 0.933021 -3.941599 -5.934817 -1.492823 -0.000000 0.000000 -0.000000 
-26.153477 115.506889 1.176529 -0.416235 23.086407 11.482716 -2.920156 0.851911 -5.183506 -3.371391 -0.708213 1.503419 -0.366717 -7.386004 -3.053037 -7.446247 -15.320726 12.584061 0.000000 -0.000000 0.000000 -2.416652 7.441635 -1.985260 15.435975 29.465532 -8.756918 65.502265 -40.671943 -53.919767 0.000000 -0.000002 -0.000000 -3.178258 1.078225 -29.430162 -5.516849 22.086177 -64.454856 7.401263 -9.577915 -8.630503 -0.000003 0.000002 0.000003 -28.077745 -11.810375 30.005803 60.057614 -29.938191 -78.898097 -30.666364 38.758957 33.326539 0.000002 0.000002 -0.000001 7.352603 -0.483898 -1.912683 -14.078853 -0.562636 0.997927 -4.135487 -6.124123 -1.661263 0.000002 0.000002 0.000000 
-26.496559 115.574928 1.205517 0.227464 22.818241 10.960993 -3.147543 0.852228 -5.057671 -2.961314 -0.875477 1.701395 -0.690664 -7.265109 -3.134995 -7.846680 -15.520235 12.617443 0.000000 0.000001 0.000000 -2.369394 7.157817 -2.102818 15.629959 30.292767 -8.841059 65.529245 -40.806583 -54.287156 0.000001 0.000001 -0.000000 -3.360633 0.755445 -29.417519 -5.471759 21.244859 -65.281186 6.903118 -9.415199 -8.935946 -0.000003 0.000003 -0.000003 -27.555550 -11.590832 30.262949 58.679924 -29.532628 -79.895052 -30.890490 39.365905 34.108373 -0.000002 -0.000001 0.000000 6.923430 -0.393635 -1.710178 -14.141207 -0.546631 1.074416 -4.217968 -5.706785 -1.447509 -0.000002 -0.000001 -0.000001 
-26.814571 115.686104 1.214175 1.343979 22.720740 10.696680 -3.397238 0.856892 -5.022891 -5.025426 0.025239 0.593029 1.247786 -8.350404 -2.209390 -7.326676 -15.511366 12.981593 0.000001 0.000000 -0.000001 -2.332266 7.478532 -2.611844 15.313931 30.330200 -8.095522 65.502928 -40.867136 -54.024935 0.000002 0.000001 -0.000000 -3.330289 0.870456 -28.887442 -5.479780 20.208935 -66.576559 7.120012 -10.635761 -9.696872 -0.000006 0.000004 0.000004 -26.439107 -11.107646 30.432581 57.784411 -29.094123 -79.924866 -31.694041 39.037591 33.792518 0.000005 -0.000001 -0.000001 5.741147 -0.323869 -2.132311 -13.355706 -0.478984 1.791256 -6.954310 -5.879764 -1.171724 0.000000 -0.000002 0.000000 
-27.098759 115.799332 1.209831 2.188256 22.904624 10.415892 -2.881670 0.793055 -4.746205 -6.733930 0.520070 0.019054 2.363369 -9.321030 -1.966079 -6.955080 -15.592950 13.038692 0.000000 0.000001 -0.000002 -2.196979 7.375821 -2.985562 15.303461 30.825521 -7.435554 64.440779 -42.037933 -52.974650 0.000001 0.000003 0.000001 -2.933735 1.569007 -28.567486 -5.311350 19.234766 -67.119231 7.647810 -11.565716 -10.479756 0.000001 0.000000 -0.000003 -26.082262 -10.838403 30.233518 57.905941 -28.873351 -79.342879 -32.202266 38.665223 33.398249 -0.000003 -0.000001 -0.000001 4.335070 -0.202946 -2.548975 -12.032397 -0.587457 2.514869 -8.784028 -6.801618 -1.613209 0.000006 -0.000004 0.000000 
-27.323784 115.870392 1.212794 3.165035 22.941420 10.145949 -4.196031 0.921340 -5.136609 -4.145667 -0.243585 0.879720 0.376544 -8.224612 -2.572428 -8.115738 -15.835153 13.004594 -0.000000 -0.000001 0.000001 -1.965904 6.422121 -2.797119 15.416524 31.098674 -7.619267 64.515194 -41.800809 -53.003709 0.000000 -0.000004 0.000000 -3.257857 1.005027 -28.629038 -5.607112 20.283988 -66.594385 7.609025 -11.852794 -10.881696 -0.000003 0.000002 0.000006 -26.422998 -10.955222 29.904699 57.792587 -28.830024 -79.339416 -32.144206 38.613218 33.247312 0.000000 0.000002 -0.000004 3.477844 -0.092247 -2.718479 -12.499644 -0.575995 2.567628 -8.441053 -7.100684 -1.727224 0.000000 -0.000000 0.000001 
-27.512035 115.921097 1.221667 3.734833 22.894698 9.997361 -5.046907 1.019461 -5.317394 -2.477743 -0.680441 1.402683 -0.930217 -7.742348 -3.038404 -8.128654 -15.831311 13.062495 -0.000001 0.000000 -0.000000 -1.638599 5.364676 -2.639123 15.744884 31.793079 -8.055524 64.431565 -41.621913 -53.045305 0.000000 -0.000002 -0.000001 -3.446882 0.663788 -28.748461 -5.782025 20.532922 -66.532873 7.551722 -11.732497 -10.929957 -0.000002 0.000003 0.000002 -27.193982 -11.113348 29.427184 57.598903 -28.947161 -79.547976 -31.785453 38.611025 32.985237 -0.000002 0.000000 -0.000003 3.183840 -0.118896 -2.640744 -12.642284 -0.363975 2.398806 -8.564472 -7.027838 -1.630352 0.000002 -0.000001 -0.000001 
-27.660805 115.966171 1.228724 4.006783 22.726879 9.540223 -5.254360 1.017025 -5.168256 -2.263839 -0.753017 1.503171 -1.132646 -7.720312 -3.068181 -8.402366 -15.884640 13.063224 0.000001 -0.000000 0.000001 -1.620107 5.509991 -2.605420 15.670322 31.747949 -8.034162 64.304660 -41.692171 -52.818659 0.000000 0.000003 -0.000001 -3.448158 0.475255 -28.725105 -5.834502 20.576491 -66.375758 7.666636 -11.997786 -11.573131 -0.000003 0.000004 -0.000001 -26.922922 -10.944546 29.586057 57.664719 -28.801600 -79.180115 -31.944979 38.526707 32.741970 0.000000 0.000000 -0.000001 2.552146 -0.049651 -2.376175 -12.132959 -0.365996 2.425682 -8.410378 -6.990413 -1.617558 0.000001 -0.000000 0.000001 
-27.756611 115.995193 1.239925 4.559147 22.850753 9.130119 -5.499299 1.036555 -5.050927 -2.178942 -0.941750 1.735440 -1.234347 -7.927712 -3.339801 -8.517908 -15.870262 12.996216 0.000001 0.000000 -0.000002 -1.640704 5.628667 -2.603466 15.892563 32.046565 -8.038371 63.629059 -42.438452 -52.036196 0.000000 -0.000002 0.000000 -3.428638 0.417888 -28.671696 -5.641817 20.091734 -66.663206 7.705469 -11.753449 -11.718258 0.000001 -0.000001 -0.000000 -26.924536 -10.888221 29.465521 57.243221 -28.661929 -79.365589 -31.952188 38.637540 32.916806 0.000002 -0.000001 -0.000000 1.821380 0.078093 -2.385687 -12.093389 -0.279064 2.447225 -8.687119 -7.277092 -1.779720 0.000001 0.000000 -0.000000 
-27.818283 116.027267 1.250572 4.569282 22.875386 8.789725 -5.740474 1.004983 -4.882268 -2.087238 -1.042887 1.841699 -1.066897 -7.782581 -3.287608 -8.981991 -16.017600 13.002646 0.000002 -0.000001 0.000001 -1.744313 6.271921 -2.674867 15.564709 31.399244 -7.552250 64.011645 -42.383431 -51.852696 0.000000 0.000005 -0.000001 -3.317506 0.373383 -28.500696 -5.507526 20.309002 -66.617936 8.261344 -12.278559 -12.208001 -0.000003 0.000002 0.000003 -26.482508 -10.662872 29.461509 57.206290 -28.413534 -78.989478 -31.849811 38.784830 33.143244 0.000004 0.000001 -0.000001 1.702530 0.130320 -2.293490 -12.161346 -0.289861 2.455942 -8.463734 -7.553148 -2.014041 0.000001 -0.000001 -0.000001 
-27.821735 116.043282 1.270831 4.153339 22.774497 8.454447 -5.281343 0.902795 -4.652727 -2.157993 -0.989439 1.811415 -1.145838 -7.401238 -3.138446 -8.379087 -16.228004 13.325216 -0.000001 -0.000000 0.000001 -1.475804 6.388466 -2.476084 15.608072 30.325903 -7.648866 63.859503 -42.757790 -50.971291 0.000001 0.000003 -0.000001 -2.912468 0.571722 -28.113557 -5.153864 20.368782 -66.305940 8.431871 -12.298213 -12.402852 -0.000002 -0.000001 0.000001 -26.627539 -10.686909 28.867815 57.620145 -28.169001 -78.061747 -31.909291 38.769134 33.206966 0.000005 -0.000000 -0.000001 1.622907 0.206642 -2.092704 -11.134256 -0.330540 2.547376 -9.367023 -7.116978 -1.744590 -0.000000 -0.000001 -0.000001 
-27.768814 116.041634 1.302371 4.011752 22.426527 8.038521 -4.968301 0.829217 -4.458695 -3.447154 -0.740860 1.452846 -0.051184 -7.952155 -2.799325 -7.017598 -15.951422 13.474978 0.000000 0.000001 -0.000002 -1.493327 7.110784 -2.314743 15.643531 30.331234 -7.438447 64.367737 -42.585287 -51.057853 -0.000002 -0.000000 -0.000001 -2.762851 0.562061 -28.001967 -4.955470 19.849170 -66.706660 8.254599 -11.530676 -11.858704 -0.000002 0.000000 0.000001 -26.774779 -10.556179 28.026016 57.897622 -27.452209 -76.357178 -31.806552 39.254777 33.816349 -0.000000 -0.000002 -0.000000 1.738643 0.160924 -1.715955 -10.618584 -0.228730 2.310930 -9.872193 -6.160661 -1.226268 0.000001 -0.000001 0.000000 
-27.701740 116.040192 1.331937 4.329016 22.443645 7.539496 -5.358545 0.800226 -4.253624 -3.604103 -0.643785 1.333822 0.202968 -8.402963 -2.741368 -6.485269 -15.843739 13.688385 0.000000 -0.000001 0.000001 -1.343500 7.079167 -2.078859 15.826812 30.775200 -7.551776 63.535827 -43.519711 -50.626414 0.000001 0.000003 -0.000002 -2.803424 0.359118 -28.210286 -4.925122 20.039915 -66.451238 8.140025 -11.147329 -11.327518 -0.000003 0.000000 0.000001 -27.555053 -10.706228 27.119377 57.696486 -26.761151 -75.068642 -31.680203 40.008106 34.808823 0.000002 -0.000000 0.000001 1.279737 0.219992 -1.533065 -10.683660 -0.096171 2.246058 -9.771690 -5.747948 -1.092941 -0.000002 -0.000001 -0.000001 
-27.541080 115.986725 1.400847 2.473118 21.074525 7.290568 -2.931280 0.611120 -3.657126 -5.360978 -0.335305 0.958872 1.074126 -7.509324 -2.118719 -6.141275 -15.721016 13.809424 -0.000000 -0.000000 -0.000001 -1.737375 7.136296 -1.018715 16.000719 31.298836 -8.385188 63.615637 -43.534782 -52.152989 -0.000000 0.000001 -0.000002 -3.027831 0.510982 -28.470209 -5.360312 21.554306 -64.679125 7.747278 -11.902640 -11.652888 -0.000005 -0.000002 0.000003 -27.143088 -10.449446 25.881971 57.300164 -25.010951 -72.662640 -31.040017 39.307827 33.860946 -0.000003 0.000001 -0.000000 2.348353 0.264838 -0.654740 -9.119016 -0.003681 1.479536 -9.205479 -5.571310 -1.054482 0.000002 -0.000002 0.000001 
-27.348732 115.946648 1.457303 2.807379 20.586095 6.365532 -2.093225 0.443537 -2.653395 -7.269715 0.276878 0.216710 2.203857 -8.167737 -1.721055 -5.432557 -15.403777 13.468653 0.000001 0.000000 -0.000001 -2.291727 7.955882 -0.740563 15.353282 32.457926 -7.677836 64.337452 -42.991362 -53.864777 0.000000 -0.000002 0.000002 -3.179861 0.958778 -28.018974 -6.272149 21.731698 -64.593768 7.445031 -12.821465 -12.015108 -0.000003 0.000002 0.000003 -26.754479 -9.879652 23.841161 54.572358 -21.688378 -69.318818 -30.076369 39.899701 34.411832 0.000000 -0.000001 -0.000001 1.449471 0.314189 0.223985 -7.354024 0.004731 1.284044 -11.990543 -3.705188 0.073971 0.000000 -0.000000 0.000001 
-27.126225 115.890076 1.526935 3.695594 20.509009 5.750629 -3.158659 0.454666 -2.714903 -5.454976 -0.400389 1.027942 1.429430 -6.878488 -2.048912 -7.517094 -15.734336 13.292895 -0.000001 -0.000001 -0.000000 -1.592325 6.149455 -0.558619 16.436850 32.873557 -9.186558 62.897033 -43.158463 -53.038997 0.000001 -0.000005 0.000001 -3.271802 0.744665 -28.246804 -5.900880 21.377029 -64.673886 7.707519 -13.619053 -11.935367 -0.000002 0.000002 0.000002 -26.841414 -9.806358 21.755599 51.652947 -18.750645 -66.392225 -28.658395 40.311104 34.531818 -0.000002 0.000003 -0.000001 -0.162205 0.725460 0.117497 -4.993743 0.068579 2.062545 -13.280393 -4.503555 -0.316185 -0.000004 -0.000002 0.000001 
-26.806187 115.779594 1.623618 3.242092 19.102111 5.536744 -2.852235 0.398518 -2.524872 -7.109021 -0.239278 0.795605 3.171676 -6.081763 -1.789685 -7.211068 -15.374638 12.935077 0.000001 -0.000000 -0.000001 -1.433067 5.138239 -0.101458 17.553231 33.954506 -10.795456 61.443446 -43.337134 -53.270046 0.000002 0.000002 0.000000 -3.660765 0.413311 -28.669412 -6.039078 21.617458 -63.559821 6.282859 -13.241505 -11.814966 -0.000001 0.000000 -0.000001 -25.443513 -8.973275 18.992239 48.311591 -14.785770 -61.087183 -22.500581 37.919656 29.986600 -0.000000 0.000000 -0.000001 -0.376954 0.928181 0.311742 -4.543693 0.228604 1.329663 -11.606629 -4.824689 -0.642163 0.000001 -0.000001 0.000000 
-26.399635 115.639893 1.712842 3.908365 18.747358 4.770112 -3.662840 0.283209 -1.453736 -7.955471 -0.214719 0.678484 4.708519 -6.476633 -2.162027 -8.217036 -14.718918 12.168726 0.000001 0.000000 0.000001 -1.822345 4.183829 -0.301991 17.887007 35.439929 -12.261451 60.966897 -41.827269 -55.009845 0.000002 0.000005 -0.000000 -4.121605 1.080095 -28.623250 -7.177848 21.371510 -62.903180 5.095080 -13.968145 -12.139792 0.000001 0.000000 -0.000001 -24.688665 -8.175166 15.079009 43.309044 -10.036888 -53.813862 -15.145222 34.449910 24.889025 -0.000008 -0.000000 0.000001 -1.009943 1.011447 0.378323 -4.442573 0.400746 1.172219 -11.817603 -6.352855 -1.401531 0.000001 -0.000001 -0.000000 
-25.974239 115.503220 1.797061 3.973106 17.147260 4.082135 -3.220689 0.197027 -0.648950 -8.937565 -0.120060 0.482029 5.440051 -5.808224 -2.075134 -8.161378 -14.254442 11.733571 0.000001 -0.000001 -0.000001 -2.211620 4.561317 -0.517715 18.075522 36.317233 -12.732729 61.336718 -40.819458 -56.197038 -0.000002 0.000005 -0.000003 -3.984568 1.649110 -28.105154 -7.367605 20.375163 -63.326154 4.604422 -14.089156 -12.530436 -0.000003 0.000000 0.000001 -22.562256 -7.139913 12.827562 37.771626 -6.292279 -47.322822 -9.913204 32.564382 22.389608 -0.000005 0.000002 -0.000001 -1.141429 1.035273 1.082457 -4.379915 0.803054 0.245758 -11.114220 -6.102026 -1.106994 0.000000 0.000002 -0.000000 
-25.436203 115.323990 1.883806 4.559796 14.847494 3.055843 -4.340853 0.066359 0.349581 -7.235114 -0.130908 0.317535 4.872692 -4.511568 -1.695310 -8.916324 -13.435305 11.218702 -0.000001 0.000000 -0.000001 -2.231635 3.839416 -0.541777 19.391993 37.570473 -15.238348 60.555132 -40.245291 -56.276387 -0.000001 0.000003 -0.000003 -4.189323 1.826467 -27.482578 -8.518009 22.551970 -61.726387 4.046384 -13.306610 -13.262819 -0.000003 0.000003 0.000001 -20.971375 -5.792189 8.625159 31.874164 -2.889845 -37.493599 -4.528207 27.475172 17.616786 -0.000003 -0.000002 -0.000000 -1.774818 0.828360 1.690826 -3.134883 1.300681 -0.523133 -9.762509 -4.504529 -0.129470 -0.000002 0.000000 0.000000 
-24.807880 115.149658 1.944198 6.890137 12.511445 1.680518 -6.422580 -0.198881 1.514932 -4.470756 -0.023262 0.085321 2.863872 -3.351784 -1.520573 -9.439010 -12.714320 10.752504 0.000001 -0.000001 0.000000 -1.748962 4.474690 -1.125711 20.275688 36.841159 -17.426721 59.036399 -39.052587 -54.199460 -0.000000 -0.000000 0.000000 -3.843234 1.640118 -26.728784 -8.559918 23.447708 -60.845627 3.374206 -12.410436 -14.620992 -0.000001 0.000000 0.000001 -19.312421 -4.625818 3.890845 25.020062 -0.404824 -26.021588 -5.956012 21.180688 12.560753 0.000002 0.000001 0.000001 -3.416503 0.864543 2.124151 -3.904873 1.469319 -0.766741 -11.673214 -3.601364 0.334108 -0.000004 -0.000000 0.000001 
-24.159912 114.979294 1.995365 7.230641 10.027391 0.840023 -5.088961 -0.401602 2.508527 -6.216912 0.684232 -0.805695 3.907154 -2.748639 -0.583464 -9.944320 -11.640739 10.180428 -0.000001 0.000001 -0.000001 -1.460141 4.986890 -1.372735 21.112403 36.318049 -19.457606 57.747911 -37.745995 -52.945386 -0.000001 0.000001 0.000001 -3.214665 2.486734 -25.903778 -8.723095 24.116198 -59.963590 2.200474 -11.341663 -15.279744 -0.000001 0.000000 0.000005 -16.122952 -3.599917 0.714879 18.436016 0.453563 -15.974542 -6.833414 15.628193 8.171930 0.000002 -0.000001 -0.000001 -2.526903 0.773186 2.717156 -5.544574 1.822070 -1.309052 -11.823197 -2.538212 0.936994 -0.000000 -0.000001 -0.000001 
-23.384476 114.731598 2.049418 7.592660 7.213704 -0.070112 -6.378607 -0.584890 3.083515 -5.488958 0.856386 -0.831176 3.557917 -1.131845 -0.260279 -8.768910 -10.768859 9.932223 -0.000001 -0.000000 0.000001 -0.483640 4.044824 -1.250801 23.919538 35.554789 -22.817169 55.305387 -37.465241 -48.893141 0.000000 0.000003 -0.000000 -1.987126 3.053409 -25.148917 -7.504247 24.607700 -58.662924 2.300027 -9.836856 -16.523426 -0.000003 0.000005 -0.000001 -11.843087 -2.672444 -1.798889 10.172063 0.196581 -7.770632 -4.020825 9.725377 4.520579 0.000000 -0.000001 -0.000001 -1.947351 0.767784 2.644574 -6.660280 2.048294 -1.849237 -6.465841 -4.022172 -0.275598 0.000002 0.000000 -0.000000 
-22.472836 114.464035 2.103692 5.954407 5.873661 -1.037100 -5.154418 -0.737026 3.900862 -4.782200 0.690703 -0.658690 3.133617 -1.260294 -0.263370 -8.880551 -9.736239 9.121086 -0.000000 -0.000000 -0.000000 -0.636760 5.525925 -1.390831 24.659452 34.145840 -24.641441 53.916820 -35.855133 -46.616929 -0.000001 -0.000000 -0.000001 -1.059396 4.272547 -23.526281 -7.412454 25.322105 -56.827929 1.432799 -8.364890 -17.919380 -0.000003 0.000003 0.000005 -7.056017 -1.817239 -3.048271 3.261488 -0.656698 -2.146158 -4.057231 7.588548 3.053845 -0.000002 -0.000001 -0.000000 -0.547390 0.630692 2.518363 -5.789802 1.990348 -2.183902 -4.052770 -3.211528 -0.191267 0.000003 0.000000 0.000000 
-21.544491 114.195114 2.166222 4.595014 5.621684 -1.675580 -4.211334 -0.816612 4.523235 -4.665126 0.493172 -0.443730 2.917014 -1.892393 -0.565326 -8.421342 -8.853579 8.593779 0.000000 -0.000001 0.000001 -0.813978 6.240919 -1.569879 24.696036 33.021212 -26.116656 52.727107 -34.108752 -45.509772 -0.000001 0.000001 -0.000001 -0.504542 5.430572 -22.142795 -7.825550 25.652292 -54.866377 0.418010 -7.176847 -18.766891 -0.000004 0.000002 0.000002 -4.148704 -1.263590 -3.760059 -1.186561 -1.624754 1.565532 -4.534722 5.985584 1.951577 0.000000 0.000001 -0.000000 1.196731 0.297845 2.245932 -6.295425 1.861672 -2.318370 -3.894477 -1.860096 0.343222 0.000000 -0.000003 -0.000001 
-20.475040 113.858757 2.232093 4.896647 4.757458 -1.771435 -5.811137 -0.828404 4.320300 -2.399517 0.309634 -0.175400 1.305667 -1.152808 -0.687059 -7.379384 -8.288812 8.307282 -0.000000 0.000001 -0.000000 -0.167787 4.397219 -2.155241 25.332454 31.993555 -28.449531 50.408869 -31.875318 -43.494457 -0.000001 -0.000004 0.000001 -0.609164 4.432902 -20.690327 -8.511335 26.877853 -51.505927 -1.193201 -5.433412 -20.156083 0.000003 0.000004 -0.000001 -3.220208 -1.023302 -4.326882 -4.153686 -2.249557 2.810956 -4.747237 5.538976 1.644629 0.000002 0.000000 0.000000 0.296995 0.210396 0.774210 -5.235767 1.740225 -2.326310 -4.470855 -0.679729 0.848978 0.000000 0.000000 -0.000000 
-19.280960 113.433044 2.309377 5.366577 2.898271 -1.670303 -5.175519 -0.743141 4.000721 -3.233363 0.645815 -0.374237 2.205108 0.085775 -0.295935 -7.791451 -7.465167 7.599750 -0.000000 0.000001 -0.000000 0.045210 4.918121 -2.680984 24.800938 28.314032 -30.022745 47.286448 -28.958520 -40.360401 0.000001 0.000001 -0.000000 -0.024620 4.209732 -19.292771 -7.493030 27.419909 -48.982510 -1.425364 -6.149154 -23.382794 -0.000002 0.000004 0.000002 -2.520048 -1.262571 -4.834223 -5.690915 -2.122278 2.375584 -7.155687 5.853260 1.489353 0.000002 0.000000 -0.000000 -0.808588 0.593259 -1.121388 -3.538091 1.588940 -2.190188 -2.611409 -1.763350 -0.062870 0.000001 0.000002 0.000001 
-18.100973 113.013138 2.379673 5.059929 2.422162 -1.751132 -4.037164 -0.760441 4.215822 -4.182341 0.744661 -0.448713 2.611631 -0.150708 -0.434800 -7.871042 -6.574114 6.835565 0.000001 -0.000001 0.000001 0.329337 5.023581 -3.314102 23.944850 25.195881 -31.481892 44.280410 -26.025222 -37.370519 0.000001 0.000001 -0.000000 0.555376 4.563433 -17.814952 -7.103807 27.118752 -46.853226 -2.280581 -5.950226 -25.829463 -0.000000 0.000004 0.000001 -1.858462 -1.268506 -5.329780 -6.093633 -2.017936 2.000843 -9.662069 6.397810 1.290404 -0.000003 -0.000000 -0.000000 -1.405380 0.706629 -2.361967 -2.104352 1.407781 -1.765289 -2.953367 -2.676637 -0.642299 -0.000002 -0.000001 -0.000000 
-16.833889 112.558655 2.438028 5.639540 2.829584 -1.706329 -4.283878 -0.845134 4.437612 -2.753874 0.800648 -0.633689 1.288984 -0.302061 -0.553513 -7.471667 -6.264821 6.060960 0.000001 0.000001 -0.000001 0.898171 3.595202 -3.883789 24.047394 24.216555 -34.092114 41.705323 -22.048935 -35.471580 -0.000000 0.000003 -0.000001 1.107526 5.392524 -15.789227 -7.195360 25.171030 -43.804926 -3.833640 -5.159016 -28.389818 -0.000004 0.000000 -0.000003 -0.999580 -1.009585 -6.608345 -8.696482 -2.191380 1.943029 -11.064387 6.654123 1.060184 0.000000 -0.000001 -0.000000 -2.141214 0.601930 -3.861266 -1.631055 0.973704 -0.904410 -3.129564 -5.003472 -2.103605 -0.000002 -0.000001 -0.000000 
-15.527243 112.072922 2.488084 5.228284 2.406568 -1.653761 -3.840369 -0.842119 4.114164 -2.071351 0.804869 -0.676473 0.946319 -0.246531 -0.370850 -7.469609 -5.354868 5.282683 0.000002 -0.000000 -0.000001 1.210167 2.818147 -4.939461 23.509977 22.280308 -36.233897 40.444316 -15.029102 -34.344018 -0.000002 0.000003 -0.000002 1.360392 5.378987 -13.026593 -7.630196 24.660422 -40.024738 -5.643170 -3.454027 -29.923045 -0.000000 -0.000005 -0.000000 0.651268 -0.762583 -7.822675 -10.118680 -2.139494 2.206481 -12.628824 7.328691 1.208403 -0.000003 0.000000 -0.000000 -3.005277 0.623354 -4.707002 0.318266 0.577751 -0.536402 -3.692584 -7.233020 -3.380088 0.000003 -0.000004 -0.000000 
-14.286238 111.611656 2.531704 6.096247 1.556860 -1.562555 -5.671621 -0.863951 3.649317 -0.858632 0.924166 -0.811984 0.594452 0.011233 -0.043409 -6.888572 -4.569792 4.891441 0.000000 0.000000 -0.000001 1.433952 2.576426 -5.867115 22.576470 20.032709 -37.515623 39.735725 -8.205916 -33.357705 0.000002 -0.000002 0.000003 1.717004 5.492078 -10.802555 -7.978674 24.664020 -36.538206 -6.427650 -2.601915 -31.518926 -0.000000 0.000000 0.000001 1.107318 -0.715966 -8.683663 -11.686023 -2.312864 2.144076 -13.619353 8.308419 1.734900 0.000000 -0.000000 -0.000001 -5.009119 0.934425 -5.028129 1.771799 0.535935 -0.448003 -4.334352 -8.826732 -4.237427 0.000001 -0.000002 0.000001 
-13.053013 111.115616 2.593830 5.505029 1.874535 -1.664824 -4.867446 -0.851343 3.482341 -0.939288 0.824560 -0.714726 0.527200 -0.028027 -0.122872 -6.651976 -3.641249 4.336881 0.000001 -0.000000 -0.000001 1.733383 1.843484 -7.277509 20.862132 16.737869 -38.654103 38.748531 0.019742 -31.919038 0.000000 0.000002 0.000001 1.918265 5.041033 -8.334524 -8.438309 24.806928 -31.635766 -6.476218 -2.540987 -33.104445 0.000003 -0.000001 -0.000003 2.196449 -0.641637 -9.446120 -12.277201 -2.089456 2.019851 -14.785727 8.886319 2.073984 -0.000003 0.000000 0.000001 -5.501863 0.996119 -5.023629 3.482604 0.225510 0.447471 -5.784476 -11.027197 -5.573423 -0.000004 0.000000 0.000001 
-11.840786 110.610413 2.650397 5.272821 1.064584 -1.528876 -5.885000 -0.799126 3.108193 0.163078 0.840439 -0.587737 0.456999 -0.891876 -0.326543 -5.842342 -1.724607 3.000535 0.000000 0.000001 -0.000000 1.254886 3.745245 -8.962429 20.767031 16.450659 -39.516206 37.712384 7.080107 -31.218107 0.000000 0.000003 -0.000002 2.030761 4.939145 -5.617016 -9.202245 24.338746 -25.759589 -8.101663 -0.848516 -33.006090 -0.000006 0.000004 -0.000001 3.318606 -0.875071 -10.413305 -13.284279 -1.936575 1.698722 -15.824331 10.750768 3.525554 0.000000 -0.000002 -0.000001 -7.084807 1.387189 -4.591712 5.591122 0.064299 1.518727 -7.386108 -13.780221 -7.165607 0.000000 -0.000003 -0.000001 
-10.713017 110.135635 2.714780 3.991772 0.770309 -1.577318 -4.312466 -0.719874 2.940418 -0.238056 0.811077 -0.532226 0.142638 -0.421424 -0.250462 -5.267982 -1.063486 2.523401 -0.000000 -0.000000 -0.000001 1.444463 3.513078 -9.840958 20.984286 16.202599 -40.366555 36.736562 11.560773 -29.689910 0.000002 0.000003 -0.000002 2.019689 3.422724 -4.001563 -9.247548 22.928726 -20.766466 -9.072099 1.850020 -32.177766 -0.000003 -0.000001 0.000001 5.745492 -0.682996 -10.965768 -14.717396 -2.013889 1.729271 -15.567145 11.184102 3.948572 0.000000 -0.000000 -0.000001 -7.642340 1.437379 -3.851997 7.632870 -0.035213 2.352476 -9.186254 -14.558031 -7.823186 -0.000000 0.000000 0.000000 
-9.633518 109.669945 2.783412 3.965094 0.951108 -1.757793 -6.209609 -0.754722 2.815231 1.273160 0.554896 -0.091558 -0.230810 -0.926371 -0.691237 -4.257365 -0.014220 1.555536 0.000001 0.000001 -0.000001 1.742075 3.541072 -10.883758 20.949266 15.243780 -40.844238 35.515314 15.444424 -27.789130 0.000001 0.000001 -0.000001 2.091449 1.325356 -1.730459 -7.789824 19.886956 -15.465814 -10.858607 5.910083 -30.239860 -0.000003 0.000003 0.000002 6.044603 -0.918494 -11.610780 -14.092965 -1.786451 2.159670 -16.570497 11.469392 4.247482 -0.000003 0.000000 -0.000000 -10.232528 1.965934 -2.731648 10.958233 -0.193064 3.955668 -9.298416 -13.966764 -7.760414 0.000000 -0.000005 -0.000001 
-8.631416 109.203407 2.855842 3.930954 0.715269 -2.021108 -7.262445 -0.770739 2.617143 1.928096 0.305569 0.377653 -0.358543 -1.249053 -0.970921 -3.940287 1.330661 0.576722 0.000002 -0.000000 -0.000001 1.947705 3.682327 -11.763914 20.248275 13.176843 -40.809462 34.881339 18.796911 -25.986641 0.000000 0.000000 0.000002 2.382389 -0.413170 1.121541 -6.383548 18.039983 -10.204881 -11.187981 8.262307 -27.493395 -0.000002 0.000000 0.000001 6.282770 -1.165667 -11.857622 -12.926310 -1.297092 2.295229 -18.008723 11.988360 4.716518 -0.000002 -0.000001 0.000001 -11.776191 2.310397 -0.235659 13.729965 -0.374764 3.525854 -10.976962 -10.683834 -6.093397 -0.000000 0.000000 0.000000 
-7.729485 108.762924 2.935215 4.315170 0.760828 -2.287035 -7.691715 -0.742517 2.492589 2.435085 0.222890 0.531163 -0.498590 -2.072127 -1.023872 -4.202904 2.301116 -0.113601 0.000001 0.000001 -0.000000 1.690199 4.977020 -12.222029 19.261084 11.991989 -40.635097 34.160119 20.226434 -25.390849 0.000002 -0.000000 -0.000001 2.665816 -0.131392 3.186187 -5.287912 15.872707 -6.307274 -11.595906 9.181432 -25.003099 0.000000 0.000003 0.000001 6.055825 -1.302629 -11.911517 -12.575021 -1.087842 2.443371 -18.910465 12.560496 5.128072 -0.000002 0.000000 0.000000 -13.220527 2.477217 1.884445 15.495800 -0.331774 2.910278 -12.458274 -8.402084 -4.774006 0.000001 -0.000004 -0.000000 
-6.893839 108.356316 3.007119 4.602426 0.637904 -2.498116 -7.190938 -0.678238 2.318832 2.018802 0.081776 0.706004 -0.315215 -2.144413 -1.117207 -5.074742 2.668705 -0.506610 0.000000 0.000000 -0.000000 1.567502 5.913873 -12.918897 18.499981 11.070272 -40.037602 34.266567 21.161343 -25.011873 0.000001 -0.000000 0.000001 2.848315 -0.942363 5.043521 -3.638987 13.167474 -1.819027 -10.993025 9.781925 -20.884799 0.000002 -0.000001 0.000003 5.865941 -1.319066 -12.136202 -12.528047 -0.878441 2.977300 -19.274046 12.394021 5.041654 -0.000002 0.000000 -0.000000 -15.103599 2.506449 4.575761 17.125274 -0.544995 1.102549 -14.064505 -4.844936 -2.645505 0.000001 -0.000000 0.000001 
-6.137708 107.987579 3.063903 5.186449 0.883180 -2.390196 -6.764237 -0.563473 1.775311 1.524114 -0.086151 1.045232 0.316376 -1.644271 -1.362176 -7.088124 2.591249 -0.097155 0.000000 -0.000000 -0.000000 1.997200 3.827557 -13.575961 17.518450 9.364006 -39.565305 33.440248 22.103915 -23.892808 0.000001 -0.000000 -0.000000 2.937131 -3.594274 6.550555 -0.927404 9.904824 2.388816 -10.572397 10.730976 -15.340081 -0.000000 0.000002 0.000000 5.563587 -1.527172 -12.329661 -12.261836 -0.819885 3.053685 -20.438665 12.431611 4.857225 0.000000 -0.000001 0.000001 -16.439536 2.559840 6.702669 17.474098 -0.344255 -0.242338 -14.090229 -2.027476 -0.502712 -0.000000 -0.000005 -0.000001 
-5.460944 107.657753 3.129821 6.087688 1.113948 -2.411130 -7.701742 -0.520447 1.500017 1.895132 -0.170376 1.368313 0.452556 -2.337217 -1.669780 -7.349599 3.110762 -0.207503 0.000000 -0.000000 -0.000000 1.784269 5.147763 -14.106968 16.840596 8.092427 -39.178918 33.367967 22.671401 -23.945064 0.000001 -0.000002 0.000000 3.142839 -3.735529 7.488042 1.456209 7.608607 5.743892 -9.553663 10.105414 -11.306752 -0.000003 0.000003 -0.000001 5.075833 -1.927897 -12.151999 -12.316837 -0.540374 2.678264 -20.589339 12.679836 5.169642 -0.000003 0.000000 0.000000 -16.486955 2.727453 8.259687 16.420748 -0.284106 -1.303233 -14.527952 0.635645 1.479129 0.000004 -0.000002 0.000000 
-4.868199 107.380531 3.186944 4.367477 0.924290 -2.118573 -6.094195 -0.438311 0.892043 1.277070 0.067625 1.305626 0.830930 -2.003253 -1.461656 -6.617486 3.577499 -0.105726 0.000000 -0.000000 -0.000001 2.582140 3.955680 -14.686949 16.185165 5.771673 -38.920682 32.841066 24.387855 -22.607243 0.000002 -0.000003 0.000003 3.907439 -3.247021 8.376134 4.212848 6.611448 9.538665 -6.557571 8.704729 -8.163406 -0.000002 0.000002 0.000004 7.251304 -1.899442 -12.030828 -12.801967 -0.291114 2.290805 -20.118560 12.689298 5.727503 -0.000002 0.000001 0.000000 -14.671210 2.639112 9.893186 14.041983 -0.688687 -3.693324 -14.793855 4.585570 3.683022 0.000002 -0.000004 -0.000000 
-4.339020 107.121674 3.261283 4.081759 1.715543 -2.027647 -4.576273 -0.405179 0.795092 -2.379977 0.066741 1.319848 3.266013 -2.229599 -1.668118 -6.163116 3.789393 0.128578 0.000000 0.000000 -0.000000 3.054343 3.589322 -15.258595 16.096417 4.100084 -38.770356 32.892022 25.280571 -21.159441 -0.000001 -0.000000 -0.000000 4.473517 -3.592668 9.198696 5.972100 6.758008 13.532183 -2.731375 7.563877 -5.875170 -0.000002 -0.000001 0.000003 7.557679 -1.789561 -11.996548 -12.596555 -0.136256 2.380739 -20.035462 12.068061 5.394973 -0.000002 -0.000001 -0.000001 -12.827397 2.473081 10.918030 11.202821 -0.952690 -5.605031 -15.296784 6.269986 4.469032 -0.000000 0.000003 -0.000000 
-3.873942 106.887276 3.348876 3.861947 2.356689 -1.835752 -4.793464 -0.353231 0.522720 -3.539031 0.038679 1.409961 4.255975 -3.374862 -1.997664 -5.254678 4.227205 -0.081331 0.000000 -0.000000 -0.000000 2.624350 6.333631 -15.302323 16.297994 3.816401 -38.887115 34.384965 26.087503 -22.018383 -0.000000 0.000005 -0.000002 4.478544 -4.682378 9.740533 7.234781 6.287086 16.624935 -0.138026 6.188999 -3.153920 -0.000001 -0.000001 0.000001 8.369664 -1.873927 -11.976408 -13.062653 -0.038488 2.317883 -19.727258 11.369162 4.954142 0.000000 -0.000000 -0.000000 -11.850141 2.521421 11.218077 10.398956 -1.175724 -6.375332 -15.374923 6.764382 4.672720 -0.000005 0.000000 -0.000000 
-3.451715 106.679344 3.449829 3.921066 3.211096 -1.659270 -5.385753 -0.395719 0.442521 -1.826481 -0.022391 1.613242 2.719443 -3.672687 -2.426091 -4.745556 4.138470 0.171179 0.000001 0.000001 -0.000001 3.096497 5.560142 -15.412534 17.028731 3.130538 -39.395872 34.536913 26.497502 -20.240663 0.000002 -0.000001 -0.000002 4.870112 -5.068353 10.313796 7.783474 7.171675 19.745600 1.646117 6.608342 -1.774085 -0.000002 -0.000001 -0.000002 8.946802 -1.929716 -12.068714 -13.934744 0.305740 2.461737 -19.588387 10.201576 4.184494 0.000002 -0.000001 0.000000 -10.066273 2.486831 10.839249 8.454068 -1.636067 -6.304782 -15.623720 7.085670 4.785375 -0.000000 -0.000002 0.000001 
-3.080159 106.521362 3.549150 3.844159 2.526233 -1.686691 -6.933457 -0.410297 0.271182 -0.434377 0.236339 1.393205 2.531486 -2.448401 -1.939650 -3.574912 3.873411 0.358776 0.000000 -0.000000 -0.000001 3.409310 5.950302 -15.481582 17.235752 2.657951 -40.045532 35.662989 26.957633 -20.655821 0.000001 -0.000002 -0.000001 5.292005 -5.681432 11.132816 8.446086 7.499740 21.727260 2.704370 6.835506 -0.279989 -0.000003 0.000001 -0.000003 8.921969 -1.924634 -12.142203 -14.406904 0.451657 2.749011 -18.720731 10.379841 4.741697 0.000002 -0.000003 -0.000001 -8.125248 2.375806 10.626454 5.738616 -1.857475 -6.268324 -14.473739 8.457007 5.116608 -0.000002 -0.000001 -0.000001 
-2.752016 106.395103 3.643079 4.058634 1.881766 -2.061423 -8.362018 -0.475248 0.406608 0.853851 0.347806 1.410104 1.981320 -2.497216 -1.777140 -2.818205 4.412956 0.256087 -0.000001 0.000000 -0.000001 3.729939 7.627660 -15.138546 18.461460 2.299916 -40.660471 36.207379 26.270571 -19.169259 0.000000 0.000003 0.000001 6.075493 -5.411413 11.085406 8.951377 8.705837 22.189522 3.849022 8.511012 0.587604 -0.000002 0.000003 -0.000001 8.724424 -1.813591 -11.917631 -14.784214 0.656664 3.114457 -17.752246 10.205529 4.951503 0.000000 -0.000001 0.000001 -5.860412 2.316759 10.870104 2.038201 -1.886518 -6.476193 -13.606884 9.674145 5.571562 0.000002 -0.000000 0.000001 
-2.459843 106.310547 3.727416 3.885158 1.396391 -2.483105 -9.153391 -0.542955 0.494180 1.165254 0.331726 1.492487 2.213281 -2.245081 -1.669051 -2.118925 4.545493 0.195352 -0.000002 0.000001 -0.000001 4.314488 8.202461 -15.148093 19.329000 1.864599 -40.708474 37.060801 25.697144 -17.978835 -0.000001 0.000001 0.000001 6.775548 -6.016790 10.976320 10.171642 9.034354 21.301174 3.613551 11.424790 1.556877 -0.000000 -0.000002 -0.000001 8.685465 -1.600337 -11.552736 -14.712226 0.704757 3.455991 -17.367402 10.003693 4.902032 0.000002 -0.000003 0.000001 -3.369862 2.229562 11.172303 -1.605074 -1.900382 -6.519085 -13.818150 10.362981 5.821941 -0.000004 -0.000002 0.000001 
-2.205738 106.265434 3.790314 3.701996 0.856507 -2.716244 -9.375182 -0.499375 0.358800 1.725173 0.237888 1.604170 1.844143 -2.413185 -1.748133 -1.500408 4.597509 -0.070383 0.000001 -0.000001 -0.000001 3.926647 9.516497 -15.215295 20.143771 3.037164 -40.651216 38.208037 25.217721 -18.810612 -0.000000 0.000001 -0.000001 6.538502 -6.329884 10.442645 11.101521 8.083025 20.539279 3.029212 12.845819 4.120751 -0.000001 0.000000 0.000001 8.301948 -1.521802 -11.293174 -14.671805 0.791832 3.797268 -16.697449 9.259380 4.411471 0.000000 -0.000001 -0.000001 -1.297166 2.152319 11.651969 -4.738969 -1.908374 -6.974846 -13.835866 11.218885 6.320606 0.000001 0.000000 -0.000001 
-1.983031 106.213989 3.849159 4.184665 0.759974 -2.669340 -9.462667 -0.434019 0.126169 1.451988 0.224094 1.594135 2.024668 -2.649852 -1.784516 -1.456777 4.725493 -0.283418 0.000001 -0.000000 -0.000001 3.789279 9.579381 -15.160474 20.651663 3.662584 -40.727421 38.605035 25.101608 -18.949834 -0.000001 0.000003 -0.000000 6.422764 -6.109785 10.139335 11.637210 7.588663 20.250106 3.641047 12.984761 5.443937 0.000002 -0.000001 -0.000003 7.888228 -1.530297 -11.253566 -15.003117 0.784693 3.912613 -16.360825 8.817627 4.118353 -0.000002 -0.000001 -0.000000 -0.234486 2.129465 11.739034 -6.855058 -1.899672 -7.209050 -13.809044 11.323417 6.298147 0.000000 -0.000000 0.000001 
-1.780176 106.157806 3.905825 4.455696 0.565425 -2.332088 -9.591320 -0.349867 -0.204007 0.377681 0.318202 1.452470 2.920884 -2.431621 -1.816267 -1.970414 4.662217 -0.169294 0.000001 0.000000 -0.000000 3.606637 9.669817 -14.976947 21.048980 4.097553 -40.778319 39.440497 25.630503 -19.685403 -0.000001 -0.000001 0.000004 6.250053 -6.514707 9.769931 11.674519 7.601387 20.231575 4.294338 12.984669 6.374450 -0.000004 0.000000 0.000001 8.213495 -1.591128 -11.427104 -16.238220 0.655873 3.791825 -15.642047 8.542886 4.073331 -0.000002 0.000001 -0.000000 1.407305 2.097164 11.583010 -9.179486 -1.690972 -7.649994 -13.742524 11.410577 6.448129 -0.000002 0.000000 -0.000001 
-1.591603 106.099419 3.955871 4.417359 0.483824 -2.021749 -10.153552 -0.320659 -0.270436 1.423821 0.521396 1.211100 2.247291 -2.542551 -1.885074 -1.946663 4.811248 -0.415386 0.000002 -0.000001 -0.000001 3.561904 9.954416 -15.334762 21.277692 4.414409 -40.616540 38.957920 25.460853 -19.135050 -0.000000 0.000000 0.000004 6.292643 -6.570057 9.843488 11.569394 7.698967 20.133562 4.445671 13.090123 6.572122 -0.000001 0.000002 0.000000 8.286510 -1.618049 -11.827986 -16.857682 0.568424 4.056638 -15.037582 7.999472 3.725583 -0.000002 0.000001 -0.000001 2.340475 2.036708 11.207674 -10.165375 -1.641306 -7.622975 -14.008964 11.259034 6.465892 -0.000001 0.000000 0.000000 
-1.416322 106.032616 4.013708 4.805870 0.359680 -1.997132 -10.451695 -0.355926 -0.172003 0.569768 0.500376 1.224348 2.999739 -2.771394 -2.036509 -2.383673 5.108650 -0.639859 0.000002 -0.000001 0.000000 4.044469 9.655855 -15.567379 21.060398 3.401914 -40.529557 38.723085 26.143379 -18.116716 0.000000 0.000003 0.000001 6.752412 -5.703030 9.710214 11.239894 8.731137 20.342103 5.082708 13.246760 5.669658 -0.000003 -0.000001 -0.000002 8.372403 -1.583030 -11.938597 -17.411332 0.362530 4.197684 -15.194121 7.705451 3.396407 -0.000005 -0.000002 0.000000 2.849631 2.041017 11.053802 -11.144457 -1.584618 -7.470969 -14.055835 11.287269 6.367720 0.000002 -0.000001 -0.000000 
-1.249079 105.978195 4.065450 4.847160 -0.081209 -1.880481 -10.331700 -0.371611 -0.098031 1.357756 0.613631 1.082949 2.338604 -2.643788 -1.996201 -2.935753 5.293450 -0.786133 0.000000 0.000000 -0.000001 4.140868 9.588872 -15.883656 21.004618 3.367073 -40.506283 38.656480 26.507648 -18.021121 -0.000000 -0.000000 0.000001 6.892352 -5.369945 9.914728 11.054525 8.909572 20.335522 5.182153 13.148586 5.367536 0.000001 -0.000001 -0.000003 8.474211 -1.541210 -12.217294 -17.682192 0.322859 4.427160 -15.180268 7.592105 3.314643 -0.000002 0.000000 0.000000 2.708669 1.955874 10.758344 -10.713136 -1.682781 -7.310787 -14.524028 11.529740 6.554660 0.000002 0.000001 0.000001 
-1.089028 105.931870 4.116063 4.859940 -0.145863 -1.734538 -9.939120 -0.375274 -0.142236 0.850876 0.655098 1.030571 2.530882 -2.327140 -1.891027 -3.463368 5.243975 -0.746628 0.000000 0.000000 -0.000001 4.486595 8.173390 -16.058984 20.619860 2.467252 -40.432565 38.610926 27.085735 -17.488213 0.000001 0.000002 0.000003 6.995923 -5.756109 9.976990 10.666810 9.630564 20.297287 6.194450 12.950827 5.277934 -0.000002 0.000001 -0.000002 8.627724 -1.562125 -12.439626 -17.899614 0.368441 4.458206 -15.024478 7.379583 3.246997 0.000000 0.000001 0.000000 3.344073 1.916396 10.548257 -11.626190 -1.739863 -7.439492 -14.383451 12.134839 6.805444 -0.000002 -0.000004 0.000000 
-0.941114 105.893257 4.151823 5.426865 -0.005459 -1.701981 -10.469829 -0.406301 -0.076127 0.903827 0.667749 1.043903 2.648342 -2.260792 -1.979762 -3.931464 5.239278 -0.629091 0.000001 0.000000 -0.000001 4.760664 7.169827 -16.162835 20.337535 2.005391 -40.179295 38.805481 27.289232 -17.548199 -0.000001 -0.000002 0.000002 7.046702 -6.274345 10.109464 10.174654 10.250749 20.214978 6.522174 12.729939 5.416241 -0.000000 0.000003 -0.000001 8.151611 -1.611356 -12.446205 -17.973646 0.314514 4.400325 -15.215426 7.197992 3.054788 -0.000002 0.000000 -0.000000 3.188570 1.920771 10.460444 -11.994322 -1.715321 -7.446533 -14.719034 12.069008 6.845274 -0.000000 0.000000 0.000000 
-0.801872 105.860115 4.186617 5.645508 0.240619 -1.685623 -10.310488 -0.404405 -0.007027 0.375530 0.623602 1.066513 3.044074 -2.667195 -2.067151 -4.397529 5.363111 -0.730355 0.000001 0.000001 -0.000001 4.626511 7.035929 -16.100294 20.080039 1.873773 -40.031192 38.474049 26.817975 -17.310814 -0.000001 0.000001 -0.000001 6.959935 -5.188509 9.808579 9.868814 10.323378 20.332128 6.506988 12.819730 5.761264 0.000003 0.000001 0.000006 7.820216 -1.630970 -12.447320 -18.047399 0.392169 4.311584 -15.047171 6.972404 2.902561 -0.000003 0.000000 -0.000001 2.468166 1.940788 10.373090 -11.489047 -1.763022 -7.329348 -14.461170 11.815890 6.656710 -0.000000 -0.000000 0.000002 
-0.674543 105.824638 4.221359 5.855522 0.349352 -1.620826 -10.831964 -0.381565 -0.035124 0.979110 0.635210 1.052752 2.730154 -2.233930 -2.053296 -4.789417 5.028522 -0.451867 0.000001 0.000000 -0.000001 4.639289 6.068557 -16.041029 19.709414 1.738821 -39.609821 38.647830 26.317241 -17.769874 0.000001 -0.000002 0.000000 6.776037 -6.003751 9.972541 9.795862 10.158539 19.823434 6.611084 12.786946 6.820764 -0.000000 0.000002 0.000003 7.675857 -1.683346 -12.492568 -18.036697 0.403561 4.236097 -15.129016 6.866671 2.788130 0.000000 -0.000001 0.000000 2.319910 1.963149 10.321822 -11.647694 -1.686177 -7.364791 -14.358931 11.497441 6.476364 -0.000002 -0.000000 0.000001 
-0.558725 105.789780 4.260894 5.650233 0.411738 -1.599882 -10.528129 -0.381272 0.000275 1.205685 0.629875 1.053981 2.183130 -2.146136 -2.101564 -4.636014 4.888848 -0.348113 0.000000 0.000000 -0.000000 4.531679 6.090273 -16.033459 19.798058 2.038658 -39.282184 39.022257 25.686140 -18.190250 0.000000 -0.000000 -0.000001 6.685993 -6.271462 9.990475 9.858069 9.998535 19.583730 6.788190 12.828276 7.490972 -0.000002 0.000003 -0.000001 8.100116 -1.671896 -12.474791 -18.338532 0.504457 4.188260 -14.911394 6.870037 2.889366 0.000000 0.000000 0.000001 2.850528 1.941158 10.337757 -12.101865 -1.708834 -7.478386 -14.266330 11.688043 6.602778 -0.000002 -0.000001 0.000000 
-0.448956 105.758598 4.299939 5.416165 0.510181 -1.562899 -10.600043 -0.379067 -0.014349 0.683532 0.675746 0.983869 2.921974 -2.143359 -2.035052 -4.684950 4.849504 -0.293545 -0.000001 -0.000000 -0.000001 4.441831 6.164979 -15.878914 19.771062 2.203617 -38.914672 39.786132 24.956927 -19.054373 -0.000000 0.000003 0.000001 6.611700 -6.321530 10.065094 9.872566 9.876331 19.376755 6.977556 12.674795 7.919117 -0.000003 0.000004 -0.000001 8.530872 -1.676882 -12.482242 -18.594446 0.538558 4.048703 -15.050964 6.967696 2.956986 0.000000 0.000001 -0.000000 2.721479 1.939851 10.272203 -11.760890 -1.734194 -7.534215 -14.368114 11.749816 6.679046 -0.000000 -0.000001 0.000000 
-0.349591 105.726898 4.335881 5.593044 0.771484 -1.529197 -10.808835 -0.373254 -0.019271 0.385452 0.690505 0.969404 3.227033 -2.365200 -2.101074 -4.658014 4.843366 -0.214933 0.000000 0.000000 -0.000001 4.428205 6.184951 -15.901708 19.696314 2.230823 -38.374380 40.393100 24.166640 -19.624127 -0.000004 -0.000000 -0.000001 6.641779 -5.883122 10.113296 9.838059 9.941883 19.067522 6.676183 13.069333 8.314018 -0.000001 -0.000001 -0.000003 8.423884 -1.684902 -12.511957 -18.335469 0.562407 4.018695 -15.157725 6.920669 2.884083 -0.000002 -0.000000 -0.000000 2.262017 1.948021 10.190145 -11.147786 -1.735189 -7.454224 -14.325555 11.476035 6.557443 0.000004 -0.000003 -0.000001 
-0.259464 105.697250 4.366578 5.532293 0.280524 -1.355983 -9.804744 -0.323506 -0.274416 -0.108678 0.844209 0.781435 2.525366 -2.203471 -1.826349 -4.856179 4.891986 -0.171919 0.000002 -0.000000 -0.000001 4.147912 7.855565 -15.920239 19.850203 2.646458 -37.885157 40.731553 22.696918 -20.006918 -0.000003 0.000003 -0.000001 6.652962 -5.708652 10.019205 10.386565 9.409215 19.042921 6.420034 13.416997 8.709700 -0.000003 0.000002 0.000000 8.519435 -1.682353 -12.657116 -18.393570 0.619844 3.913085 -15.217733 7.384195 3.258674 0.000002 0.000001 -0.000001 2.044521 1.914270 10.088738 -10.965281 -1.725915 -7.640052 -14.091699 11.902632 6.778239 0.000002 -0.000001 -0.000001 
