HIERARCHY
ROOT Hips
{
	OFFSET -13.808980 106.085968 -1.014076
	CHANNELS 6 Xposition Yposition Zposition Xrotation Yrotation Zrotation
	JOINT Chest
	{
		OFFSET -0.657339 13.627632 -0.099285
		CHANNELS 3 Xrotation Yrotation Zrotation
		JOINT Chest2
		{
			OFFSET -0.762035 21.030281 4.026595
			CHANNELS 3 Xrotation Yrotation Zrotation
			JOINT Chest3
			{
				OFFSET 0.540637 14.900742 0.703874
				CHANNELS 3 Xrotation Yrotation Zrotation
				JOINT Neck
				{
					OFFSET 2.035231 17.052856 1.916808
					CHANNELS 3 Xrotation Yrotation Zrotation
					JOINT Head
					{
						OFFSET 2.836235 9.551163 3.249422
						CHANNELS 3 Xrotation Yrotation Zrotation
						End Site
						{
							OFFSET 2.835043 9.574768 3.180259
						}
					}
				}
				JOINT LeftCollar
				{
					OFFSET 5.855266 12.275024 4.104151
					CHANNELS 3 Xrotation Yrotation Zrotation
					JOINT LeftUpArm
					{
						OFFSET 15.818542 -3.447495 -6.810870
						CHANNELS 3 Xrotation Yrotation Zrotation
						JOINT LeftLowArm
						{
							OFFSET 29.922432 -13.512329 7.860880
							CHANNELS 3 Xrotation Yrotation Zrotation
							JOINT LeftHand
							{
								OFFSET 25.086845 2.599854 16.273829
								CHANNELS 3 Xrotation Yrotation Zrotation
								End Site
								{
									OFFSET 5.482887 0.568161 3.556742
								}
							}
						}
					}
				}
				JOINT RightCollar
				{
					OFFSET -2.495594 13.220551 4.560468
					CHANNELS 3 Xrotation Yrotation Zrotation
					JOINT RightUpArm
					{
						OFFSET -16.152161 2.302750 -6.503948
						CHANNELS 3 Xrotation Yrotation Zrotation
						JOINT RightLowArm
						{
							OFFSET -33.197990 -6.079697 0.815678
							CHANNELS 3 Xrotation Yrotation Zrotation
							JOINT RightHand
							{
								OFFSET -23.250755 -3.763992 18.606159
								CHANNELS 3 Xrotation Yrotation Zrotation
								End Site
								{
									OFFSET -5.081680 -0.822632 4.066572
								}
							}
						}
					}
				}
			}
		}
	}
	JOINT LeftUpLeg
	{
		OFFSET 10.000059 0.485268 0.427179
		CHANNELS 3 Xrotation Yrotation Zrotation
		JOINT LeftLowLeg
		{
			OFFSET 21.189274 -41.177086 9.972583
			CHANNELS 3 Xrotation Yrotation Zrotation
			JOINT LeftFoot
			{
				OFFSET 9.346899 -39.548111 -18.685577
				CHANNELS 3 Xrotation Yrotation Zrotation
				JOINT LeftToe
				{
					OFFSET 6.069136 -21.128950 8.734577
					CHANNELS 3 Xrotation Yrotation Zrotation
					End Site
					{
						OFFSET 5.846607 -10.328069 20.462332
					}
				}
			}
		}
	}
	JOINT RightUpLeg
	{
		OFFSET -10.000052 -0.485466 -0.427177
		CHANNELS 3 Xrotation Yrotation Zrotation
		JOINT RightLowLeg
		{
			OFFSET -10.773693 -45.482689 7.698335
			CHANNELS 3 Xrotation Yrotation Zrotation
			JOINT RightFoot
			{
				OFFSET 0.039680 -39.480415 -21.020824
				CHANNELS 3 Xrotation Yrotation Zrotation
				JOINT RightToe
				{
					OFFSET -5.169334 -21.814407 7.547616
					CHANNELS 3 Xrotation Yrotation Zrotation
					End Site
					{
						OFFSET -9.564873 -11.139684 18.546608
					}
				}
			}
		}
	}
}
MOTION
Frames: 134
Frame Time: 0.033333
-3.136349 105.376282 -1.111720 8.710355 -1.251934 -3.642199 -10.411679 -1.757993 4.164253 -2.678130 -1.500620 4.059889 4.768830 1.325674 1.443729 -11.862903 -6.436985 9.007220 -0.000003 0.000000 0.000002 7.725722 6.404180 -18.040975 10.704196 -13.719583 -43.363013 25.424216 -10.267025 -14.827439 -0.000000 -0.000003 0.000002 9.397930 -2.044496 28.124846 11.251957 17.920374 33.356315 16.817842 -8.256207 -2.052834 -0.000002 0.000002 0.000000 9.139508 -2.859619 -19.939006 -25.460582 -4.520885 10.721496 -14.408084 -11.827436 -3.345870 0.000002 0.000000 0.000000 1.400036 2.823754 14.567112 -20.869634 -1.417190 -13.648552 -10.376253 13.829578 3.805033 -0.000001 0.000005 -0.000001 
-3.142272 105.369003 -1.105494 9.118183 -1.244253 -3.624637 -10.830276 -1.756200 4.126146 -2.564948 -1.506868 4.054539 4.627831 1.112213 1.447933 -11.876305 -6.340338 8.907397 -0.000002 0.000001 0.000001 7.671677 6.810092 -17.806500 10.726354 -13.659346 -43.563414 25.717319 -10.006968 -15.244470 0.000006 -0.000002 -0.000001 9.419696 -1.735157 27.803414 11.109818 18.062201 33.735042 16.803833 -8.354616 -2.232663 0.000000 0.000002 -0.000000 8.926192 -2.869863 -19.900774 -25.390199 -4.468085 10.709087 -14.481579 -11.974080 -3.511024 -0.000000 -0.000001 -0.000000 1.482864 2.812936 14.585068 -21.498517 -1.390804 -13.686917 -10.270701 13.815804 3.746532 -0.000001 0.000001 -0.000001 
-3.145493 105.358963 -1.091828 9.136291 -1.290229 -3.701516 -10.872020 -1.770708 4.152119 -2.995207 -1.560000 4.128653 5.052807 1.190690 1.401288 -11.910158 -6.459092 8.956401 -0.000002 0.000001 0.000001 7.675938 6.735538 -17.517758 10.650123 -13.838201 -43.694499 25.870737 -10.115490 -15.283633 0.000003 -0.000002 -0.000000 9.341302 -2.160307 27.827038 11.181568 17.950137 33.782297 16.959090 -8.335756 -2.155587 -0.000004 0.000004 -0.000002 9.070670 -2.856440 -19.830129 -25.561962 -4.461254 10.698298 -14.312885 -11.877783 -3.408292 0.000000 -0.000001 -0.000001 1.804693 2.822575 14.697524 -21.900751 -1.397154 -13.805702 -10.178192 13.939970 3.878622 -0.000003 0.000002 0.000002 
-3.149024 105.349876 -1.081619 9.152915 -1.284526 -3.744504 -10.774635 -1.765696 4.089287 -2.273201 -1.570406 4.147401 4.435824 1.249655 1.502095 -12.406379 -6.347623 9.031638 -0.000003 0.000001 0.000001 7.738524 6.680454 -17.354169 10.636965 -13.958381 -43.722377 25.858932 -10.334974 -15.189595 0.000001 -0.000002 -0.000000 9.407863 -2.152387 27.896294 11.240459 18.159502 33.568133 16.898108 -8.150350 -2.295199 0.000003 0.000002 -0.000000 9.080252 -2.861674 -19.756148 -25.393038 -4.429451 10.668411 -14.343990 -11.849124 -3.356966 0.000002 -0.000001 -0.000001 1.728397 2.849230 14.819760 -21.830982 -1.342645 -13.937705 -10.139067 14.053179 3.990848 -0.000001 0.000005 0.000000 
-3.148415 105.345848 -1.079016 9.278295 -1.101551 -3.789786 -11.008526 -1.806520 4.154455 -1.594062 -1.547870 4.133108 4.025567 1.287939 1.514243 -12.252034 -6.419990 9.141847 -0.000003 0.000000 0.000002 7.832757 6.157368 -17.246731 10.563101 -14.356996 -43.722339 25.835008 -10.281871 -14.933500 -0.000000 -0.000002 -0.000000 9.551368 -2.008650 27.874485 11.396628 18.609226 33.355058 16.815412 -8.022732 -2.585037 0.000003 0.000002 -0.000001 8.884544 -2.942890 -19.682450 -25.338706 -4.460121 10.659260 -14.534991 -11.863823 -3.386097 -0.000000 -0.000001 -0.000000 1.283222 2.907015 14.758680 -21.492712 -1.293073 -13.725322 -10.428682 13.571603 3.645123 -0.000003 0.000003 -0.000000 
-3.148824 105.340775 -1.080190 9.324222 -1.342400 -3.724951 -10.918143 -1.768883 4.089931 -2.534097 -1.522897 4.109015 4.788219 1.223825 1.527473 -12.328204 -6.366398 9.081178 -0.000001 0.000002 0.000001 7.731180 6.727547 -17.190934 10.662634 -14.044520 -43.747232 25.569430 -10.563619 -15.301205 -0.000001 -0.000000 -0.000000 9.437226 -2.015339 27.717722 11.246639 18.542234 33.536550 16.735326 -8.182451 -2.169369 -0.000001 0.000005 -0.000002 9.118739 -2.933770 -19.673699 -25.989648 -4.588465 10.506269 -14.067542 -11.597886 -3.147848 0.000004 -0.000000 -0.000001 1.488933 2.894267 14.657939 -21.770188 -1.285997 -13.704723 -10.050063 13.743457 3.847390 -0.000001 0.000002 -0.000000 
-3.154445 105.334282 -1.075103 9.350675 -1.503448 -3.709412 -10.812120 -1.732255 3.994952 -2.737533 -1.518619 4.094402 4.683234 1.379810 1.614408 -12.090768 -6.465163 9.008935 -0.000003 0.000001 -0.000000 7.715972 6.853589 -17.243344 10.694190 -13.976259 -43.626464 25.694484 -10.619792 -15.248775 -0.000003 -0.000005 0.000000 9.409580 -2.001633 27.588106 11.202665 18.460862 33.747780 16.849472 -8.171526 -2.217621 0.000002 0.000004 -0.000000 9.243621 -2.902603 -19.687498 -26.397638 -4.713910 10.506145 -13.470802 -11.337555 -2.984920 0.000000 -0.000001 -0.000001 1.858197 2.900898 14.700331 -22.229653 -1.285554 -13.825197 -10.169686 14.000438 3.942163 -0.000004 0.000001 -0.000000 
-3.156491 105.336220 -1.073822 9.218248 -1.469478 -3.759795 -10.619798 -1.744253 4.096871 -3.049308 -1.561079 4.120729 5.000586 1.097607 1.489170 -12.337475 -6.242016 8.920658 -0.000002 0.000000 0.000001 7.643053 7.194412 -17.238911 10.676397 -13.817264 -43.515344 25.812644 -10.576053 -15.672945 0.000002 -0.000000 -0.000000 9.417693 -1.721190 27.431968 11.054712 18.294441 33.930187 16.875813 -8.189109 -2.108941 -0.000001 -0.000001 -0.000002 9.465800 -2.776642 -19.594040 -26.322647 -4.634181 10.458247 -14.031349 -11.734075 -3.344532 -0.000002 0.000001 -0.000002 1.845351 2.835766 14.740716 -22.010112 -1.318224 -13.847483 -10.226222 14.185978 4.102305 -0.000001 -0.000000 -0.000002 
-3.159177 105.332314 -1.067140 9.445519 -1.341065 -3.726989 -11.149582 -1.757459 4.056419 -2.702984 -1.530301 4.087629 4.897574 1.291055 1.515355 -12.141882 -6.434870 9.039135 -0.000002 0.000001 0.000001 7.751891 6.549020 -17.094160 10.628803 -13.990808 -43.570525 25.772728 -10.461997 -15.498865 0.000003 -0.000002 -0.000001 9.414208 -2.074632 27.377336 11.240960 18.144411 34.009411 16.785827 -7.916579 -2.311191 -0.000003 -0.000001 -0.000002 9.388211 -2.794045 -19.637277 -26.512841 -4.803568 10.453295 -13.367680 -11.576068 -3.332289 0.000000 -0.000001 -0.000000 1.869757 2.842299 14.688093 -22.176789 -1.242958 -13.813669 -9.919533 14.048867 4.022568 -0.000002 0.000001 -0.000001 
-3.165649 105.327568 -1.056767 9.271311 -1.483240 -3.664587 -10.914153 -1.716530 3.971864 -2.916971 -1.485473 4.012885 5.072903 1.412643 1.582920 -11.998899 -6.539567 9.018006 -0.000000 0.000001 0.000001 7.668926 6.390865 -17.097258 10.559889 -13.895714 -43.517840 25.919560 -10.248541 -15.672166 -0.000001 0.000003 -0.000001 9.267962 -2.429169 27.419960 11.019242 18.210934 33.975079 17.061355 -8.243992 -1.832769 -0.000003 0.000004 -0.000004 9.657276 -2.746112 -19.756394 -26.361443 -4.782633 10.535417 -13.581656 -11.773619 -3.550740 0.000000 -0.000001 -0.000001 2.103454 2.811583 14.640138 -22.186087 -1.278179 -13.784401 -9.925602 14.207763 4.172458 -0.000001 0.000001 -0.000001 
-3.173321 105.324425 -1.049832 9.340865 -1.208146 -3.746457 -10.728083 -1.725330 4.069611 -2.939092 -1.563786 4.081296 4.958753 1.156093 1.437141 -11.907078 -6.463603 8.924791 -0.000003 0.000001 0.000001 7.569234 6.560199 -17.202158 10.497480 -13.848141 -43.381298 25.964235 -10.332866 -15.773567 0.000003 -0.000000 -0.000002 9.273718 -2.023726 27.304064 10.939848 17.992871 34.129055 17.061739 -8.276295 -1.857547 -0.000003 0.000002 0.000001 9.358369 -2.752545 -19.717890 -25.845770 -4.601546 10.729281 -13.816987 -12.257310 -4.029058 0.000002 -0.000001 -0.000000 1.981822 2.787717 14.710831 -21.893031 -1.394985 -13.747380 -10.119148 14.136182 4.078021 -0.000003 0.000001 -0.000000 
-3.182234 105.328117 -1.048811 9.774223 -1.366213 -3.792331 -11.278241 -1.741287 4.058689 -2.238113 -1.551221 4.077179 4.358043 1.282032 1.503219 -12.024939 -6.471103 8.983669 -0.000002 0.000002 -0.000001 7.529189 6.339231 -17.160201 10.581433 -13.572155 -43.395057 25.765823 -10.375347 -15.962804 0.000003 -0.000005 0.000000 9.268671 -1.867949 27.314746 10.837473 18.034324 33.995996 16.987780 -8.385908 -1.662160 0.000001 0.000004 -0.000000 8.812723 -2.781365 -19.585521 -25.809236 -4.584329 10.648411 -14.094543 -12.060303 -3.712712 0.000002 -0.000001 -0.000000 1.559613 2.781553 14.792679 -22.178162 -1.360561 -13.745263 -10.122101 14.294723 4.210556 -0.000001 0.000003 -0.000000 
-3.195977 105.326111 -1.037368 9.403812 -1.273687 -3.747067 -10.744185 -1.694090 3.951531 -2.644100 -1.531425 4.059273 4.619761 1.047108 1.489364 -11.790416 -6.479882 8.978390 -0.000002 0.000001 0.000001 7.443556 6.980187 -17.023582 10.543883 -13.443143 -43.497247 25.728889 -10.417527 -16.408729 0.000002 0.000000 0.000000 9.064896 -2.324766 27.199017 10.774652 17.785218 34.189533 16.773830 -8.067848 -1.459193 -0.000003 0.000004 -0.000002 9.204704 -2.766905 -19.623654 -26.014433 -4.670302 10.642289 -13.965331 -11.931683 -3.586082 -0.000001 -0.000001 -0.000001 1.975416 2.784961 14.821953 -22.178618 -1.324098 -13.790963 -10.115993 14.039475 4.019270 0.000001 -0.000000 -0.000002 
-3.213906 105.322121 -1.031048 9.408621 -1.470466 -3.726210 -10.787519 -1.678683 3.843470 -2.667027 -1.486543 4.015673 4.763631 1.235466 1.598164 -11.663119 -6.587856 8.986435 -0.000003 0.000001 0.000000 7.505025 6.972447 -16.810094 10.470806 -13.519167 -43.741068 25.588546 -10.294630 -16.454079 0.000000 -0.000002 0.000000 9.129842 -2.153482 27.073121 10.762661 17.991724 34.337608 16.347320 -7.576775 -2.049762 0.000002 0.000001 0.000001 9.107215 -2.814146 -19.551777 -25.548710 -4.491350 10.535670 -14.657665 -11.959989 -3.396496 0.000000 -0.000001 0.000000 1.790740 2.814009 14.850042 -21.583678 -1.373430 -13.845249 -10.366380 14.232484 4.054952 -0.000005 -0.000000 -0.000001 
-3.229025 105.319435 -1.021869 9.652232 -1.401822 -3.788206 -11.115151 -1.709225 3.911049 -2.874918 -1.535714 4.072289 5.052981 0.926844 1.492554 -11.568065 -6.525206 8.936891 -0.000002 -0.000000 0.000003 7.476833 7.152483 -16.609656 10.770648 -13.380702 -43.928754 25.846911 -10.137541 -16.375770 0.000003 -0.000003 0.000000 9.242687 -1.835648 26.807845 10.752587 18.250399 34.444583 16.594677 -7.676777 -2.146920 -0.000002 0.000002 -0.000001 8.792660 -2.847732 -19.482234 -25.421988 -4.434480 10.616084 -14.935380 -12.033779 -3.453939 0.000005 0.000000 -0.000000 1.667184 2.843784 14.942113 -21.660176 -1.343933 -13.831970 -10.531874 14.020997 3.938407 -0.000003 0.000004 -0.000000 
-3.248215 105.321335 -1.014872 9.606999 -1.215988 -3.769698 -11.083177 -1.709315 3.927960 -2.725949 -1.597491 4.157725 4.876396 0.902973 1.356218 -11.305721 -6.539151 8.952431 -0.000002 0.000000 -0.000000 7.553259 7.154043 -16.703521 10.736658 -13.679883 -43.799551 25.802310 -10.334323 -15.821918 -0.000002 -0.000002 -0.000001 9.355080 -1.876106 26.892572 10.781475 18.802722 34.311735 16.674344 -7.678227 -2.677687 -0.000003 0.000001 0.000001 8.092992 -2.933864 -19.498404 -24.198711 -4.171171 10.704173 -15.601844 -12.164460 -3.517206 0.000002 -0.000001 -0.000000 1.458995 2.882771 14.873039 -21.325346 -1.299124 -13.591930 -10.613324 13.337170 3.411337 -0.000003 0.000003 -0.000000 
-3.268699 105.318115 -1.003344 9.176106 -1.165440 -3.754271 -10.355488 -1.670254 3.895194 -3.190839 -1.569986 4.154496 5.228030 1.044170 1.355351 -11.626766 -6.564008 9.040047 -0.000003 0.000000 0.000003 7.555198 6.947447 -16.755789 10.776082 -13.761289 -43.687246 25.646423 -10.715154 -15.285110 -0.000002 0.000002 -0.000001 9.335516 -2.045709 27.089871 10.809648 19.062018 34.097715 16.669297 -7.578493 -3.040458 0.000000 -0.000001 0.000001 8.301319 -2.924582 -19.512363 -23.780757 -4.004834 10.759851 -15.845448 -12.285626 -3.576763 -0.000000 -0.000002 -0.000000 1.530402 2.894633 14.868342 -20.632424 -1.401703 -13.565708 -10.880925 13.316561 3.361926 -0.000001 0.000001 -0.000000 
-3.296549 105.309067 -0.982687 8.600093 -1.232940 -3.758436 -9.881410 -1.664345 3.863263 -3.737305 -1.631222 4.243083 5.520845 1.062129 1.256435 -11.212929 -6.574164 9.062789 -0.000000 0.000001 0.000001 7.584547 6.988137 -16.357868 11.088101 -13.606836 -43.967311 25.774416 -10.716069 -15.149086 0.000001 0.000000 0.000002 9.235614 -2.577361 26.878739 10.878295 19.023752 34.237768 16.907867 -7.468787 -2.473084 0.000001 0.000002 0.000001 8.609464 -2.912757 -19.480017 -23.003246 -3.779232 10.797679 -16.240032 -12.306115 -3.571926 -0.000000 -0.000002 -0.000001 1.888732 2.924988 14.969669 -20.024190 -1.374674 -13.613755 -11.107372 13.304435 3.386113 -0.000005 0.000002 -0.000001 
-3.324135 105.304840 -0.962623 8.382893 -1.381187 -3.579935 -10.385695 -1.686085 3.837863 -3.187048 -1.484313 4.046396 5.258116 1.068150 1.382725 -10.954432 -6.567346 8.993742 -0.000002 0.000000 0.000002 7.695741 7.440671 -16.459726 11.203542 -13.486999 -43.781335 25.709860 -10.934309 -15.231938 0.000001 -0.000007 -0.000002 9.240650 -2.832006 26.730857 10.962478 18.963095 34.331980 17.041669 -7.627355 -2.174059 -0.000004 0.000004 -0.000000 8.558272 -2.903301 -19.670356 -22.679466 -3.723029 10.791927 -16.429240 -12.057879 -3.239959 0.000002 -0.000000 0.000000 1.797827 2.867522 14.823344 -19.757576 -1.401243 -13.623468 -11.078151 13.575326 3.550063 -0.000003 0.000001 -0.000001 
-3.351123 105.302109 -0.941051 8.167042 -1.267189 -3.553430 -9.904497 -1.665521 3.851304 -4.383305 -1.531627 4.125884 5.994368 1.127824 1.285541 -10.391493 -6.556903 8.992111 -0.000005 0.000001 0.000000 7.766670 7.431837 -16.390501 11.609939 -13.254015 -43.749568 25.671886 -11.230626 -15.006825 -0.000003 -0.000002 -0.000001 9.282537 -2.839857 26.613067 11.055704 19.176869 34.402297 16.808281 -7.424211 -2.690705 -0.000001 -0.000001 0.000002 8.560510 -2.982607 -19.739665 -22.673182 -3.906876 10.799653 -15.926849 -11.641235 -2.883058 0.000000 -0.000001 -0.000000 1.284111 2.929344 14.757826 -18.567152 -1.394635 -13.451526 -11.300917 13.262009 3.296559 -0.000005 0.000003 0.000000 
-3.387765 105.296074 -0.928120 7.813800 -1.320272 -3.508057 -9.432633 -1.653825 3.872887 -4.148306 -1.487903 4.054845 5.714829 0.974232 1.350896 -10.408825 -6.298073 8.818666 -0.000003 0.000001 -0.000002 7.827677 7.524508 -16.503779 11.523680 -13.464734 -43.348376 25.689112 -10.995741 -14.665494 -0.000002 -0.000002 0.000002 9.474011 -2.234020 26.633353 11.182930 19.149846 34.481588 16.657633 -7.551742 -3.480851 0.000003 0.000004 0.000002 7.995729 -3.040312 -19.829333 -21.400777 -3.528829 10.906810 -16.367285 -11.322528 -2.366084 -0.000002 0.000001 -0.000000 0.605706 2.920868 14.722633 -16.896092 -1.588928 -13.374877 -11.709021 13.439757 3.302279 -0.000001 0.000001 -0.000001 
-3.427323 105.280212 -0.908995 7.268976 -1.535588 -3.436964 -8.925425 -1.656203 3.928028 -4.244508 -1.411532 4.026560 5.961034 1.054045 1.333110 -10.668836 -6.125499 8.765559 -0.000002 0.000001 -0.000001 7.974812 7.368950 -16.725407 11.434178 -14.023183 -42.475580 26.141968 -10.109778 -14.246681 0.000004 -0.000002 0.000002 9.588951 -2.395790 26.876948 11.450485 19.443749 34.299994 16.669258 -7.586306 -4.400226 -0.000001 -0.000001 0.000001 7.459891 -3.151574 -20.029817 -19.604284 -2.927319 11.132423 -17.432924 -11.088389 -1.670219 -0.000000 0.000001 0.000001 -0.480175 2.901157 14.467276 -14.075081 -2.068117 -12.971514 -12.367106 13.780139 3.400025 -0.000003 0.000002 0.000000 
-3.464082 105.259560 -0.898079 6.916522 -1.864975 -3.480579 -8.651619 -1.665906 4.085662 -3.232540 -1.413129 4.051532 5.152233 1.407213 1.294429 -10.195049 -6.198661 8.759099 -0.000002 0.000001 -0.000001 7.985395 6.994681 -17.120602 11.341988 -14.132645 -41.547013 26.263490 -9.057881 -14.100400 0.000001 -0.000002 -0.000000 9.573689 -2.551640 27.157976 11.535451 19.004899 34.386874 16.420410 -7.720441 -5.223768 0.000001 0.000004 -0.000001 7.319139 -3.143628 -19.943111 -18.855297 -2.557290 11.027555 -18.063031 -10.779169 -1.122971 0.000000 0.000000 -0.000000 -1.422310 2.872333 14.326841 -11.924916 -2.340811 -12.446842 -12.866665 13.710928 3.337211 -0.000001 0.000002 -0.000000 
-3.517181 105.201645 -0.879685 5.880758 -1.660343 -3.696926 -7.785119 -1.641444 4.251404 -2.202822 -1.637551 4.242470 4.329401 1.458310 1.148462 -10.107701 -6.713757 8.530956 -0.000002 0.000001 0.000000 8.243519 5.610923 -17.075401 11.704023 -14.104234 -39.844749 26.986957 -7.340579 -12.973029 -0.000001 -0.000003 0.000001 9.806468 -2.745939 27.538768 11.856026 18.196816 34.697965 16.423093 -7.756636 -7.336947 0.000001 -0.000001 -0.000002 7.067400 -3.047052 -19.693800 -16.342858 -1.661940 11.099443 -19.478310 -11.110491 -1.143318 0.000004 -0.000001 0.000000 -3.478750 2.889092 13.898815 -6.120595 -3.163309 -10.959720 -13.604511 13.260210 2.413985 -0.000001 0.000001 -0.000001 
-3.575882 105.083054 -0.838527 4.424173 -1.502324 -3.803767 -6.308415 -1.590706 4.580660 -0.672951 -1.729822 4.058520 2.582508 1.626422 1.256873 -9.148150 -7.389343 8.047592 -0.000005 0.000000 0.000003 8.086161 5.141078 -16.509800 12.034630 -11.971966 -37.605444 25.649870 -6.723539 -12.759505 -0.000000 -0.000002 -0.000002 9.212190 -3.297232 27.764203 11.129414 15.564493 35.710466 14.973691 -7.094978 -8.108314 -0.000001 0.000002 -0.000001 7.438616 -2.688640 -19.659965 -13.192794 -1.121170 11.000866 -20.931857 -11.295062 -1.227084 0.000002 -0.000000 0.000001 -6.259953 2.598856 12.578378 1.423947 -3.905482 -8.046307 -13.513989 12.790830 1.616822 -0.000003 -0.000001 -0.000001 
-3.624629 104.948570 -0.786043 4.049223 -1.752677 -3.646467 -5.786725 -1.535868 4.717798 0.681148 -1.693643 3.926214 1.555966 2.197323 1.354247 -9.043311 -7.480243 8.119629 -0.000003 0.000001 0.000001 7.650217 4.632842 -15.730122 12.254546 -10.106238 -35.732763 23.801741 -6.535488 -12.110001 0.000002 0.000003 0.000001 8.486232 -4.755528 28.161715 10.504935 13.652632 36.088623 13.988839 -6.690042 -8.001657 0.000001 -0.000005 -0.000000 6.738415 -2.711816 -19.928996 -11.098762 -1.040571 10.922466 -22.049837 -11.130723 -1.074707 -0.000002 -0.000001 0.000001 -8.905777 2.498927 11.115144 7.900416 -3.879976 -4.890933 -13.576494 11.605757 1.078653 -0.000003 -0.000001 -0.000000 
-3.681618 104.770370 -0.751099 3.031920 -2.088590 -3.284501 -3.033380 -1.324138 4.741966 -0.681616 -1.646951 3.654751 1.741777 1.793676 1.515202 -9.160393 -6.841806 7.289815 -0.000001 0.000001 0.000001 6.645736 5.437638 -14.779529 11.282599 -8.659014 -31.771690 20.947012 -5.985969 -11.450565 0.000001 0.000000 0.000002 8.164009 -2.263009 28.336049 9.777508 10.395699 37.137945 11.557164 -7.007723 -8.757911 -0.000002 0.000000 -0.000000 5.586145 -3.056253 -20.136443 -8.610697 -1.155113 10.159689 -24.417288 -10.544578 -0.401629 0.000002 0.000000 0.000000 -10.340206 2.576919 8.212906 13.450787 -3.272307 0.226901 -13.801382 7.728110 -1.633530 -0.000002 0.000003 -0.000001 
-3.771126 104.553284 -0.719057 4.065295 -3.046615 -3.223904 -2.513890 -1.307957 4.889605 0.762068 -1.173319 3.110190 0.481810 2.522625 2.154417 -11.190673 -6.025767 7.577406 -0.000001 0.000000 0.000002 5.751732 5.951931 -13.130907 9.742228 -8.793583 -26.657822 18.079574 -3.946237 -10.436904 -0.000001 -0.000003 0.000001 7.736933 -0.756578 28.571600 8.897482 8.670429 38.280895 8.744195 -10.225375 -9.030100 0.000001 0.000002 -0.000001 2.303763 -3.920326 -19.523983 -5.569913 -0.519842 8.920264 -26.516118 -9.818425 0.782357 -0.000000 -0.000000 0.000001 -12.950576 2.956708 5.538358 17.210386 -2.299974 5.709035 -13.992724 2.144705 -5.089140 -0.000001 0.000003 -0.000000 
-3.875034 104.319489 -0.686042 4.865873 -3.696275 -3.356408 -2.557911 -1.305931 5.068770 1.324488 -1.005589 2.800077 0.027155 3.817562 2.678856 -10.858515 -6.180724 7.512558 -0.000002 -0.000000 0.000003 5.259958 4.988809 -11.480549 8.583749 -8.611385 -22.749690 15.806205 -2.422121 -8.556329 -0.000000 -0.000002 0.000000 6.951574 -2.061083 28.945843 8.379450 7.077136 38.558484 7.484050 -11.834216 -8.785217 -0.000001 0.000001 -0.000002 -1.034352 -4.292063 -19.000526 -2.541144 0.437837 8.312850 -27.231635 -9.353970 1.442625 0.000004 -0.000000 0.000001 -15.190426 3.134670 3.869263 20.524034 -1.646307 9.330616 -14.279796 -0.935610 -7.276662 -0.000001 0.000005 -0.000001 
-4.022477 104.038467 -0.650774 3.289836 -4.675165 -3.367780 -0.243286 -1.127562 4.823544 0.992967 -0.997159 2.699287 -1.091878 4.799701 3.290256 -9.373583 -5.747217 7.163769 -0.000003 0.000001 -0.000001 4.873375 3.073601 -9.125099 7.666034 -7.562123 -17.766681 14.798074 1.808373 -7.017256 0.000002 0.000002 0.000002 6.602815 -2.005732 29.033884 7.757920 4.929088 39.057330 6.459045 -14.199729 -9.814954 -0.000003 0.000002 0.000000 -0.914319 -4.074004 -18.851493 -0.579581 0.693451 8.104885 -26.354411 -9.211939 0.911856 -0.000000 -0.000001 -0.000000 -14.587086 3.019314 1.484876 23.378602 -0.726719 11.987092 -13.070049 -3.300823 -8.157306 -0.000003 0.000004 0.000001 
-4.219069 103.737511 -0.630477 2.309381 -5.800148 -3.558856 1.043410 -1.015274 4.756977 1.314968 -1.099143 2.553777 -2.149179 5.757706 3.826678 -8.568395 -5.099112 6.667869 -0.000003 0.000001 0.000001 3.954209 2.942351 -6.736582 6.468700 -5.478584 -12.415140 13.111579 4.789032 -6.625939 0.000001 -0.000002 -0.000002 5.409582 -3.212945 28.862921 7.513959 0.417085 38.900390 4.512227 -14.790636 -10.104578 -0.000000 0.000004 -0.000001 -1.950832 -3.868684 -18.484425 2.352090 1.198457 7.999149 -27.711539 -9.465675 0.535982 -0.000000 0.000002 0.000001 -14.320804 2.863591 -0.797096 26.180776 0.188483 13.299340 -12.733811 -4.538899 -8.431322 0.000002 -0.000005 -0.000001 
-4.424266 103.448044 -0.620692 3.480784 -7.010143 -3.542340 -1.212098 -1.068906 4.801682 2.548455 -1.136454 2.459751 -2.481653 6.067039 4.102867 -8.168298 -4.468237 5.925336 -0.000003 0.000001 0.000001 3.409812 3.670001 -4.719608 5.603031 -5.543142 -8.106926 12.797713 6.840828 -6.246293 0.000001 0.000000 0.000001 4.902227 -3.957340 28.234901 7.944740 -2.024632 38.730717 4.042722 -15.664504 -11.224968 -0.000000 0.000002 0.000000 -3.621628 -3.869116 -18.084862 3.285332 1.429088 7.889414 -28.064851 -9.158184 0.999114 -0.000000 -0.000001 0.000000 -15.336187 2.976171 -2.570676 27.551919 0.475600 13.913425 -12.282191 -4.388499 -8.277363 -0.000003 -0.000003 -0.000001 
-4.684474 103.166573 -0.638558 1.973443 -8.184529 -3.753078 0.731483 -0.839295 4.636435 -0.901119 -1.615648 3.013757 0.246775 6.100860 3.654419 -7.611577 -3.771044 4.617222 -0.000002 0.000001 0.000001 2.595138 4.713561 -2.260003 4.914601 -4.450689 -4.007560 11.848607 7.436808 -6.086753 -0.000001 0.000002 -0.000001 4.739690 -2.492919 27.101320 8.201991 -4.674210 37.971996 3.168637 -15.674205 -12.500313 -0.000001 0.000001 0.000003 -3.532215 -3.619614 -17.375873 5.148365 2.063464 7.581628 -30.107091 -8.764249 2.284388 0.000000 0.000000 0.000000 -14.000190 2.727532 -4.802630 27.677697 0.350926 14.096708 -13.050395 -4.673922 -9.304342 -0.000001 -0.000003 -0.000002 
-5.014559 102.902855 -0.648996 1.007821 -8.112443 -4.310869 1.525546 -0.824377 4.980532 -2.683409 -2.126318 3.566949 1.499051 5.697794 3.104097 -7.157830 -2.847717 3.712099 -0.000003 0.000002 0.000000 2.319973 4.714684 0.044661 4.456351 -4.267208 -0.045112 11.825492 9.377296 -6.207311 0.000001 -0.000002 -0.000000 4.356353 -3.018757 25.934146 8.201788 -5.690476 35.190733 3.179191 -16.291948 -11.852554 -0.000000 0.000004 0.000002 -3.748362 -3.430141 -16.394684 6.937259 2.425352 7.539879 -30.363435 -9.051595 1.827533 0.000002 -0.000002 -0.000000 -12.986339 2.452010 -7.077966 27.808116 0.420333 14.660885 -12.860162 -5.198245 -9.648725 -0.000002 0.000003 -0.000000 
-5.379457 102.664513 -0.674685 0.091960 -9.013837 -4.393000 1.873249 -0.750028 4.646818 -1.369639 -1.885764 3.218760 -0.126019 6.304785 3.827355 -6.791350 -2.437107 3.230173 -0.000002 0.000002 -0.000001 2.051061 4.590460 1.699323 4.604326 -2.634766 2.550571 11.288453 8.859603 -6.299883 -0.000001 0.000002 -0.000002 3.591791 -4.726998 24.796151 7.906241 -5.927368 32.606927 3.403073 -16.921804 -10.434973 0.000002 -0.000003 -0.000001 -3.422205 -3.249270 -15.507649 7.387249 2.592589 6.779612 -30.529586 -8.174588 3.197281 0.000002 -0.000002 -0.000000 -12.409031 2.271733 -8.505039 28.064354 0.330022 13.788847 -13.314672 -4.535195 -9.373675 -0.000000 0.000006 -0.000002 
-5.859400 102.510803 -0.712455 -0.570088 -7.853749 -4.711058 1.243586 -0.759508 4.764263 -0.206388 -2.044007 3.447048 -0.841317 5.812593 3.535606 -6.136800 -2.354445 3.208007 -0.000003 0.000001 0.000001 1.858986 3.889630 3.129339 4.832737 -0.605937 4.948500 10.620805 7.515698 -5.835984 -0.000001 -0.000000 -0.000001 3.236758 -4.701413 23.140934 7.675366 -6.616202 28.902051 4.171898 -17.595652 -8.392400 -0.000000 0.000002 -0.000000 -2.350103 -2.892350 -14.597917 7.005416 2.254173 7.473594 -30.222604 -8.380732 2.694148 0.000002 0.000000 0.000000 -10.912214 1.887227 -10.042071 26.165403 0.253247 14.210528 -12.915769 -5.338417 -9.642421 -0.000002 -0.000001 -0.000001 
-6.475893 102.477730 -0.758538 -1.068237 -7.138341 -5.120523 0.601693 -0.765282 4.744826 0.168460 -2.106323 3.365456 -1.026736 5.581372 3.726317 -6.448515 -1.780763 3.086901 -0.000002 0.000001 0.000000 1.230135 4.209702 4.416723 4.387796 1.582185 5.537005 8.559579 5.142615 -4.791876 -0.000000 -0.000002 -0.000000 2.714196 -4.036585 21.191714 6.378360 -6.822899 24.548292 3.691731 -14.794401 -6.726330 0.000002 0.000002 0.000000 -0.716507 -2.284255 -13.154489 5.434339 1.568327 7.862098 -28.368318 -8.889916 1.033581 0.000002 -0.000000 0.000000 -9.255692 1.418888 -10.536034 23.539248 0.074335 14.376295 -11.090174 -5.537813 -8.809480 -0.000002 0.000002 -0.000001 
-7.134360 102.521599 -0.801904 -0.488685 -6.939157 -5.037083 -1.858034 -0.852066 4.511061 1.802666 -1.980952 3.094148 -1.290762 6.175261 3.989937 -5.170684 -2.032281 2.885837 -0.000002 0.000000 -0.000000 1.205381 4.124936 5.034399 4.233213 2.192624 5.728019 7.376740 3.522466 -3.641223 -0.000001 -0.000002 0.000000 2.082304 -5.073576 19.154316 6.067269 -7.814991 21.018714 3.785497 -13.159942 -5.514981 0.000002 -0.000001 -0.000000 0.720038 -1.800654 -12.184005 3.372505 0.831579 7.895491 -27.419822 -9.446452 -0.110487 0.000002 -0.000001 0.000000 -9.034342 1.288141 -10.699070 21.910347 -0.185010 14.099799 -8.594492 -4.370691 -7.012539 -0.000001 0.000000 0.000002 
-7.971325 102.767334 -0.830546 -0.914530 -6.368498 -4.891206 -1.640567 -0.738569 3.920116 1.826160 -1.905213 2.794802 -1.008344 6.266931 3.966707 -3.806883 -1.855988 2.394157 -0.000001 0.000001 0.000001 0.966120 3.522073 5.352830 4.007943 2.936592 5.106525 5.848044 1.702596 -2.705801 -0.000000 -0.000002 -0.000001 1.494489 -5.104123 16.472625 5.182880 -7.074633 16.787463 3.336866 -8.943917 -4.377353 0.000004 0.000002 0.000001 1.683297 -1.324333 -10.442593 2.040014 0.099839 7.509289 -24.766136 -9.784354 -1.706693 0.000000 0.000001 0.000001 -8.114093 1.124589 -9.497825 19.972995 -0.084160 12.864683 -6.064058 -1.808138 -3.978540 0.000000 0.000001 -0.000001 
-9.008152 103.257896 -0.867904 -1.062395 -5.416417 -4.313521 -0.054752 -0.563692 3.224541 -0.876839 -1.816405 2.604014 0.770135 5.162096 3.044637 -2.229042 -1.254574 1.589358 0.000000 0.000001 0.000003 0.625587 3.997667 5.055714 3.331488 1.827019 4.117888 4.771986 0.198153 -1.727928 -0.000001 -0.000007 0.000000 1.899000 -2.576398 13.090741 4.225686 -5.943498 13.231344 2.124657 -3.006614 -5.227466 -0.000002 -0.000001 0.000003 1.882725 -0.947129 -8.731476 0.424005 -0.437472 7.568792 -18.783591 -9.935469 -4.003567 0.000003 0.000002 0.000001 -6.704520 0.858502 -7.367098 16.364713 -0.301561 10.532870 -4.379635 -0.197530 -2.024817 0.000001 0.000003 0.000000 
-10.110727 103.844971 -0.907547 -1.935984 -4.752675 -3.543613 1.315173 -0.422674 2.411543 -0.081533 -1.343926 2.011363 -0.372603 4.589486 2.603811 -2.318624 -0.605679 1.219232 -0.000003 0.000002 -0.000001 0.884346 2.377750 4.248798 3.043771 1.959967 3.774751 3.889914 0.118841 -1.195119 0.000000 -0.000002 0.000000 1.074606 -3.561655 10.199526 3.252935 -3.448862 10.229942 1.585586 -0.833562 -4.323215 0.000001 0.000002 -0.000000 3.185279 -0.585603 -7.688882 -0.776719 -0.820172 7.666510 -12.467201 -10.701155 -6.621435 0.000002 -0.000001 -0.000000 -4.619586 0.606300 -5.593973 13.240464 -0.357840 7.903033 -3.683024 1.229038 -0.565947 -0.000003 -0.000001 -0.000001 
-11.434477 104.642761 -0.952907 -1.322935 -4.369973 -1.901339 1.370852 -0.198029 0.980551 -3.258102 -0.641660 1.091367 2.704950 3.988526 1.915866 -1.707245 -0.093133 0.468407 -0.000002 0.000001 0.000001 0.549423 1.594214 2.924561 2.053339 2.211402 2.957308 2.318944 -0.465258 -1.282448 -0.000000 -0.000004 -0.000001 0.614590 -2.097314 6.252593 1.958469 -2.846420 6.719939 0.390666 2.740253 -2.742384 -0.000001 -0.000001 0.000001 2.998226 -0.250010 -6.091627 -1.467617 -1.216310 7.308626 -5.237846 -11.313420 -9.022198 0.000000 -0.000000 0.000000 -2.643736 0.343381 -3.465723 8.288102 -0.289400 4.225578 -1.299858 1.924180 0.746653 -0.000002 0.000003 -0.000000 
-12.932850 105.556099 -0.989719 -0.319829 -1.616115 -0.642424 0.293187 -0.079057 0.361728 -0.806236 -0.136507 0.254507 0.801661 1.265706 0.588765 -0.422529 0.077584 0.084014 -0.000000 0.000000 0.000002 0.094724 1.467063 0.988678 0.479391 0.040056 1.259322 0.852193 -0.038355 -0.688136 -0.000001 -0.000002 -0.000000 0.121308 -0.850471 1.929826 0.690229 -0.827661 2.370463 -0.122623 2.356714 -0.708872 0.000002 -0.000005 -0.000000 0.762617 -0.127749 -2.233372 -0.868686 -0.653324 3.061762 -0.601074 -3.750038 -3.089387 0.000004 0.000000 0.000000 -0.883246 0.082044 -0.934591 2.712833 -0.115957 1.226181 -0.307672 0.760416 0.313421 0.000001 0.000001 -0.000000 
-14.415302 106.452660 -1.030933 0.210783 1.120470 0.439390 -0.202607 0.055794 -0.250094 0.558309 0.092366 -0.177244 -0.562462 -0.871015 -0.417842 0.292351 -0.054055 -0.057805 -0.000001 0.000001 0.000001 -0.080372 -1.014215 -0.685748 -0.332221 -0.021551 -0.871681 -0.589997 0.020549 0.476513 0.000000 -0.000002 -0.000000 -0.067135 0.590733 -1.334551 -0.457379 0.589134 -1.634638 0.101968 -1.629981 0.493731 0.000001 -0.000005 -0.000000 -0.530404 0.070960 1.546506 0.621041 0.424488 -2.124579 0.297585 2.611554 2.117191 0.000002 -0.000000 -0.000000 0.611963 -0.048333 0.647468 -1.875673 0.114158 -0.844726 0.210496 -0.527224 -0.214516 -0.000002 0.000004 0.000001 
-15.991986 107.383492 -1.069177 1.544792 4.457240 2.465848 0.467408 0.207274 -2.003629 -0.157573 0.313733 -0.524497 -0.725742 -4.322473 -1.598541 -0.233395 0.648563 -0.500890 -0.000001 0.000001 0.000002 0.308312 -3.755757 -3.227804 -1.287955 -2.632569 -2.922036 -0.853422 0.743758 1.672116 -0.000000 -0.000005 -0.000001 -0.094294 1.093635 -5.183605 -0.617443 2.589776 -6.651550 0.564056 -6.921916 -0.847497 -0.000000 0.000004 -0.000001 -2.836420 0.115075 6.681559 4.882017 2.276457 -10.391778 -4.630468 8.370586 9.147326 0.000004 -0.000003 -0.000002 -0.251480 -0.110207 1.006837 -5.099082 0.018362 -2.336977 -1.600905 -1.912972 -1.754053 -0.000005 0.000004 0.000000 
-17.659584 108.347450 -1.129217 2.100797 8.601495 4.778253 3.105487 0.396381 -4.059072 -0.072920 0.538896 -0.790012 -1.653666 -8.147661 -2.462068 -0.437338 -0.114997 -0.017274 -0.000000 0.000000 0.000002 0.625827 -7.460164 -5.906337 -2.623627 -5.761337 -2.154798 0.874109 -1.899046 -2.281011 -0.000000 -0.000003 0.000000 -0.021512 1.813650 -8.909322 -0.554463 4.312332 -12.814659 1.082128 -12.647238 -2.009043 -0.000001 0.000004 0.000002 -7.790148 -1.247660 12.259626 10.770226 3.462761 -19.559888 -12.954235 11.722696 16.959235 0.000001 -0.000000 0.000003 -0.416196 -0.167557 0.479530 -7.627956 -0.005945 -2.910809 -3.803667 -1.240982 -2.196184 -0.000000 0.000001 0.000000 
-19.301775 109.281555 -1.209510 2.651625 10.453511 6.167788 6.138240 0.319707 -5.505295 -1.870209 0.762786 -0.562011 -2.065755 -11.742292 -3.588899 -1.409806 1.002138 0.076514 0.000000 0.000001 0.000002 1.640398 -9.016119 -6.248211 -2.529011 -10.264963 0.110719 5.290710 -2.626351 -7.532965 -0.000001 -0.000002 -0.000000 0.120493 0.725785 -11.734315 1.344733 5.815674 -17.362798 2.000488 -18.826530 -4.837731 -0.000001 0.000004 -0.000002 -11.485679 -2.796671 17.990086 14.590119 3.618656 -28.682112 -20.420500 13.503685 23.814453 0.000000 -0.000001 0.000001 -0.133399 0.208952 0.549664 -11.608758 0.367958 -3.698672 -1.963124 -3.837088 -3.100183 -0.000003 0.000001 -0.000000 
-20.987104 110.141457 -1.273480 3.377988 12.421556 7.436451 7.063555 0.335711 -7.296579 -1.212955 1.114875 -0.622789 -2.993084 -12.979350 -4.068435 -0.964462 0.481498 1.087747 -0.000003 0.000000 0.000002 2.965584 -9.999514 -6.773538 1.159057 -7.334191 3.633101 6.674761 -17.085098 -14.782517 -0.000003 0.000005 -0.000003 -0.218881 -1.082969 -14.652967 4.302302 6.743167 -23.182331 2.760134 -23.067926 -7.727157 0.000001 0.000002 -0.000000 -17.308316 -6.034074 24.247867 19.882594 2.870167 -38.442248 -26.850744 15.028201 30.749133 -0.000004 0.000001 0.000004 0.803491 0.511355 0.403166 -14.086678 0.296000 -3.979720 -3.143808 -1.394770 -1.998119 -0.000003 0.000001 -0.000002 
-22.674355 110.969093 -1.352003 5.201453 14.580415 8.241580 6.110431 0.541775 -9.187322 -0.433016 1.263590 -0.864760 -3.666174 -15.310236 -3.763952 -0.842528 0.977557 0.883286 -0.000002 0.000002 0.000000 3.527654 -8.865421 -6.301708 2.606370 -7.157668 5.256792 5.918039 -30.707274 -23.995445 0.000001 -0.000002 0.000001 -0.183020 -1.547193 -17.938493 6.435946 9.345173 -27.956002 2.261182 -26.919676 -11.689536 -0.000002 -0.000001 0.000001 -21.228590 -8.664856 32.348677 20.297934 2.145770 -50.020627 -32.647123 16.848709 38.003371 0.000000 -0.000001 0.000002 1.020397 0.397077 -0.073003 -16.237774 0.077910 -3.947276 -4.969783 -0.721905 -2.311125 -0.000001 0.000002 -0.000002 
-24.303900 111.742653 -1.465490 5.145858 17.904972 8.696078 7.260918 0.486949 -9.735049 -1.354671 1.623988 -1.298493 -2.720317 -17.748334 -3.298476 -1.068847 0.336103 0.751308 -0.000003 0.000001 0.000002 3.025991 -8.363487 -6.307456 2.037110 -8.848145 5.791519 2.898768 -41.568610 -34.702716 -0.000003 -0.000002 0.000001 0.074249 -0.610685 -20.467440 6.689793 9.763663 -30.506883 1.199451 -29.434943 -14.949481 -0.000002 0.000004 0.000000 -25.549279 -11.954157 37.410251 23.731834 1.041695 -57.268418 -35.785192 16.637012 40.943214 0.000002 -0.000002 -0.000002 1.463919 0.153006 -0.107811 -16.039489 -0.313758 -4.196788 -10.786190 2.989494 -1.383546 -0.000003 0.000004 -0.000000 
-25.885754 112.451584 -1.596457 6.692545 20.538915 9.229084 6.103419 0.696861 -11.191782 0.259598 1.083934 -0.758234 -3.434878 -18.555968 -3.240247 -1.364598 -0.797321 1.350260 0.000000 0.000000 0.000001 3.250578 -9.601652 -6.226213 2.507930 -9.557366 6.713776 -3.801291 -51.781580 -46.724368 -0.000003 0.000003 -0.000001 -0.452638 -1.175064 -22.944728 7.735929 10.431191 -33.693982 0.543099 -32.573572 -16.936753 -0.000000 -0.000001 0.000002 -27.777719 -14.675192 44.176646 23.821676 0.330514 -65.171937 -37.767873 18.471827 45.337942 0.000000 0.000002 -0.000000 -0.247889 0.343137 -2.001061 -18.512162 -0.829053 -2.669120 -11.404138 1.616849 -2.761927 -0.000005 0.000002 0.000000 
-27.443798 113.154823 -1.778355 6.074141 21.491668 9.832804 6.837173 0.762537 -12.609164 1.568036 0.299221 0.036857 -5.123520 -18.654597 -3.358207 -1.633229 -1.573277 1.095581 -0.000004 0.000000 0.000001 2.166442 -9.260988 -6.828684 0.697845 -10.934033 7.017830 -13.247422 -57.549596 -62.169283 -0.000004 -0.000002 0.000002 -0.217128 0.550522 -24.392093 6.643875 11.819494 -36.420037 -1.253786 -32.161684 -17.910242 0.000001 0.000002 -0.000000 -30.514096 -17.905042 49.147422 25.514206 -0.809703 -70.103771 -38.573206 18.814347 46.344633 -0.000000 -0.000000 -0.000001 -0.843192 0.400395 -2.297988 -7.896618 -0.720004 -2.618350 -15.179074 3.484421 -2.129507 -0.000001 0.000002 -0.000001 
-28.875826 113.778572 -1.962065 6.150223 22.009207 10.199582 6.923423 0.827303 -13.308936 1.830114 0.028639 0.275319 -5.622277 -18.776783 -3.377129 -1.341038 -2.407062 1.029316 -0.000001 0.000001 0.000004 1.685494 -9.508183 -6.861743 -0.376237 -11.607148 7.310153 -23.204407 -60.440337 -76.838542 0.000000 -0.000000 -0.000000 -0.381346 1.187940 -25.660742 6.261788 13.090012 -38.192403 -2.303558 -31.928867 -18.362429 -0.000001 -0.000001 -0.000000 -31.080448 -19.460278 53.829967 24.373597 -0.769534 -74.419986 -40.261759 19.363643 48.879299 0.000003 0.000000 0.000000 -2.112261 0.457697 -2.757758 -2.477711 -0.757828 -2.312900 -17.511577 4.588712 -2.008876 -0.000001 -0.000003 -0.000002 
-30.258869 114.378387 -2.181417 5.880945 22.330566 10.927363 8.147443 0.707570 -13.388198 -0.295227 1.075826 -1.187582 -4.115962 -19.761926 -2.358633 -1.433917 -2.888321 0.907125 -0.000003 -0.000000 0.000002 1.015242 -9.292271 -6.834054 -2.102408 -13.229080 7.432211 -30.129785 -60.686873 -87.943849 0.000002 -0.000000 -0.000002 -0.695679 2.055074 -27.160669 5.249835 14.145515 -38.893672 -3.954389 -31.715765 -19.349364 0.000001 0.000000 -0.000000 -31.632754 -20.763191 56.920140 22.852988 -0.241893 -77.068720 -40.968072 19.123744 49.254639 0.000000 -0.000000 0.000000 -1.969639 0.379185 -3.006664 3.870225 -0.830387 -1.549806 -20.068110 5.633047 -1.918698 -0.000003 0.000002 -0.000002 
-31.540329 114.902954 -2.387268 4.956501 22.951123 11.739810 8.110724 0.736377 -13.908560 0.956977 0.467787 -0.517029 -5.148076 -19.055482 -2.832022 -1.800600 -3.061422 1.035939 -0.000001 0.000001 -0.000002 1.128068 -9.588967 -6.408652 -2.894226 -15.170711 7.957146 -33.619520 -60.603545 -92.321857 0.000001 -0.000005 -0.000001 -0.344395 2.573281 -28.111723 5.287090 13.507737 -40.179175 -4.932036 -32.503856 -20.084904 -0.000000 0.000006 0.000000 -32.798036 -22.108291 57.872630 22.923563 -0.408308 -76.988540 -40.760872 18.837904 48.784995 0.000000 0.000001 -0.000001 -0.173978 0.034841 -3.004517 1.194102 -1.020609 -0.465990 -21.291207 5.537140 -2.725247 -0.000003 -0.000001 -0.000001 
-32.655163 115.326218 -2.547765 4.318538 23.706620 12.088460 8.574734 0.624562 -12.968561 0.780489 0.830164 -1.074392 -4.596251 -19.405749 -2.674994 -2.390866 -2.745401 1.411039 -0.000003 0.000002 -0.000001 1.419393 -9.596575 -5.559918 -2.147832 -14.756861 7.625090 -40.058254 -61.954037 -98.724067 -0.000001 -0.000004 -0.000000 -0.000625 2.321351 -28.837701 5.961874 13.174577 -41.257177 -4.374430 -34.807706 -20.857755 -0.000001 0.000004 -0.000002 -33.781190 -23.101913 58.522318 23.682528 -0.482360 -76.475190 -39.741681 19.281426 48.118174 -0.000002 0.000001 0.000001 1.288735 -0.380328 -3.529135 -8.526777 -1.347051 -0.429235 -16.676585 1.801399 -4.427376 -0.000002 0.000004 -0.000000 
-33.695232 115.712357 -2.709022 4.314522 24.240090 12.508308 7.520410 0.725147 -13.188333 1.720637 0.765405 -1.051933 -4.782629 -19.185674 -2.651038 -3.055312 -2.811961 1.970646 -0.000001 0.000000 0.000002 1.857343 -8.987786 -5.267765 -1.554588 -15.421674 7.654098 -44.398511 -63.055582 -102.102401 -0.000001 -0.000002 -0.000001 0.223984 1.903783 -29.046261 6.871021 12.960576 -42.061275 -4.048236 -35.933735 -21.383789 -0.000001 0.000005 -0.000000 -34.184882 -23.662670 59.014856 23.783113 -0.477060 -75.729299 -38.776193 19.639420 47.425333 0.000004 0.000001 0.000001 1.638810 -0.468933 -4.077717 -13.823907 -1.559831 -0.191515 -14.743832 -0.175194 -5.471308 -0.000001 0.000004 0.000001 
-34.667347 116.047363 -2.868054 4.245576 25.459032 12.965314 7.129398 0.758776 -13.051425 2.378774 0.546752 -0.834737 -5.568235 -19.120691 -3.134529 -2.489935 -3.488198 2.441812 -0.000001 -0.000000 0.000004 2.030266 -9.178385 -5.010146 -1.494369 -16.140203 7.362684 -46.642214 -63.638266 -103.995142 -0.000002 -0.000004 -0.000001 0.273195 1.742872 -29.377187 7.343617 13.269113 -42.259535 -3.526217 -36.337764 -21.234706 -0.000003 0.000006 -0.000001 -35.301232 -24.493403 58.339767 24.274199 -0.535489 -74.670360 -38.282835 19.565908 46.806057 -0.000002 -0.000002 -0.000000 2.196435 -0.611409 -4.441206 -17.676031 -1.739147 -0.121110 -13.680835 -1.583052 -6.166458 0.000000 0.000003 -0.000001 
-35.542019 116.358833 -3.027246 4.084019 25.715215 13.364302 6.960302 0.801733 -13.102389 2.997268 0.491555 -0.818864 -6.020896 -18.983234 -3.131224 -2.198777 -3.721157 2.608335 -0.000001 0.000001 0.000003 2.029823 -9.044770 -5.057552 -1.429355 -15.783075 7.274927 -48.873473 -63.508806 -107.011108 -0.000004 -0.000002 -0.000000 0.477110 1.945811 -29.464627 7.282496 12.795201 -42.388950 -3.506797 -36.330910 -21.254505 -0.000000 0.000000 -0.000000 -35.212822 -24.364050 58.413397 24.707422 -0.598697 -73.780591 -37.927921 19.444739 46.317931 0.000000 0.000000 -0.000000 2.558625 -0.770079 -4.656810 -19.639461 -1.769239 -0.305542 -12.718994 -2.364100 -6.412232 -0.000005 0.000000 0.000000 
-36.403866 116.733459 -3.238352 3.710326 24.379426 13.886984 8.139724 0.763720 -13.885155 2.538087 0.531956 -1.070515 -6.032993 -18.189393 -2.520344 -3.175980 -3.775199 1.994010 0.000000 0.000000 0.000003 1.071721 -10.155922 -5.656995 -3.757731 -16.215665 7.180791 -43.886766 -61.370821 -103.448911 -0.000001 -0.000003 0.000001 -0.745250 2.412951 -29.232206 5.279354 14.248028 -41.700125 -5.386263 -33.413176 -21.135969 0.000001 0.000004 -0.000000 -34.344800 -23.702452 58.771947 24.168759 -0.468519 -73.680782 -37.317152 19.268081 45.216245 -0.000002 -0.000005 -0.000002 0.771832 -0.528779 -4.574876 -9.840166 -1.211103 -1.399455 -19.120297 3.006714 -4.197159 -0.000002 0.000002 -0.000000 
-37.201847 117.080956 -3.466274 3.246171 24.257885 14.384979 8.664402 0.702953 -13.890778 1.125341 1.333200 -2.013508 -5.181688 -18.900843 -2.003202 -2.843244 -4.197261 1.982357 -0.000002 0.000000 0.000001 0.670001 -9.699869 -5.794542 -4.559874 -16.988984 6.684313 -42.086424 -60.685486 -102.318686 -0.000002 -0.000002 -0.000004 -0.764593 2.912023 -29.033509 4.712314 14.388598 -41.371439 -6.010792 -32.587707 -21.511775 -0.000001 0.000004 -0.000000 -34.482627 -23.743611 58.273296 23.351577 -0.097141 -73.569764 -37.109196 18.977416 44.684785 0.000003 -0.000000 0.000001 -0.107312 -0.382885 -4.930872 -4.534601 -1.161356 -1.384993 -23.472751 5.813472 -3.036667 -0.000001 0.000001 -0.000000 
-37.880890 117.347984 -3.674838 2.675415 23.486823 14.339099 8.319446 0.741055 -13.516611 0.348866 1.790949 -2.450518 -3.972655 -18.379037 -1.422794 -2.318459 -4.265812 2.084692 0.000000 0.000002 0.000002 0.975533 -9.607722 -5.534733 -4.013506 -16.573720 6.432268 -43.028757 -60.749082 -103.514720 -0.000001 -0.000003 0.000001 -0.528214 2.639498 -29.325851 5.124780 13.742339 -41.448136 -5.845848 -32.300866 -21.505158 0.000001 0.000000 -0.000002 -34.917225 -24.080629 58.009726 24.591362 -0.799442 -72.414321 -38.306307 18.541051 45.224004 0.000005 -0.000001 -0.000000 2.234813 -0.609559 -4.399454 -9.924589 -0.825424 -1.458297 -22.450545 5.457160 -3.009443 0.000000 0.000003 -0.000001 
-38.489853 117.585449 -3.875481 1.730323 23.039234 14.472590 8.996073 0.645327 -12.919210 -0.557243 2.249132 -2.859347 -3.169979 -18.263176 -1.147914 -2.456438 -4.088068 2.140926 -0.000003 0.000002 0.000001 1.178621 -9.772441 -5.400590 -3.803729 -16.735951 6.309059 -42.837895 -61.282814 -101.533931 -0.000002 -0.000002 -0.000000 -0.662617 2.152566 -29.397848 5.563300 13.974856 -41.677883 -5.490916 -32.393156 -21.398026 -0.000000 -0.000001 -0.000001 -35.515696 -24.440194 57.402481 25.970112 -1.376213 -71.058775 -38.285645 17.965783 44.417584 0.000000 0.000002 0.000002 3.999345 -0.828985 -4.035369 -12.957753 -0.655397 -1.584796 -21.785295 4.888790 -3.280985 0.000001 0.000002 0.000001 
-39.041397 117.808990 -4.090155 1.857389 23.266978 14.590307 8.534977 0.714211 -12.907927 -0.491648 2.103802 -2.676369 -2.946255 -18.405418 -1.146247 -3.160884 -4.025524 2.250322 -0.000002 0.000000 0.000002 1.004382 -9.493148 -5.353167 -4.064947 -16.873859 6.163032 -43.199580 -61.256313 -101.699352 0.000000 -0.000002 0.000002 -0.587008 2.342539 -29.371719 5.350230 13.885333 -41.763431 -5.581734 -32.796133 -21.424232 0.000001 0.000004 -0.000001 -36.191772 -24.844390 56.758380 26.341485 -1.349010 -70.222336 -38.135425 17.793659 44.156029 -0.000003 -0.000000 0.000000 4.412186 -0.936829 -4.169278 -14.799396 -0.770733 -1.365805 -21.647769 4.229726 -3.859603 -0.000001 0.000002 0.000000 
-39.529232 118.002380 -4.298733 1.360138 23.202721 14.816664 8.562054 0.715588 -12.907046 -0.048852 1.961432 -2.514691 -3.203088 -17.573544 -1.144538 -3.381242 -4.304767 2.503487 -0.000004 0.000000 -0.000000 1.066450 -9.646245 -5.547316 -4.147393 -17.163873 6.170562 -43.740525 -61.315196 -101.908342 -0.000003 -0.000002 -0.000002 -0.641590 2.244193 -29.421484 5.439316 13.864179 -41.727108 -5.645414 -32.831538 -21.388319 0.000002 0.000002 -0.000000 -36.311594 -24.869282 56.456663 26.815813 -1.545440 -69.499606 -37.919919 17.904663 44.048860 0.000002 -0.000001 0.000002 5.028401 -0.989566 -4.052731 -14.173279 -0.661316 -1.308617 -22.456414 4.892914 -3.556437 -0.000001 0.000003 -0.000001 
-39.959114 118.156876 -4.513691 0.589829 23.069032 15.072489 8.656700 0.681739 -12.900702 -0.271447 1.951765 -2.496683 -3.109568 -17.515296 -1.065218 -2.723926 -4.489883 2.320846 -0.000002 0.000000 0.000002 1.032803 -8.848631 -5.315172 -4.197359 -17.663344 5.495335 -43.384033 -61.342687 -102.100632 -0.000002 0.000000 0.000001 -0.076233 2.857647 -29.388433 5.568702 13.810349 -41.551155 -5.666114 -32.482071 -21.620098 -0.000001 -0.000001 0.000001 -36.849895 -25.097177 55.612831 28.217340 -1.927614 -68.120093 -37.818204 17.747017 43.808406 -0.000001 -0.000001 -0.000002 5.806312 -1.057071 -3.874416 -13.529624 -0.800137 -1.188551 -23.375373 5.783487 -3.116918 0.000001 0.000002 -0.000000 
-40.339272 118.293922 -4.735052 0.096945 22.495190 15.092358 8.934839 0.640937 -12.743637 -0.346465 1.982956 -2.520732 -3.191518 -17.039696 -0.939183 -2.828387 -4.592496 2.271184 -0.000000 0.000001 0.000002 0.883182 -9.100193 -5.388404 -4.229832 -17.306933 5.308957 -42.903659 -61.190073 -101.897215 -0.000000 -0.000005 0.000003 -0.022588 3.150498 -29.331523 5.355414 13.894091 -41.219683 -5.953035 -31.887739 -21.639305 -0.000001 0.000004 0.000002 -36.693702 -24.849302 55.191453 29.353605 -2.090849 -66.808587 -37.695732 16.562164 42.238136 0.000001 0.000004 0.000002 5.837845 -1.029038 -3.716341 -12.315782 -0.893983 -1.152722 -24.148308 6.798670 -2.396441 0.000001 0.000002 -0.000000 
-40.670811 118.399620 -4.952085 0.149701 22.299593 15.176211 8.113534 0.711898 -13.041442 0.197997 1.679670 -2.125114 -3.641108 -16.466422 -1.245376 -1.769797 -5.304450 2.532753 0.000002 -0.000000 0.000001 1.307797 -10.318827 -5.358988 -3.590404 -16.493131 5.587682 -43.203634 -61.891766 -100.569481 -0.000002 0.000000 0.000000 -0.124418 2.739612 -29.015296 5.890602 14.322398 -41.425087 -5.647579 -31.020417 -21.388049 -0.000001 0.000000 -0.000000 -37.069629 -24.970209 54.518625 29.848080 -2.271848 -66.350370 -37.514203 16.404263 42.006268 -0.000002 0.000003 0.000001 5.573254 -0.982959 -3.635447 -11.448581 -0.937584 -1.272828 -25.188295 7.561623 -2.052975 -0.000001 0.000000 0.000001 
-40.941250 118.451637 -5.178964 0.014206 21.327447 15.168657 8.270347 0.693703 -13.104143 -1.058643 2.123571 -2.540867 -2.515558 -16.611648 -0.594948 -1.740330 -5.296849 2.503880 -0.000001 0.000001 0.000002 1.247672 -9.996004 -5.477799 -3.417090 -16.368480 5.770081 -43.781912 -61.986712 -101.311171 -0.000003 -0.000000 -0.000001 -0.517578 2.314612 -28.792440 6.192133 15.355749 -41.402496 -5.837387 -30.656683 -21.723123 -0.000001 0.000000 -0.000000 -36.165165 -24.318383 54.581524 29.002544 -2.170944 -67.212975 -37.996691 17.254168 43.540147 0.000001 0.000003 0.000001 5.532082 -0.748221 -3.155434 -10.557582 -0.587344 -1.810229 -25.734140 7.531621 -2.225753 -0.000001 -0.000001 -0.000001 
-41.143108 118.417221 -5.390111 0.251677 20.907913 15.116626 7.234979 0.849964 -13.400437 0.332174 1.340066 -1.680951 -3.606518 -15.708327 -0.951752 -2.071995 -5.275216 2.341476 -0.000000 0.000002 -0.000001 0.684690 -10.197887 -6.065640 -4.024946 -15.845310 5.395803 -41.899714 -61.014162 -100.255381 -0.000001 0.000000 0.000001 -0.111825 3.433228 -28.006381 5.173470 15.562784 -41.332268 -6.428489 -28.851518 -21.210736 -0.000000 -0.000001 0.000001 -36.239351 -24.097182 53.372717 29.802106 -2.381247 -67.463370 -38.263700 16.545858 43.099723 0.000003 0.000001 0.000000 5.456387 -0.722415 -2.623176 -8.723683 -0.176216 -3.945418 -26.856135 8.797274 -0.976267 -0.000002 0.000002 0.000002 
-41.307240 118.345322 -5.610879 0.713750 20.969567 15.092729 6.406393 0.960535 -13.288749 1.927510 0.754880 -1.073069 -5.039562 -15.187236 -1.413641 -2.294765 -5.172772 2.218940 -0.000002 0.000000 0.000002 0.326880 -9.593920 -6.334898 -4.301467 -15.764963 4.821695 -41.263335 -60.829398 -100.347138 0.000002 -0.000002 0.000003 0.285602 4.226970 -27.434997 4.561796 15.074818 -41.307355 -6.637653 -27.941505 -21.560324 -0.000000 0.000002 -0.000001 -36.639006 -24.015753 52.015531 29.981324 -2.290979 -67.872532 -37.922850 16.656403 42.866482 0.000001 0.000000 0.000002 4.666336 -0.627554 -2.672559 -6.588652 -0.288997 -4.446611 -28.069173 9.671599 -0.304922 -0.000000 0.000003 -0.000001 
-41.362316 118.075546 -5.789212 0.365362 21.012363 15.584673 6.390527 0.812133 -12.515480 1.857821 1.318650 -1.500941 -4.777030 -14.409408 -1.152701 -2.158391 -5.332139 3.300477 -0.000000 0.000001 0.000003 1.158652 -9.411791 -6.249819 -2.006554 -14.464382 4.372303 -45.827803 -63.808208 -100.249070 -0.000001 -0.000002 0.000002 1.056029 3.511760 -26.865451 6.143575 13.212282 -41.658727 -5.510644 -29.774553 -23.518174 -0.000000 0.000000 -0.000000 -36.781706 -23.398391 49.772026 31.555272 -2.715444 -68.098721 -38.530689 16.091098 43.146165 -0.000003 -0.000002 -0.000000 5.874650 -0.811190 -2.972235 -12.002605 -1.016760 -2.598772 -24.389311 5.675831 -3.396535 -0.000000 -0.000001 -0.000003 
-41.348763 117.696686 -5.981356 -0.154773 20.136255 15.161657 6.505269 0.682198 -10.709306 2.195350 1.032547 -1.089149 -5.528728 -13.307714 -2.174802 -2.323884 -5.453821 3.241464 -0.000001 0.000001 0.000000 1.244204 -9.041465 -7.132881 -1.283775 -13.398821 2.912376 -41.125696 -64.917950 -90.626345 0.000004 -0.000007 -0.000002 0.562237 2.643464 -25.533896 6.664578 13.737641 -41.445212 -6.046858 -29.463633 -25.087823 0.000001 0.000004 -0.000001 -37.326021 -22.736339 46.190227 33.630233 -3.309244 -67.057636 -37.492572 16.138385 42.252424 -0.000001 -0.000003 -0.000001 6.925402 -0.777242 -1.833545 -13.913683 -1.137727 -2.765415 -24.091243 7.957987 -1.178386 -0.000005 0.000002 -0.000000 
-41.272358 117.268967 -6.148516 0.409118 19.606582 14.764099 5.355726 0.654702 -9.887305 0.478183 1.586115 -1.503078 -3.389546 -13.080913 -1.851297 -1.950957 -6.095022 3.689807 -0.000002 0.000001 0.000002 1.753612 -9.781744 -7.985461 0.047877 -12.664410 1.930082 -34.027077 -66.083986 -77.170838 0.000004 -0.000001 0.000005 0.471843 1.717813 -24.476548 7.335787 12.469318 -41.005095 -6.150437 -29.615202 -26.965143 -0.000000 0.000002 -0.000000 -38.155851 -22.488022 42.998083 34.372309 -3.340249 -66.813102 -37.539703 15.966930 42.251048 0.000002 0.000001 0.000001 7.049862 -0.645597 -1.085774 -14.431920 -1.314135 -3.508998 -24.670606 10.268306 0.894389 -0.000001 -0.000001 -0.000000 
-41.067684 116.732780 -6.229039 -1.462494 16.960505 14.982653 5.798202 0.587819 -9.304972 -0.241110 2.126081 -2.006384 -2.849606 -11.790699 -1.507714 -1.886803 -5.516634 4.380903 -0.000000 0.000000 0.000001 2.513385 -8.596243 -9.362366 1.643199 -10.902719 -0.680883 -24.636677 -65.761676 -62.190669 -0.000003 -0.000000 -0.000002 1.804463 1.966837 -22.503836 8.729801 12.708074 -39.411260 -5.983603 -30.535262 -28.627350 0.000002 -0.000005 -0.000001 -36.630540 -20.040793 38.230464 36.572866 -3.786022 -63.517249 -36.075447 14.600636 39.137636 0.000002 -0.000001 0.000000 8.948011 -0.854237 -1.164926 -13.988362 -1.495766 -1.812236 -21.611058 5.791836 -2.840123 0.000001 0.000002 0.000000 
-40.776188 116.156021 -6.309928 -1.867322 14.118323 14.635748 6.161542 0.477877 -8.290769 -0.474872 2.231216 -1.854624 -2.882240 -9.369932 -1.810817 -2.920540 -5.793812 5.045542 -0.000003 -0.000000 -0.000000 2.582090 -8.668035 -11.171024 2.534994 -8.855886 -3.504059 -15.226723 -62.815918 -47.566902 -0.000002 -0.000003 0.000002 1.528857 1.092543 -19.957925 9.019541 12.755784 -37.327680 -6.835141 -29.679597 -29.524445 -0.000000 0.000002 -0.000000 -34.027360 -17.164918 32.873106 36.544159 -2.998954 -59.778990 -33.783693 14.269390 36.539053 0.000001 0.000000 0.000002 9.090657 -0.628322 -1.176316 -11.723332 -1.425348 -1.327163 -21.626384 6.270794 -2.230509 0.000000 0.000001 -0.000002 
-40.419716 115.542030 -6.341416 -2.734737 10.730157 14.208355 7.246726 0.283929 -7.644528 -1.274330 2.536314 -2.032631 -2.809088 -8.008051 -1.552189 -2.668678 -5.113367 5.200917 -0.000000 0.000000 -0.000000 2.750644 -6.179284 -12.210550 4.316262 -5.722687 -6.255525 -11.500993 -61.137993 -40.226249 -0.000003 -0.000002 0.000001 2.495892 1.820608 -18.145716 9.186006 11.785614 -35.483184 -7.186903 -28.251846 -29.766859 -0.000001 0.000001 0.000001 -30.936365 -14.558661 28.940720 37.637126 -2.770566 -56.266528 -33.620674 12.530614 34.373368 0.000000 0.000006 0.000003 9.608083 -0.691152 -1.539835 -12.235229 -1.306803 -0.958018 -21.348509 -0.758617 -8.912082 -0.000001 0.000002 -0.000000 
-39.994717 114.953415 -6.363701 -1.954634 8.883657 13.397504 4.830109 0.293827 -7.107640 0.691135 2.183663 -1.754303 -3.751687 -6.684632 -1.644899 -3.195255 -5.088622 5.847984 -0.000003 0.000001 0.000000 3.801612 -4.926248 -13.827666 5.408499 -5.569554 -8.752717 -4.083394 -56.058730 -28.530197 -0.000001 0.000003 -0.000001 3.707043 1.778759 -14.876034 9.908792 10.646656 -32.811003 -7.036047 -27.520842 -30.697336 -0.000001 0.000004 -0.000001 -27.640254 -11.839037 23.283895 35.032382 -1.290566 -50.853671 -30.252007 13.089917 32.024073 -0.000002 -0.000001 -0.000001 8.427437 -0.486952 -1.734469 -12.094511 -1.184496 -0.482312 -21.578036 -3.584481 -12.127204 -0.000001 0.000001 -0.000000 
-39.491272 114.341896 -6.384501 -1.158028 7.534530 11.355990 4.476965 0.176355 -4.893577 -0.013691 1.854112 -1.320152 -3.712491 -6.181937 -1.994876 -4.520347 -4.861070 6.172916 -0.000002 0.000000 0.000003 3.073094 -5.845522 -14.751583 5.563668 -3.029015 -13.050055 -1.261870 -49.298065 -22.289636 0.000004 -0.000002 -0.000000 3.755022 2.794236 -11.353275 8.019834 10.931611 -28.987039 -7.211111 -25.270795 -28.536483 0.000002 0.000001 -0.000000 -23.815603 -9.336348 17.503710 31.873371 0.784300 -42.980304 -26.139986 11.817072 27.166734 0.000002 -0.000001 -0.000001 7.219367 -0.239637 -0.872115 -12.029730 -1.179509 0.467246 -23.113425 -8.271956 -16.884837 -0.000005 0.000003 0.000001 
-38.972904 113.754784 -6.407526 -0.852629 4.993745 10.083296 4.368460 0.087392 -3.781963 -0.940762 2.076919 -1.943638 -3.249438 -4.863037 -0.980353 -5.886427 -4.527204 6.286319 -0.000005 0.000000 0.000002 2.975565 -5.429608 -14.932301 5.052188 -1.787825 -16.982989 0.114891 -42.921530 -19.157146 0.000001 -0.000002 0.000001 3.417302 2.840173 -8.900548 6.522179 12.077642 -25.463066 -7.128639 -23.193272 -26.815094 0.000002 -0.000003 0.000003 -19.540662 -6.788142 13.110231 27.740834 2.023487 -36.270507 -22.378538 11.145632 23.283854 0.000002 0.000001 0.000002 6.201453 -0.390207 -0.433602 -10.556103 -1.100629 0.811299 -24.352913 -9.575879 -18.987016 -0.000002 0.000004 0.000002 
-38.350002 113.137779 -6.415348 0.464498 3.541968 8.168262 1.823934 -0.060677 -1.785849 0.035395 1.915924 -2.089627 -3.671921 -3.555548 -0.657752 -6.042643 -4.812894 5.845576 -0.000003 0.000001 0.000001 2.131694 -1.940835 -15.439330 6.205307 2.029990 -21.522228 -0.536714 -38.912062 -21.054953 0.000001 -0.000007 0.000003 2.693314 2.515917 -5.515932 4.729376 11.818821 -21.106406 -6.527987 -20.748047 -24.171493 -0.000002 0.000001 0.000002 -16.189795 -5.159748 7.762565 23.280635 3.213715 -27.152213 -17.722533 7.689331 16.362309 -0.000002 0.000001 -0.000000 4.682250 -0.193650 0.249197 -9.841696 -1.211093 1.558299 -25.223906 -9.402830 -19.408604 -0.000002 0.000001 0.000000 
-37.643303 112.522621 -6.410262 1.286824 1.024276 6.218574 -0.047822 -0.220349 -0.101307 0.560151 1.669595 -1.748358 -2.750617 -1.662464 -0.167662 -8.368737 -4.131744 5.755829 -0.000001 0.000001 0.000002 1.634416 0.741408 -15.658475 8.881790 6.114508 -25.927801 -1.394896 -36.965096 -21.479524 -0.000003 0.000003 -0.000001 2.466245 2.223278 -1.703726 3.957616 11.539380 -16.503417 -6.276155 -18.363309 -22.363901 -0.000000 0.000004 -0.000000 -13.822707 -4.437617 3.138668 19.098879 3.803059 -18.085304 -12.721130 3.846920 9.694816 -0.000002 -0.000002 -0.000000 4.030810 0.098109 1.413903 -10.258337 -1.044498 1.067289 -25.130848 -9.009770 -18.777534 -0.000004 -0.000001 -0.000001 
-36.945965 111.942947 -6.409191 1.043451 -1.035109 4.866883 -0.020910 -0.342764 0.834216 0.314947 1.595073 -1.600706 -2.208821 -0.224858 0.474926 -9.795906 -3.864442 5.806967 -0.000003 0.000001 0.000001 1.558899 2.773177 -15.922291 11.041663 8.404368 -29.086183 -0.840529 -34.966897 -20.825798 -0.000000 -0.000003 0.000001 2.534288 2.020182 1.422458 3.776357 10.794719 -13.417598 -5.601186 -17.985799 -20.891781 0.000001 0.000004 -0.000001 -11.040430 -3.767017 -0.076715 14.839131 3.646720 -10.564720 -10.018608 -0.012403 4.581079 0.000002 -0.000001 0.000000 4.474721 0.231105 2.141787 -10.269509 -0.951178 0.668597 -24.906585 -7.987963 -17.770431 -0.000001 -0.000001 -0.000001 
-36.207058 111.385582 -6.422399 1.421233 -2.338030 3.280310 -1.553483 -0.481179 1.751859 0.492129 1.036774 -0.805831 -1.481964 0.778341 0.561125 -9.867065 -4.026020 5.792265 -0.000003 0.000001 0.000000 1.604681 3.613407 -16.373510 12.811125 9.598476 -32.056339 0.711152 -31.206916 -18.898034 0.000001 -0.000002 -0.000002 2.782257 1.903614 5.305825 3.564637 10.027718 -8.939553 -5.178272 -16.790012 -20.274015 -0.000000 0.000001 0.000003 -6.444176 -2.852937 -2.810088 7.481065 2.683930 -3.527820 -8.987218 -3.949525 0.306265 0.000002 -0.000001 -0.000000 4.310543 0.504988 2.986247 -10.145428 -1.065156 0.218721 -23.699537 -7.933447 -17.039816 -0.000004 0.000003 0.000000 
-35.410038 110.829689 -6.445335 2.513323 -4.401192 2.057124 -4.417599 -0.635692 2.091337 1.922720 0.650243 -0.277675 -1.292051 1.504567 1.224298 -10.465016 -3.702731 5.631666 -0.000003 0.000001 0.000001 1.929652 5.680769 -16.657260 13.263527 8.449297 -34.302815 2.984139 -25.686431 -17.524018 -0.000001 -0.000007 -0.000002 3.216691 1.591101 9.444495 3.986633 9.674968 -4.460227 -4.528865 -18.246191 -19.768210 -0.000001 0.000006 -0.000001 -2.164074 -2.056119 -4.867653 -0.287559 0.699499 1.743521 -9.385789 -6.275489 -1.910353 -0.000000 -0.000001 -0.000000 3.516335 0.817438 3.557557 -10.336417 -0.910309 -0.687184 -21.969577 -7.274500 -15.555640 -0.000001 -0.000004 -0.000004 
-34.618629 110.316856 -6.470993 1.503448 -4.101355 0.986307 -3.144432 -0.751489 2.589111 1.009318 0.135246 0.561186 -0.653296 1.859614 1.089907 -12.192481 -3.882341 5.974994 -0.000001 0.000001 0.000001 2.306801 4.655419 -16.926167 13.936038 8.087166 -36.061623 4.281606 -21.850468 -16.574467 -0.000000 0.000000 0.000000 2.885055 -0.467041 12.478704 4.379976 10.249056 -0.836900 -4.211643 -18.659720 -19.304572 -0.000000 0.000002 -0.000000 0.760098 -1.651399 -6.508886 -5.213140 -1.128460 5.948688 -10.474824 -8.475600 -3.783874 -0.000004 -0.000002 -0.000001 4.882593 0.824043 3.813866 -10.909336 -1.046502 -0.750673 -20.570756 -8.276982 -15.839996 -0.000004 -0.000001 -0.000001 
-33.738918 109.840096 -6.506275 1.239007 -3.598169 0.207043 -2.919369 -0.875094 2.978791 1.095926 -0.397127 1.153888 -0.834902 2.349476 1.365757 -13.173252 -4.284393 6.108435 -0.000003 0.000001 0.000000 3.013503 4.836235 -17.601242 14.215482 6.932312 -37.293612 6.791023 -17.584667 -15.969080 0.000000 -0.000002 0.000001 3.086075 -1.887191 15.875023 4.856964 9.462815 3.338171 -2.996201 -19.093314 -19.164838 -0.000000 0.000002 -0.000001 2.170584 -1.360962 -8.107955 -9.365455 -2.625399 8.707750 -11.417073 -9.278704 -4.220850 0.000002 0.000001 0.000000 5.714975 0.588689 3.715227 -11.055363 -1.472906 -1.341680 -19.370838 -7.880543 -15.543243 -0.000003 -0.000005 -0.000001 
-32.763851 109.400238 -6.539885 1.532354 -3.511041 -0.405806 -2.810723 -0.949449 3.238846 1.355871 -0.641070 1.770102 -0.786750 3.143519 1.589886 -13.943840 -4.486172 6.641802 -0.000001 0.000001 0.000001 3.393417 4.152727 -17.960472 14.038133 4.774047 -38.983585 8.626630 -13.152935 -15.223554 -0.000000 -0.000002 -0.000002 3.557617 -2.625373 18.937258 5.532054 8.647353 8.125370 -2.394021 -19.904892 -18.680543 0.000001 0.000002 -0.000001 3.443388 -1.547304 -9.175303 -13.582345 -3.754861 9.707129 -11.915633 -8.096972 -2.440833 0.000002 0.000000 0.000000 5.802539 0.719044 3.290219 -11.066377 -1.575097 -1.763271 -18.507805 -8.136173 -15.094573 -0.000002 0.000001 -0.000002 
-31.786949 108.992577 -6.575726 1.874211 -3.767148 -0.781787 -2.947224 -0.964269 3.382433 1.748466 -0.674625 2.052139 -1.192827 4.043449 1.952689 -13.108889 -5.106464 6.888236 0.000000 0.000001 0.000001 3.762443 3.516309 -18.117196 13.881355 2.487003 -40.273422 10.667307 -9.708708 -13.852776 0.000001 0.000003 -0.000003 4.183519 -2.860564 20.985589 6.724029 8.183575 12.070514 -1.114158 -20.482066 -19.095170 -0.000001 0.000004 -0.000002 4.396185 -1.594969 -9.784500 -16.235556 -4.031000 10.099720 -11.725152 -7.337913 -1.180964 0.000004 -0.000000 0.000001 5.105142 0.932314 3.073250 -10.378653 -1.873489 -2.400395 -17.659413 -7.752451 -14.603528 -0.000002 0.000001 -0.000000 
-30.664948 108.596260 -6.598222 2.233730 -3.317252 -1.305131 -2.817407 -1.116121 4.177009 1.188645 -0.993849 2.553610 -0.389400 3.413763 1.708989 -14.410207 -4.877228 6.883698 -0.000002 0.000001 0.000000 4.281986 4.563181 -18.301801 13.816821 0.592594 -41.755002 12.487333 -8.144026 -13.357793 -0.000001 0.000002 -0.000001 4.776445 -3.521160 22.844594 7.477655 9.170791 16.147484 0.802192 -21.641965 -17.973195 -0.000001 0.000004 0.000002 5.317910 -1.442451 -10.627458 -17.887342 -4.131420 10.333290 -12.835517 -7.783795 -0.973531 0.000000 -0.000001 0.000000 4.166816 0.840992 2.278175 -9.272056 -2.421883 -2.541373 -16.194671 -7.254942 -14.003781 -0.000002 0.000002 0.000000 
-29.408310 108.214897 -6.618715 3.960389 -2.324298 -1.708038 -4.954696 -1.428996 5.431248 2.407923 -1.257749 2.957317 -0.286159 2.845318 1.068656 -14.179853 -5.122616 7.240574 0.000000 0.000001 0.000001 4.637850 2.685792 -18.689436 13.390397 -1.533751 -43.060077 13.256672 -7.391470 -12.235412 -0.000002 -0.000002 0.000001 5.587751 -2.418075 24.215582 8.218396 9.485542 20.643480 1.974110 -22.831485 -17.480090 -0.000001 0.000004 0.000000 4.808224 -1.801673 -11.522540 -19.829052 -4.486580 10.062388 -13.204051 -7.845843 -0.735764 0.000000 -0.000001 -0.000001 2.031524 0.953048 0.550438 -7.712862 -2.831682 -1.171096 -14.770918 -7.996196 -13.985980 -0.000001 -0.000001 -0.000001 
-28.158642 107.867699 -6.620131 4.021438 -2.301109 -1.674938 -4.288532 -1.469317 5.784815 0.855791 -1.186848 2.933022 0.898663 2.366726 1.145439 -15.465476 -4.679126 7.372657 -0.000003 0.000001 0.000001 4.849355 4.454342 -19.086293 12.860855 -3.449579 -43.422531 14.734012 -7.145157 -12.706457 -0.000001 0.000000 0.000001 6.291200 -1.198722 24.889568 8.878687 9.892246 24.216695 3.285428 -24.377430 -17.275386 0.000002 0.000005 -0.000000 5.455626 -1.868324 -12.346130 -20.088659 -4.203167 9.487141 -14.597668 -8.319590 -0.686704 0.000000 0.000000 0.000000 0.942927 0.982121 -1.070899 -5.391648 -3.088785 -0.469662 -13.041274 -8.080339 -13.309987 0.000000 0.000003 -0.000000 
-26.818060 107.565002 -6.603343 3.564581 -1.569389 -1.516164 -3.644692 -1.528120 6.087175 0.063557 -1.223753 2.902322 1.560061 2.203149 1.182973 -16.085811 -4.730788 7.302090 -0.000002 0.000001 0.000000 5.648714 3.161193 -18.781239 12.633012 -5.129572 -44.146784 16.252819 -8.020152 -12.149330 0.000002 -0.000000 -0.000001 6.618860 -2.494387 25.586712 9.455455 10.502138 28.108643 5.498072 -25.490729 -16.301372 -0.000001 0.000000 -0.000002 5.928222 -1.666240 -13.655238 -19.727014 -3.790189 8.978095 -15.698833 -9.115906 -1.156943 0.000002 0.000000 0.000000 -0.325156 0.748987 -2.894738 -1.807424 -3.642503 -0.042125 -10.363856 -7.282769 -12.138898 -0.000001 -0.000003 -0.000003 
-25.433224 107.286217 -6.576815 4.866683 -0.835204 -1.842287 -5.131536 -1.693095 6.494195 -1.198518 -1.582550 3.387607 2.470611 2.317227 0.831947 -14.424074 -5.583931 7.573657 -0.000002 0.000000 0.000001 5.984806 2.952475 -18.283223 12.318665 -6.757474 -44.423059 18.643210 -8.004061 -12.596069 -0.000002 0.000002 -0.000001 6.920711 -3.329799 25.921188 9.897791 10.071290 31.995003 7.880320 -25.464267 -14.975670 0.000000 0.000002 -0.000001 6.870885 -1.464035 -14.519568 -20.944650 -3.537244 8.948863 -16.418171 -10.089462 -2.038115 -0.000002 -0.000001 0.000000 -2.829607 0.934297 -3.747899 1.894868 -3.965338 0.392770 -9.476593 -6.542309 -11.260387 -0.000001 -0.000003 -0.000000 
-24.105209 107.034416 -6.546606 5.932743 -0.924974 -2.075860 -6.883386 -1.829117 6.582076 1.064825 -1.714512 3.584364 1.225587 1.851977 0.896305 -14.609005 -5.378449 7.604204 -0.000002 0.000001 0.000000 6.215228 3.969690 -17.634239 11.989804 -8.057632 -44.824496 20.126380 -8.336826 -13.108093 -0.000003 -0.000000 -0.000003 7.452234 -2.714265 25.797146 9.958326 11.189662 34.671451 9.529947 -26.004238 -14.004375 0.000000 -0.000001 -0.000001 7.399601 -1.364169 -14.975806 -22.099564 -3.375440 8.696862 -16.693356 -10.143251 -1.824412 0.000000 0.000001 0.000000 -4.761136 1.171098 -3.929668 3.742970 -4.226544 0.322817 -8.132638 -6.761314 -10.967532 -0.000001 0.000001 -0.000002 
-22.790619 106.817322 -6.514206 6.179285 -0.577807 -2.535833 -7.800715 -1.840862 6.392663 2.560335 -1.790720 3.826983 0.293993 1.617207 1.103555 -14.105750 -5.765779 8.110683 -0.000002 0.000001 -0.000002 6.528707 4.199264 -17.115692 11.477637 -9.854859 -44.747288 21.344930 -9.174413 -12.234755 -0.000006 0.000003 -0.000001 8.179143 -1.933014 26.142358 10.203311 12.271007 36.672184 10.767960 -23.576409 -14.378656 0.000002 -0.000001 -0.000000 8.491505 -1.162618 -15.205065 -23.398008 -3.342374 8.242057 -16.951561 -10.305905 -1.874463 0.000000 -0.000002 -0.000000 -6.681395 1.488089 -3.430517 6.832029 -4.224022 1.206423 -8.858682 -6.257515 -10.944367 -0.000002 -0.000001 0.000000 
-21.511145 106.640121 -6.459550 6.185686 -0.334465 -2.954433 -7.966315 -1.786026 5.869257 2.703526 -2.164226 4.316276 0.302004 1.487730 1.150067 -13.823410 -6.409788 8.207224 -0.000000 0.000000 0.000002 6.963896 4.118067 -16.828609 11.514153 -10.863455 -44.289204 22.670352 -10.048711 -11.639710 -0.000000 -0.000000 -0.000001 8.331676 -3.329415 27.191881 10.592961 13.407180 37.296829 12.525864 -21.958047 -13.477923 -0.000000 0.000002 0.000003 9.753091 -0.972306 -15.428725 -24.408516 -3.498963 7.834997 -16.757386 -10.191980 -1.775776 -0.000003 -0.000000 0.000000 -7.737069 1.778542 -2.416272 9.297272 -4.359512 2.826670 -8.738763 -6.300871 -11.330819 0.000000 -0.000001 -0.000002 
-20.319414 106.491768 -6.403745 5.791060 -0.051308 -3.321441 -7.939228 -1.734166 5.691667 2.785520 -2.474812 4.714863 0.309809 1.547332 0.988741 -13.491583 -7.198406 8.356311 -0.000003 0.000002 -0.000001 6.803788 3.834145 -16.584825 11.344867 -11.042496 -44.072895 23.013370 -10.801686 -11.460266 -0.000000 -0.000002 -0.000000 8.237893 -3.605679 28.019195 10.070360 14.381498 37.527863 12.756463 -19.535531 -13.724838 0.000003 0.000004 -0.000000 11.029821 -0.869871 -15.594770 -24.869255 -3.285682 7.922898 -16.902485 -10.795636 -2.350294 -0.000000 -0.000001 -0.000000 -8.193599 1.911301 -1.457486 11.325166 -4.545811 4.341718 -8.353776 -6.952637 -11.852108 -0.000001 0.000002 -0.000001 
-19.173893 106.386635 -6.346003 5.915277 0.216405 -3.930742 -8.583726 -1.796371 5.698220 3.175342 -2.667919 5.064003 0.163573 1.565722 0.897105 -13.310380 -7.967037 8.712881 -0.000002 0.000002 -0.000001 7.225519 2.972170 -16.250442 11.361940 -11.815192 -43.691648 23.722512 -11.103435 -11.103450 0.000001 -0.000000 -0.000000 8.643977 -3.780563 28.728069 10.215117 16.061238 37.102718 13.067410 -16.346531 -14.566779 0.000001 0.000006 0.000003 11.521368 -0.762706 -15.629044 -25.632489 -3.451880 8.045591 -16.606167 -10.901796 -2.271296 0.000002 -0.000001 0.000000 -8.938957 2.031256 0.354198 12.385722 -4.856980 5.596205 -9.279170 -4.531875 -10.820990 0.000000 0.000001 -0.000000 
-18.080128 106.326859 -6.288116 5.544613 0.649091 -4.292658 -8.044075 -1.774944 5.540582 2.855047 -2.751890 5.294711 0.129619 1.471606 0.872352 -12.573383 -8.537936 9.064803 -0.000002 0.000000 -0.000000 7.567261 1.971248 -16.124371 11.286637 -12.655185 -43.403554 24.288882 -10.727101 -10.204099 0.000001 -0.000003 0.000002 9.131757 -3.260635 29.355989 10.111576 17.659181 36.429302 13.514708 -14.835348 -14.731024 0.000003 0.000004 0.000002 11.728773 -0.888478 -15.889255 -25.770189 -3.503441 8.260588 -16.314134 -10.792552 -2.077964 0.000000 -0.000002 -0.000002 -10.189689 2.244394 2.404390 13.630374 -4.908918 5.927846 -10.084813 -0.799167 -8.369686 -0.000001 0.000003 -0.000000 
-17.077326 106.297546 -6.243193 5.821030 0.917641 -4.502567 -8.580418 -1.809101 5.416532 3.188126 -2.818415 5.436656 0.073486 1.447559 0.828912 -12.806379 -8.834573 9.324475 -0.000003 0.000001 -0.000001 7.943711 1.091198 -16.235577 11.117142 -13.438302 -42.906924 24.958466 -10.128205 -9.627610 -0.000002 -0.000000 -0.000003 9.445852 -3.231739 29.892473 10.217487 18.845569 35.801765 14.284617 -15.042592 -14.254666 -0.000002 -0.000001 -0.000002 11.340293 -1.010413 -16.172332 -25.922516 -3.639302 8.671177 -16.042945 -10.968988 -2.238351 0.000002 -0.000001 -0.000000 -11.405767 2.349831 4.113902 13.376350 -5.144877 5.071135 -10.735432 2.745153 -6.097081 -0.000001 0.000005 0.000000 
-16.133240 106.298775 -6.191275 5.560945 1.463139 -4.735660 -8.974933 -1.847238 5.208074 3.330977 -2.844135 5.589810 0.030629 1.267883 0.768450 -12.397166 -9.095322 9.691856 -0.000003 0.000001 0.000002 8.367873 1.643870 -16.209579 11.553941 -13.543463 -43.036021 25.263927 -9.794281 -9.749132 -0.000005 -0.000000 -0.000002 9.717346 -3.586478 29.936552 10.577213 19.608358 35.409128 14.607056 -14.935467 -13.188413 0.000000 0.000006 0.000002 11.484924 -1.226176 -16.485032 -25.814222 -4.160801 9.134219 -16.312869 -10.952455 -2.085997 0.000000 -0.000001 -0.000000 -12.179857 2.547998 6.783643 11.272760 -5.058572 2.586572 -11.240657 6.477746 -3.311377 -0.000001 0.000003 -0.000000 
-15.257559 106.287247 -6.118299 5.826193 2.410473 -4.891623 -10.003662 -1.846116 4.844000 3.064168 -2.766785 5.566117 0.555226 0.621783 0.824608 -11.755195 -9.284595 10.000948 -0.000003 0.000001 0.000000 8.348914 2.467443 -16.105436 12.093107 -13.108590 -43.302873 25.733697 -9.276984 -10.891015 0.000005 0.000000 0.000001 9.714505 -3.570489 29.652389 10.946286 18.745461 35.428007 14.994702 -14.098902 -11.421180 0.000002 0.000006 0.000000 11.640793 -1.500188 -16.923561 -25.926640 -4.621297 9.861045 -16.515638 -10.913909 -1.982466 0.000002 0.000002 0.000001 -11.952229 2.646834 9.693140 7.908647 -4.782715 -0.893255 -11.089224 9.316982 -0.712179 -0.000001 0.000003 0.000000 
-14.459462 106.274437 -6.044866 5.513102 3.240226 -4.925211 -10.295315 -1.829231 4.616889 3.166999 -2.760306 5.656020 0.630705 0.422203 0.719981 -11.381510 -9.415207 10.471018 -0.000002 0.000001 0.000000 8.305619 2.963946 -16.135192 12.511385 -13.030170 -43.566177 25.862235 -8.885859 -11.219024 0.000004 -0.000002 -0.000000 9.656659 -3.745942 29.470996 11.424291 18.376614 35.514962 14.970339 -13.194114 -10.946568 0.000005 0.000004 -0.000001 12.366975 -1.677638 -17.143346 -25.923442 -4.797419 10.092908 -16.917416 -10.898597 -1.844040 -0.000003 -0.000001 -0.000000 -11.100176 2.757271 11.555395 4.855849 -4.419368 -3.468616 -11.443738 11.368785 1.265329 -0.000001 -0.000001 -0.000001 
-13.715461 106.273476 -5.981241 6.059245 3.956208 -5.035323 -11.249747 -1.876735 4.464545 3.614468 -2.838852 5.843641 0.454203 -0.691728 0.433317 -12.166642 -8.748876 10.598014 -0.000001 -0.000000 0.000004 8.291328 3.884455 -16.377532 12.902382 -12.880918 -43.829409 26.452035 -7.398445 -12.463583 0.000001 -0.000005 -0.000000 10.071575 -1.818028 29.065891 11.691025 18.443179 35.465091 14.615976 -12.586453 -10.658217 -0.000002 0.000002 0.000000 12.089564 -1.941881 -17.115511 -26.228032 -4.885264 9.983397 -16.814172 -10.840643 -1.798346 0.000002 -0.000001 0.000000 -9.218099 2.857390 13.341461 -0.146351 -3.908346 -6.241735 -11.632768 11.292628 1.516964 -0.000001 0.000000 -0.000001 
-13.023284 106.278038 -5.919959 6.294871 4.380760 -5.003299 -11.961313 -1.913895 4.292802 2.926493 -2.719124 5.745320 1.324459 -1.328616 0.391471 -12.158664 -8.374426 10.652834 -0.000002 -0.000000 0.000003 8.331812 4.351511 -16.696717 13.125160 -12.809624 -44.183182 26.967216 -5.987614 -13.400339 0.000003 -0.000002 0.000001 10.228318 -1.031358 28.851525 11.839362 18.661100 35.267142 14.634947 -12.317022 -9.888659 -0.000003 0.000004 -0.000001 11.812899 -2.120792 -17.200412 -26.454033 -4.820919 9.728084 -16.891307 -10.687734 -1.497529 -0.000000 -0.000000 0.000001 -7.893993 2.942124 14.501345 -3.547861 -3.470386 -8.510244 -11.826788 11.089135 1.413463 -0.000005 0.000001 0.000000 
-12.397726 106.281960 -5.867253 6.506651 4.566270 -4.918806 -12.376485 -1.892146 4.086319 3.560851 -2.634130 5.632125 0.651956 -1.183076 0.547461 -11.686106 -8.344551 10.638073 -0.000000 0.000001 0.000001 8.298385 4.482315 -16.849300 13.463340 -12.464200 -44.467328 27.575439 -4.898483 -14.258095 0.000004 -0.000002 -0.000000 10.142366 -1.233532 29.004395 11.999850 18.419268 34.930130 14.927875 -12.387077 -9.133938 -0.000001 0.000002 0.000001 11.288149 -2.213393 -17.301139 -26.421414 -4.746194 9.582788 -16.264434 -10.250548 -1.187277 0.000000 0.000001 0.000001 -6.442823 2.966078 15.109213 -6.711528 -3.023931 -10.028325 -12.331197 11.197159 1.437644 -0.000003 -0.000000 -0.000002 
-11.821424 106.283066 -5.821321 6.721755 4.452450 -5.019365 -12.563662 -1.895787 4.153600 3.215770 -2.468635 5.359562 1.037660 -1.145690 0.756276 -11.405778 -8.178326 10.421098 -0.000002 0.000001 0.000000 8.200294 5.288621 -17.079378 14.119183 -11.639126 -44.798654 27.907309 -4.221519 -14.583854 -0.000000 0.000001 -0.000002 10.134826 -0.989317 29.080664 11.895432 18.521858 34.718818 15.318902 -13.223005 -8.441905 -0.000001 0.000004 -0.000000 10.415994 -2.305706 -17.404505 -25.799952 -4.630088 9.815778 -15.759325 -10.005666 -1.136083 0.000004 0.000002 -0.000000 -4.736067 2.956717 15.521685 -9.552298 -2.614908 -11.037601 -12.466627 11.390328 1.601440 -0.000003 0.000003 -0.000000 
-11.287100 106.264771 -5.778149 6.929241 3.654826 -4.775677 -13.047701 -1.851233 3.973246 4.060631 -2.146449 4.967857 0.593030 -1.044361 1.068122 -11.162645 -7.594246 10.128803 0.000002 0.000000 0.000002 8.260227 6.140782 -17.404924 14.614860 -11.165636 -45.117883 28.272509 -3.106639 -14.263056 -0.000001 0.000002 -0.000001 10.387060 -0.429494 29.208604 11.593227 19.372139 34.642638 15.763085 -14.842723 -8.258713 0.000001 -0.000001 0.000000 10.352497 -2.332320 -17.857955 -26.414274 -4.775461 9.982443 -15.316498 -9.967416 -1.186419 0.000004 -0.000001 -0.000001 -2.088996 2.901524 15.224437 -13.102858 -2.354086 -11.415901 -12.915708 12.153788 2.150212 -0.000003 0.000001 0.000001 
-10.797692 106.225998 -5.732868 7.572434 3.529258 -4.667485 -13.155003 -1.847382 4.018103 3.122634 -1.982454 4.720510 1.179543 -0.813250 1.121211 -10.968067 -7.659928 10.017931 -0.000002 0.000001 0.000001 8.177334 6.484897 -17.455247 15.065126 -10.641595 -45.264388 28.659105 -2.470113 -14.435340 0.000002 0.000002 -0.000000 10.269621 -0.692519 29.051793 11.319037 19.719311 34.947609 16.194672 -16.015426 -7.874431 -0.000001 0.000001 0.000001 9.999671 -2.410341 -18.119387 -27.006896 -4.994409 10.068381 -14.679446 -10.111380 -1.593854 -0.000002 0.000000 -0.000000 0.056984 2.902018 15.068325 -16.590473 -2.042896 -11.768105 -12.731593 12.497265 2.458128 -0.000001 0.000001 -0.000000 
-10.346125 106.164223 -5.695586 8.087056 3.187246 -4.427072 -14.026955 -1.894063 3.933132 4.049478 -1.747392 4.486485 0.685971 -0.418210 1.207275 -10.876045 -7.253630 10.031647 -0.000001 0.000001 0.000001 8.488950 6.895958 -17.870587 15.261841 -10.888454 -44.746506 28.276807 -2.862097 -13.617651 -0.000000 -0.000000 -0.000000 10.468823 -1.017538 29.146504 11.678539 20.252146 34.666202 16.379774 -16.191739 -7.859027 -0.000002 0.000001 0.000003 10.018041 -2.538386 -18.346414 -27.761546 -5.168913 9.890097 -14.168775 -10.192750 -1.725289 0.000002 0.000001 0.000000 2.166797 2.928053 14.703328 -19.673026 -1.796116 -11.891043 -12.152377 12.586218 2.717081 -0.000001 0.000003 0.000000 
-9.929367 106.105606 -5.670582 8.128072 2.951328 -4.261335 -14.311461 -1.924510 3.954842 3.524498 -1.636872 4.325486 1.282468 -0.306145 1.143292 -11.376520 -6.921282 9.829999 -0.000000 0.000001 0.000001 8.612294 7.144794 -18.246695 15.302453 -11.075670 -44.336653 28.315089 -2.366276 -13.036384 0.000001 -0.000000 -0.000001 10.681566 -0.764598 29.033761 11.706377 20.850228 34.689527 16.601763 -16.243513 -8.250526 -0.000003 0.000002 0.000001 10.098108 -2.504893 -18.513620 -27.997306 -5.251413 9.699698 -14.080885 -10.130702 -1.796303 0.000004 -0.000000 0.000000 3.047934 2.907896 14.491780 -20.810026 -1.604158 -11.939126 -11.741999 12.355406 2.642040 -0.000002 0.000003 -0.000001 
-9.551544 106.050598 -5.635915 8.021852 2.693878 -4.084481 -14.422986 -1.964740 3.936301 3.683666 -1.445468 4.110270 1.220547 -0.069910 1.229035 -11.268274 -6.640380 9.730982 -0.000002 0.000001 0.000000 8.884595 7.361669 -18.659155 15.195226 -11.516583 -43.831469 28.172112 -2.223297 -12.387707 -0.000001 -0.000002 -0.000001 10.876589 -0.780519 29.083058 11.877231 21.518842 34.526104 16.923110 -16.695132 -8.217426 0.000002 -0.000001 0.000002 10.482137 -2.503696 -18.719086 -28.108986 -5.248103 9.634684 -14.119565 -10.106172 -1.643269 0.000004 -0.000000 0.000001 3.426783 2.889456 14.296518 -20.864659 -1.725835 -12.024145 -12.016837 12.691980 2.717399 -0.000001 0.000003 0.000000 
-9.193354 106.008369 -5.600363 8.107903 2.660534 -4.115304 -14.466235 -2.009542 4.125448 3.223618 -1.443201 4.097590 1.716967 0.071327 1.114181 -11.150746 -6.475163 9.587932 -0.000002 0.000001 -0.000002 8.810076 7.246173 -18.775799 15.008161 -11.761432 -43.790382 28.042127 -2.066716 -11.918602 -0.000001 -0.000004 -0.000001 10.722278 -1.140503 29.181724 11.895237 21.466516 34.449084 16.946183 -16.174878 -8.211560 -0.000000 0.000003 0.000003 10.476149 -2.540292 -18.771626 -28.300993 -5.367760 9.564576 -13.925844 -10.058554 -1.728712 0.000004 0.000001 0.000002 3.195310 2.912488 14.183022 -20.827118 -1.665500 -11.850089 -12.129957 12.314673 2.499055 -0.000003 0.000003 -0.000001 
-8.854211 105.975075 -5.556076 7.865325 2.739956 -4.188710 -14.097662 -2.049394 4.266759 2.847180 -1.535021 4.278842 1.807849 -0.024813 0.878055 -10.455197 -6.353681 9.494520 -0.000000 0.000001 0.000001 9.042826 6.905804 -18.781292 14.451693 -12.633921 -43.480072 27.858398 -2.784544 -11.517506 -0.000003 -0.000000 -0.000001 10.960640 -1.140171 29.081556 12.140982 21.693260 34.255519 16.931648 -15.050532 -8.503831 -0.000004 0.000004 -0.000001 10.641550 -2.544818 -18.772763 -28.240442 -5.394431 9.516243 -13.995147 -10.049505 -1.692237 0.000002 0.000000 -0.000000 3.086199 2.924680 14.134346 -20.469479 -1.663327 -11.879962 -12.039671 12.131113 2.315317 0.000001 0.000000 -0.000002 
-8.540173 105.939346 -5.514431 7.902221 2.615521 -4.144170 -14.070576 -2.056349 4.307093 2.900011 -1.537572 4.318671 1.743312 -0.217224 0.766899 -10.407513 -6.279440 9.422570 -0.000003 0.000000 0.000003 9.059642 6.906509 -18.811456 14.231931 -13.062125 -43.248157 27.497628 -3.834770 -11.001990 0.000004 -0.000002 0.000002 10.977680 -1.018398 28.868317 12.195447 21.760132 34.392909 17.031811 -14.772292 -8.124539 -0.000001 0.000004 -0.000000 10.691503 -2.628361 -18.835585 -28.145447 -5.393316 9.485469 -14.349840 -10.048600 -1.595439 0.000002 0.000000 -0.000000 2.989161 2.973086 13.990013 -20.508816 -1.590781 -11.917870 -12.067016 12.318637 2.499469 0.000001 0.000001 -0.000002 
-8.240580 105.907364 -5.473675 8.480689 2.727490 -4.277593 -14.606546 -2.088963 4.397624 3.375299 -1.728356 4.560876 1.430327 -0.007409 0.612283 -9.647708 -6.495578 9.326313 -0.000002 0.000001 0.000001 8.960990 5.902678 -18.611745 13.804007 -13.368102 -43.269245 27.548431 -3.893583 -11.163830 0.000003 0.000000 0.000001 10.642970 -2.070079 29.115245 12.169972 21.391749 34.142504 17.217222 -14.316239 -7.252523 -0.000000 0.000001 -0.000002 10.409477 -2.681864 -18.792277 -28.597609 -5.449039 9.424353 -14.145084 -9.916013 -1.525917 0.000004 -0.000000 -0.000000 2.206159 3.002253 14.028230 -20.419576 -1.587730 -11.961636 -12.036154 12.125065 2.378479 0.000001 0.000001 -0.000002 
-7.958876 105.866005 -5.431182 8.852096 2.598189 -4.349121 -14.531082 -2.113973 4.488226 2.651279 -1.752695 4.596705 1.973019 -0.203668 0.575379 -11.105386 -6.199872 9.331016 -0.000003 0.000001 0.000000 9.003671 6.302626 -18.474429 13.744042 -13.492375 -43.233250 27.494879 -4.763637 -11.245930 -0.000003 -0.000000 -0.000001 10.805490 -1.685940 28.957618 12.185303 21.466521 34.288479 17.259255 -14.197659 -7.291632 0.000003 0.000004 0.000002 10.241318 -2.663730 -18.699735 -28.753054 -5.399550 9.213709 -14.317229 -9.803908 -1.307180 0.000002 0.000000 0.000000 2.151556 3.055219 14.107928 -20.516348 -1.492911 -12.139206 -11.710636 12.299051 2.583172 -0.000001 0.000002 -0.000001 
-7.707753 105.823845 -5.385649 9.270031 2.623363 -4.543250 -14.973699 -2.168599 4.628300 3.073959 -1.755845 4.630291 1.682084 -0.165288 0.613748 -11.560214 -6.069955 9.317338 -0.000003 0.000001 0.000000 9.051184 5.971762 -18.321774 13.546555 -13.952138 -43.266588 27.790342 -4.859223 -11.249089 0.000001 0.000000 0.000000 10.855184 -1.849332 29.046838 12.258232 21.845549 34.041448 17.442737 -14.052512 -7.349336 0.000004 0.000004 -0.000002 9.908269 -2.684730 -18.498051 -28.673448 -5.341168 9.181937 -14.119394 -9.696434 -1.241689 0.000000 0.000001 0.000001 1.957660 3.114666 14.312508 -20.375593 -1.461509 -12.214731 -12.257328 12.466302 2.599243 -0.000001 0.000000 -0.000000 
-7.469942 105.785088 -5.335775 9.308882 2.630995 -4.559885 -14.601314 -2.147365 4.667969 3.294327 -1.838080 4.729503 1.249817 -0.407116 0.491922 -11.963960 -5.850517 9.310858 -0.000001 -0.000000 0.000005 9.022168 6.052546 -18.291346 12.888161 -14.470300 -42.982247 27.779006 -5.599115 -11.657603 0.000003 0.000002 -0.000000 11.027371 -0.985272 28.793690 12.027692 21.882449 34.043698 17.494379 -13.947705 -7.084097 0.000003 0.000002 -0.000000 9.893862 -2.606309 -18.547599 -28.439407 -5.185060 9.283881 -14.268887 -10.073154 -1.603840 0.000005 0.000001 0.000001 2.360646 3.009641 14.325448 -21.068808 -1.450818 -12.344189 -11.858385 12.418797 2.605388 -0.000003 0.000004 -0.000000 
-7.251511 105.756554 -5.291210 9.598269 2.528568 -4.605366 -14.966710 -2.145451 4.632408 2.720744 -1.817937 4.721542 1.862057 -0.644828 0.491422 -12.008844 -5.883960 9.410618 -0.000003 0.000001 0.000002 9.026998 6.195656 -18.283071 12.567613 -14.777058 -42.613612 27.886916 -6.225110 -12.022744 -0.000000 -0.000002 -0.000001 11.162299 -0.393999 28.727759 11.959593 21.869431 33.890712 17.384478 -13.730982 -7.028301 0.000002 0.000004 -0.000003 9.738637 -2.630349 -18.523919 -28.723678 -5.312842 9.240460 -14.216309 -9.856244 -1.370473 -0.000002 0.000001 0.000002 2.320446 3.007617 14.313262 -21.387271 -1.369846 -12.297231 -11.842226 12.517559 2.817089 -0.000001 0.000001 -0.000000 
-7.054349 105.732300 -5.249312 9.710535 2.496831 -4.598677 -14.862401 -2.112613 4.562973 2.906975 -1.835571 4.731517 1.671032 -0.313727 0.562140 -12.578716 -6.003774 9.514899 -0.000002 0.000001 0.000001 8.930858 5.743551 -18.197869 12.404727 -14.813642 -42.377253 27.599690 -7.110153 -11.967402 -0.000002 -0.000002 -0.000001 11.020687 -0.656998 28.694472 11.910741 21.699931 33.772195 17.383842 -13.311473 -6.743839 0.000003 -0.000001 -0.000000 9.607501 -2.678079 -18.520290 -28.792068 -5.234757 9.252168 -14.151740 -10.112484 -1.706383 0.000002 0.000002 0.000001 2.080555 3.033483 14.279080 -21.369032 -1.350144 -12.338775 -11.813470 12.577856 2.950104 -0.000003 -0.000001 -0.000001 
-6.882026 105.711937 -5.211818 9.344893 2.413431 -4.697995 -14.073620 -2.083013 4.553165 2.909874 -1.808182 4.716716 1.490595 -0.019200 0.664648 -13.016808 -6.051574 9.619177 -0.000002 0.000000 0.000003 8.992788 4.842955 -17.960706 12.436540 -15.094834 -42.165169 27.729788 -7.504672 -11.472002 -0.000001 -0.000005 0.000000 11.113609 -0.546456 28.666980 11.982346 22.230982 33.386600 17.486633 -12.719021 -7.008884 0.000001 0.000004 0.000002 9.780744 -2.631868 -18.303503 -28.669777 -5.104759 9.228039 -14.302426 -9.984452 -1.487678 0.000000 0.000001 0.000001 2.193865 3.057587 14.438989 -21.299081 -1.441086 -12.381581 -12.236053 12.707087 2.934342 -0.000001 0.000001 -0.000001 
-6.724536 105.694954 -5.178253 9.615065 2.362934 -4.732211 -14.277882 -2.098506 4.573697 3.186078 -1.771785 4.684606 1.297077 -0.201191 0.612892 -13.465568 -6.018947 9.676949 -0.000003 0.000001 0.000000 8.993546 4.611515 -17.884992 12.198378 -15.407546 -41.859887 27.616203 -7.821202 -11.402789 0.000002 -0.000002 0.000001 11.198452 -0.246391 28.476602 12.011075 22.407696 33.354990 17.464661 -12.268354 -7.012960 0.000002 0.000004 0.000000 9.438860 -2.695143 -18.287176 -28.672301 -5.152578 9.189025 -14.498822 -10.102197 -1.581150 0.000002 0.000001 0.000001 1.826734 3.090596 14.427443 -21.449156 -1.379558 -12.352909 -11.971763 12.424653 2.740244 -0.000003 0.000002 -0.000001 
-6.584801 105.675362 -5.139874 9.728827 2.090318 -4.667138 -14.166962 -2.070001 4.462303 2.712316 -1.771080 4.704487 1.630532 -0.137005 0.590874 -13.645909 -6.035242 9.713865 -0.000003 0.000001 0.000001 9.027328 4.615233 -17.842865 12.227029 -15.438205 -41.692636 27.506440 -8.260005 -11.151313 -0.000005 -0.000002 -0.000000 11.256211 -0.040185 28.268548 11.961617 22.604687 33.451070 17.304411 -11.804800 -7.276376 -0.000005 0.000004 0.000000 9.675195 -2.696312 -18.376691 -28.885734 -5.214695 9.221997 -14.611646 -10.280058 -1.722368 0.000000 0.000001 0.000000 1.517003 3.107149 14.402164 -21.102467 -1.434840 -12.410383 -11.969636 12.539793 2.817952 -0.000003 0.000001 -0.000001 
-6.459597 105.649750 -5.087509 10.026007 2.306184 -4.623867 -14.497901 -2.059241 4.379989 2.492856 -1.754902 4.638415 1.890036 -0.558544 0.559645 -13.753609 -6.011554 9.653472 -0.000002 0.000000 0.000002 8.940568 5.469753 -17.829398 12.152442 -15.313655 -41.595859 27.267814 -8.922486 -11.420020 0.000003 0.000002 0.000002 11.235794 0.095429 28.023525 11.730862 22.812193 33.617030 17.474575 -11.914351 -6.863864 0.000000 0.000006 -0.000001 9.694081 -2.622344 -18.432626 -29.253123 -5.257139 9.229424 -14.257999 -10.201721 -1.667433 0.000000 -0.000000 0.000001 1.613454 3.014594 14.355811 -21.397466 -1.494878 -12.423823 -11.781523 12.557184 2.766387 0.000001 -0.000001 -0.000001 
-6.348509 105.627464 -5.046572 10.009379 2.445053 -4.597169 -14.481876 -2.040297 4.362973 3.094826 -1.777395 4.651478 1.437202 -0.334634 0.480286 -13.698158 -6.167305 9.758558 -0.000002 0.000001 0.000001 8.802282 4.725869 -17.591545 12.198176 -15.079282 -41.547293 26.839440 -9.605341 -11.305204 -0.000001 -0.000002 0.000001 11.027648 -0.205539 28.058391 11.621136 22.526322 33.651249 17.242893 -11.450147 -6.740505 -0.000003 -0.000001 -0.000002 9.791334 -2.659043 -18.499832 -29.152422 -5.341371 9.291096 -14.502191 -10.341868 -1.828204 0.000002 0.000000 -0.000000 1.414532 3.008063 14.243111 -20.902269 -1.531791 -12.137279 -12.216023 12.163109 2.469310 -0.000002 0.000003 -0.000000 
-6.252436 105.602180 -5.001278 10.276036 2.144058 -4.507241 -14.304015 -2.009646 4.241821 2.499612 -1.640036 4.495864 1.740458 -0.252440 0.692288 -13.821835 -6.035419 9.735806 -0.000000 0.000001 0.000002 8.850486 4.770928 -17.280645 12.044984 -15.322370 -41.587847 26.965365 -9.948667 -11.431950 -0.000001 0.000003 -0.000000 11.151727 0.138951 27.797932 11.652143 22.558264 33.690038 17.205387 -10.958218 -6.895322 -0.000002 0.000004 -0.000001 9.790464 -2.694376 -18.589487 -29.320353 -5.362931 9.328399 -14.015260 -9.957876 -1.443090 0.000002 -0.000000 0.000001 1.388278 3.004385 14.203812 -21.039001 -1.567518 -12.219942 -12.051188 12.404843 2.650326 -0.000003 -0.000001 -0.000002 
-6.176631 105.581505 -4.956026 10.133199 2.468525 -4.573978 -13.778908 -2.003438 4.292032 2.412688 -1.691820 4.520476 1.543961 -0.607289 0.567707 -13.633643 -6.091118 9.647137 -0.000003 0.000001 -0.000001 8.795426 4.415805 -17.201261 12.156453 -15.065884 -41.504748 26.771417 -10.425287 -11.317275 -0.000001 -0.000000 -0.000001 11.061026 0.057966 27.702335 11.618270 22.578432 33.502238 17.248804 -10.411082 -6.560037 0.000000 0.000003 0.000005 9.875530 -2.625746 -18.508947 -29.218955 -5.329467 9.404452 -14.266233 -10.355769 -1.803940 0.000002 0.000000 -0.000000 1.331687 2.983106 14.252966 -20.546138 -1.729526 -12.131922 -12.035059 12.363953 2.512214 -0.000002 -0.000001 -0.000001 
-6.116197 105.562531 -4.906431 10.188368 2.327336 -4.489094 -14.111207 -1.994891 4.219786 2.859229 -1.694695 4.489030 1.416375 -0.511245 0.558501 -13.859865 -6.131187 9.660237 -0.000003 0.000001 0.000001 8.592506 4.183727 -17.040386 12.015583 -14.881906 -41.688893 26.408722 -10.594366 -11.655160 -0.000000 0.000000 0.000000 10.878222 0.016576 27.560440 11.421737 22.424618 33.617996 17.180806 -10.334142 -5.926051 -0.000004 0.000004 0.000002 9.732869 -2.652479 -18.559415 -29.161015 -5.239012 9.554595 -14.217416 -10.635037 -2.136888 -0.000004 -0.000001 -0.000000 1.502166 2.962132 14.180382 -20.910882 -1.726072 -12.088117 -12.169790 12.362816 2.535285 -0.000001 0.000001 -0.000001 
-6.065894 105.550369 -4.875707 10.480128 1.978445 -4.405371 -14.391296 -1.983305 4.197889 2.590327 -1.603923 4.319108 1.791828 -0.408168 0.740073 -14.079400 -5.970829 9.527947 -0.000003 0.000001 -0.000001 8.416974 4.361391 -16.959291 11.769428 -14.885837 -41.788672 26.506525 -10.419631 -12.324050 0.000003 -0.000003 0.000000 10.859775 0.503113 27.289760 11.169241 22.596735 33.657680 17.304412 -10.494505 -5.629220 -0.000001 0.000004 -0.000000 9.101047 -2.693631 -18.615523 -28.755431 -5.099179 9.613771 -14.743472 -10.640506 -2.055112 -0.000000 -0.000001 0.000001 0.988180 2.926170 14.110467 -20.758309 -1.758373 -12.045395 -12.128451 12.335138 2.528788 -0.000001 0.000000 -0.000000 
-6.033416 105.525818 -4.836227 10.451509 1.971187 -4.318533 -14.052410 -1.916021 4.098231 2.270756 -1.643599 4.326019 1.820307 -0.423469 0.720221 -14.222494 -5.901684 9.413631 -0.000002 0.000001 0.000003 8.248197 4.596369 -16.939578 11.746282 -14.514970 -41.743227 26.364247 -10.932899 -12.888630 -0.000000 0.000003 0.000001 10.713750 0.551343 27.234681 10.958919 22.392685 33.627453 17.332097 -10.189915 -5.210469 -0.000002 0.000001 -0.000002 9.515770 -2.620414 -18.659839 -29.166772 -5.134497 9.638484 -14.521763 -10.528510 -1.948911 0.000001 0.000001 0.000001 1.117691 2.862602 14.159222 -20.869981 -1.804141 -12.177270 -12.111379 12.749356 2.819617 0.000003 0.000003 -0.000000 
-6.016864 105.505760 -4.798063 10.458334 2.058827 -4.341880 -14.045756 -1.936377 4.121200 2.489216 -1.690639 4.376424 1.562413 -0.353128 0.692950 -14.018567 -5.915941 9.369221 -0.000001 0.000001 0.000000 8.319913 4.438738 -16.733024 11.677110 -14.798535 -41.844109 26.289857 -11.416362 -12.349077 0.000002 0.000002 0.000001 10.719672 0.446392 27.051610 11.152424 22.151323 33.638589 17.533797 -9.978336 -4.922895 -0.000003 0.000000 -0.000000 9.526098 -2.656380 -18.552447 -29.299664 -5.277603 9.608927 -14.066520 -10.318094 -1.847721 0.000000 -0.000001 -0.000000 1.483368 2.915241 14.234070 -21.302754 -1.808648 -12.092314 -12.233331 12.948016 2.900420 -0.000001 0.000001 -0.000002 
-6.004943 105.484978 -4.759901 10.299901 1.998837 -4.207023 -13.673001 -1.908202 4.124931 2.068484 -1.596139 4.232115 1.856665 -0.261536 0.796558 -14.230308 -5.848925 9.356275 0.000000 0.000001 0.000003 8.215563 4.472626 -16.567251 11.846522 -14.452790 -41.988096 26.356793 -11.783359 -12.785499 -0.000002 0.000005 0.000000 10.589592 0.293173 26.806939 11.052813 21.911614 33.798751 17.737117 -10.088327 -4.396380 -0.000001 0.000004 0.000002 9.678297 -2.647790 -18.711218 -29.328986 -5.307581 9.640523 -13.710418 -10.091885 -1.724883 0.000000 -0.000001 0.000002 1.647183 2.876460 14.111685 -20.903958 -1.826387 -12.023005 -12.359752 13.067960 3.013774 -0.000001 0.000000 -0.000001 
